Origin Time       20/10/2013 19:45:05
Lat.              35.8 N	
Long.             77.5 E	
Depth (Km)         80.0
Magnitude         5.5
 Region           India-China-Border-Region                                        
 Above details taken from IMD 
   
Station Code      DLU
Station Lat.       28.691
Station Long.      77.212
Station Height(m)  220.0
Site Class        C   Vs30 between 200 m/sec to 375 m/sec *  
Record Time       20.10.2013 19:47:34.969
Sampling Rate     200. Hz
 Record Duration   80.000 Sec.
 Direction         Vert. (Up positive)
Max. Acceleration     -0.906 cm/sec**2
     
  * For reference see Site Classification link of website 
     
 Base Line Corrected and Low Pass Filtered (Cut Off at 35 Hz) Time History
 Acceleration data in cm/sec**2
    
[...]
      -0.041
       0.003
       0.021
      -0.014
      -0.082
      -0.135
      -0.130
      -0.064
       0.029
       0.103
       0.133
       0.124
       0.100
       0.086
       0.090
       0.097
       0.089
       0.058
       0.014
      -0.032
      -0.075
      -0.118
      -0.154
      -0.166
      -0.142
      -0.095
      -0.059
      -0.060
      -0.088
      -0.106
      -0.083
      -0.016
       0.057
       0.088
       0.054
      -0.030
      -0.105
      -0.113
      -0.037
       0.077
       0.155
       0.155
       0.110
       0.097
       0.164
       0.272
       0.320
       0.234
       0.038
      -0.160
      -0.258
      -0.232
      -0.152
      -0.100
      -0.099
      -0.097
      -0.034
       0.085
       0.188
       0.191
       0.075
      -0.092
      -0.208
      -0.217
      -0.142
      -0.048
       0.021
       0.067
       0.107
       0.133
       0.108
       0.011
      -0.122
      -0.207
      -0.174
      -0.037
       0.109
       0.149
       0.048
      -0.112
      -0.191
      -0.104
       0.099
       0.273
       0.293
       0.156
      -0.018
      -0.095
      -0.028
       0.114
       0.209
       0.184
       0.054
      -0.101
      -0.203
      -0.220
      -0.169
      -0.092
      -0.023
       0.026
       0.055
       0.066
       0.060
       0.039
       0.008
      -0.022
      -0.044
      -0.062
      -0.081
      -0.098
      -0.095
      -0.056
       0.011
       0.071
       0.085
       0.038
      -0.039
      -0.093
      -0.081
      -0.009
       0.071
       0.104
       0.079
       0.044
       0.066
       0.163
       0.274
       0.299
       0.180
      -0.040
      -0.243
      -0.322
      -0.260
      -0.134
      -0.051
      -0.059
      -0.118
      -0.150
      -0.116
      -0.049
      -0.012
      -0.033
      -0.073
      -0.067
       0.004
       0.084
       0.091
       0.007
      -0.082
      -0.062
       0.101
       0.305
       0.381
       0.236
      -0.053
      -0.289
      -0.309
      -0.117
       0.121
       0.220
       0.123
      -0.061
      -0.160
      -0.090
       0.084
       0.213
       0.199
       0.070
      -0.060
      -0.097
      -0.040
       0.040
       0.074
       0.057
       0.031
       0.021
       0.007
      -0.049
      -0.149
      -0.244
      -0.273
      -0.218
      -0.121
      -0.046
      -0.023
      -0.037
      -0.050
      -0.043
      -0.022
      -0.008
      -0.013
      -0.017
       0.010
       0.087
       0.191
       0.271
       0.280
       0.216
       0.120
       0.042
       0.003
      -0.022
      -0.069
      -0.145
      -0.215
      -0.234
      -0.180
      -0.078
       0.025
       0.090
       0.099
       0.055
      -0.027
      -0.124
      -0.194
      -0.194
      -0.106
       0.034
       0.152
       0.185
       0.130
       0.055
       0.038
       0.103
       0.194
       0.222
       0.138
      -0.020
      -0.162
      -0.212
      -0.164
      -0.076
      -0.014
      -0.004
      -0.021
      -0.017
       0.030
       0.101
       0.144
       0.118
       0.023
      -0.094
      -0.176
      -0.194
      -0.160
      -0.110
      -0.079
      -0.079
      -0.096
      -0.109
      -0.100
      -0.063
      -0.003
       0.056
       0.085
       0.065
      -0.005
      -0.096
      -0.165
      -0.173
      -0.110
       0.001
       0.113
       0.182
       0.188
       0.145
       0.096
       0.078
       0.097
       0.126
       0.134
       0.118
       0.102
       0.110
       0.135
       0.140
       0.098
       0.021
      -0.055
      -0.099
      -0.112
      -0.119
      -0.138
      -0.167
      -0.188
      -0.190
      -0.179
      -0.169
      -0.168
      -0.163
      -0.132
      -0.064
       0.024
       0.097
       0.119
       0.086
       0.031
      -0.011
      -0.028
      -0.042
      -0.075
      -0.123
      -0.150
      -0.113
      -0.001
       0.153
       0.282
       0.327
       0.275
       0.163
       0.052
      -0.015
      -0.033
      -0.030
      -0.032
      -0.044
      -0.048
      -0.029
       0.006
       0.035
       0.032
      -0.008
      -0.068
      -0.124
      -0.155
      -0.154
      -0.123
      -0.065
       0.007
       0.072
       0.104
       0.094
       0.054
       0.012
      -0.018
      -0.042
      -0.068
      -0.083
      -0.058
       0.022
       0.135
       0.230
       0.265
       0.230
       0.151
       0.063
      -0.019
      -0.089
      -0.137
      -0.140
      -0.091
      -0.019
       0.022
      -0.005
      -0.092
      -0.182
      -0.215
      -0.180
      -0.109
      -0.054
      -0.032
      -0.026
      -0.012
       0.013
       0.026
       0.004
      -0.045
      -0.089
      -0.094
      -0.057
      -0.004
       0.035
       0.045
       0.031
       0.010
      -0.002
       0.007
       0.047
       0.114
       0.181
       0.209
       0.172
       0.084
      -0.007
      -0.055
      -0.045
      -0.002
       0.035
       0.038
       0.012
      -0.012
      -0.007
       0.032
       0.081
       0.105
       0.081
       0.004
      -0.107
      -0.223
      -0.309
      -0.337
      -0.299
      -0.212
      -0.116
      -0.042
       0.002
       0.034
       0.078
       0.147
       0.229
       0.301
       0.332
       0.298
       0.202
       0.075
      -0.034
      -0.086
      -0.082
      -0.058
      -0.062
      -0.112
      -0.186
      -0.235
      -0.212
      -0.110
       0.023
       0.116
       0.113
       0.015
      -0.120
      -0.212
      -0.211
      -0.135
      -0.042
       0.013
       0.014
      -0.010
      -0.016
       0.021
       0.092
       0.163
       0.203
       0.196
       0.154
       0.101
       0.058
       0.027
       0.001
      -0.022
      -0.028
       0.007
       0.090
       0.203
       0.303
       0.341
       0.282
       0.132
      -0.056
      -0.214
      -0.295
      -0.292
      -0.234
      -0.158
      -0.096
      -0.064
      -0.066
      -0.081
      -0.080
      -0.037
       0.042
       0.121
       0.159
       0.139
       0.076
       0.004
      -0.036
      -0.026
       0.023
       0.070
       0.065
      -0.012
      -0.135
      -0.247
      -0.295
      -0.271
      -0.208
      -0.152
      -0.133
      -0.151
      -0.180
      -0.188
      -0.157
      -0.100
      -0.046
      -0.015
       0.003
       0.037
       0.105
       0.191
       0.252
       0.264
       0.243
       0.237
       0.271
       0.320
       0.332
       0.275
       0.168
       0.049
      -0.053
      -0.133
      -0.187
      -0.201
      -0.170
      -0.116
      -0.081
      -0.097
      -0.158
      -0.226
      -0.250
      -0.198
      -0.072
       0.083
       0.205
       0.242
       0.194
       0.107
       0.033
      -0.010
      -0.044
      -0.092
      -0.144
      -0.171
      -0.157
      -0.118
      -0.085
      -0.072
      -0.074
      -0.074
      -0.063
      -0.038
      -0.002
       0.039
       0.070
       0.079
       0.062
       0.027
      -0.019
      -0.070
      -0.118
      -0.139
      -0.102
      -0.001
       0.129
       0.226
       0.244
       0.188
       0.115
       0.084
       0.103
       0.125
       0.090
      -0.014
      -0.135
      -0.200
      -0.168
      -0.064
       0.048
       0.109
       0.103
       0.062
       0.032
       0.039
       0.073
       0.091
       0.061
      -0.013
      -0.084
      -0.098
      -0.035
       0.069
       0.149
       0.149
       0.065
      -0.074
      -0.225
      -0.351
      -0.413
      -0.382
      -0.258
      -0.085
       0.075
       0.179
       0.225
       0.237
       0.229
       0.187
       0.093
      -0.039
      -0.167
      -0.236
      -0.220
      -0.130
      -0.004
       0.111
       0.172
       0.156
       0.072
      -0.036
      -0.109
      -0.111
      -0.059
      -0.013
      -0.030
      -0.118
      -0.225
      -0.270
      -0.202
      -0.037
       0.153
       0.290
       0.334
       0.302
       0.237
       0.175
       0.119
       0.049
      -0.053
      -0.179
      -0.292
      -0.339
      -0.280
      -0.109
       0.127
       0.349
       0.483
       0.497
       0.410
       0.274
       0.134
       0.002
      -0.131
      -0.266
      -0.375
      -0.407
      -0.334
      -0.184
      -0.033
       0.043
       0.017
      -0.081
      -0.197
      -0.292
      -0.346
      -0.345
      -0.271
      -0.127
       0.053
       0.209
       0.296
       0.305
       0.258
       0.178
       0.075
      -0.039
      -0.135
      -0.166
      -0.103
       0.032
       0.171
       0.251
       0.250
       0.195
       0.129
       0.073
       0.033
       0.010
       0.011
       0.043
       0.099
       0.156
       0.181
       0.153
       0.090
       0.041
       0.042
       0.080
       0.090
       0.023
      -0.106
      -0.214
      -0.228
      -0.147
      -0.042
       0.009
      -0.030
      -0.136
      -0.264
      -0.361
      -0.391
      -0.348
      -0.259
      -0.165
      -0.084
       0.009
       0.141
       0.301
       0.426
       0.446
       0.343
       0.178
       0.044
       0.005
       0.052
       0.124
       0.151
       0.090
      -0.064
      -0.283
      -0.508
      -0.665
      -0.692
      -0.575
      -0.354
      -0.097
       0.130
       0.289
       0.373
       0.400
       0.396
       0.377
       0.344
       0.295
       0.240
       0.196
       0.167
       0.139
       0.096
       0.042
       0.003
      -0.003
       0.007
      -0.003
      -0.051
      -0.112
      -0.150
      -0.149
      -0.123
      -0.095
      -0.074
      -0.055
      -0.032
      -0.007
       0.021
       0.050
       0.071
       0.061
      -0.006
      -0.128
      -0.263
      -0.347
      -0.339
      -0.254
      -0.152
      -0.086
      -0.055
      -0.006
       0.103
       0.247
       0.342
       0.314
       0.176
       0.020
      -0.050
      -0.008
       0.076
       0.103
       0.034
      -0.081
      -0.155
      -0.143
      -0.070
      -0.001
       0.020
      -0.008
      -0.056
      -0.103
      -0.144
      -0.169
      -0.163
      -0.115
      -0.032
       0.069
       0.182
       0.297
       0.385
       0.389
       0.263
       0.030
      -0.213
      -0.356
      -0.355
      -0.255
      -0.141
      -0.066
      -0.024
       0.012
       0.046
       0.055
       0.020
      -0.039
      -0.073
      -0.044
       0.042
       0.132
       0.174
       0.159
       0.125
       0.124
       0.164
       0.200
       0.171
       0.054
      -0.112
      -0.260
      -0.341
      -0.349
      -0.309
      -0.250
      -0.190
      -0.133
      -0.068
       0.022
       0.130
       0.213
       0.218
       0.145
       0.075
       0.110
       0.271
       0.457
       0.520
       0.392
       0.140
      -0.101
      -0.233
      -0.258
      -0.233
      -0.201
      -0.169
      -0.130
      -0.099
      -0.112
      -0.185
      -0.291
      -0.376
      -0.399
      -0.353
      -0.258
      -0.131
       0.018
       0.184
       0.351
       0.495
       0.590
       0.611
       0.542
       0.387
       0.186
       0.009
      -0.075
      -0.046
       0.054
       0.143
       0.150
       0.055
      -0.098
      -0.231
      -0.283
      -0.258
      -0.219
      -0.223
      -0.270
      -0.304
      -0.270
      -0.169
      -0.057
       0.009
       0.017
      -0.001
      -0.009
       0.001
       0.012
       0.012
       0.005
       0.003
       0.010
       0.021
       0.031
       0.042
       0.059
       0.079
       0.090
       0.080
       0.047
      -0.008
      -0.073
      -0.128
      -0.149
      -0.126
      -0.074
      -0.033
      -0.037
      -0.086
      -0.141
      -0.152
      -0.100
      -0.014
       0.056
       0.076
       0.058
       0.053
       0.111
       0.243
       0.403
       0.517
       0.520
       0.398
       0.191
      -0.032
      -0.209
      -0.320
      -0.381
      -0.420
      -0.451
      -0.460
      -0.417
      -0.295
      -0.098
       0.123
       0.290
       0.342
       0.275
       0.149
       0.054
       0.051
       0.132
       0.239
       0.308
       0.322
       0.310
       0.313
       0.332
       0.323
       0.221
      -0.005
      -0.318
      -0.631
      -0.846
      -0.906
      -0.814
      -0.618
      -0.388
      -0.186
      -0.052
       0.004
       0.014
       0.031
       0.099
       0.219
       0.353
       0.450
       0.479
       0.441
       0.351
       0.229
       0.090
      -0.045
      -0.150
      -0.208
      -0.216
      -0.190
      -0.148
      -0.108
      -0.075
      -0.048
      -0.020
       0.012
       0.033
       0.021
      -0.038
      -0.122
      -0.183
      -0.168
      -0.065
       0.097
       0.268
       0.411
       0.507
       0.548
       0.512
       0.382
       0.164
      -0.083
      -0.268
      -0.309
      -0.189
       0.027
       0.233
       0.339
       0.317
       0.201
       0.047
      -0.115
      -0.275
      -0.423
      -0.529
      -0.558
      -0.493
      -0.346
      -0.153
       0.044
       0.211
       0.318
       0.352
       0.319
       0.242
       0.144
       0.033
      -0.097
      -0.246
      -0.393
      -0.491
      -0.496
      -0.400
      -0.250
      -0.128
      -0.096
      -0.152
      -0.228
      -0.239
      -0.143
       0.033
       0.221
       0.355
       0.415
       0.412
       0.364
       0.282
       0.176
       0.066
      -0.024
      -0.066
      -0.044
       0.043
       0.186
       0.353
       0.493
       0.547
       0.481
       0.305
       0.071
      -0.152
      -0.310
      -0.376
      -0.348
      -0.243
      -0.091
       0.072
       0.206
       0.277
       0.266
       0.171
       0.012
      -0.164
      -0.298
      -0.343
      -0.286
      -0.159
      -0.011
       0.111
       0.172
       0.149
       0.030
      -0.166
      -0.387
      -0.560
      -0.630
      -0.587
      -0.463
      -0.300
      -0.123
       0.054
       0.220
       0.347
       0.406
       0.384
       0.298
       0.188
       0.102
       0.076
       0.124
       0.229
       0.354
       0.451
       0.484
       0.431
       0.296
       0.101
      -0.114
      -0.302
      -0.430
      -0.477
      -0.443
      -0.334
      -0.153
       0.084
       0.335
       0.526
       0.581
       0.463
       0.202
      -0.120
      -0.397
      -0.551
      -0.558
      -0.456
      -0.310
      -0.177
      -0.076
       0.014
       0.110
       0.194
       0.216
       0.146
       0.013
      -0.101
      -0.127
      -0.057
       0.055
       0.139
       0.153
       0.095
      -0.010
      -0.125
      -0.215
      -0.250
      -0.232
      -0.192
      -0.171
      -0.182
      -0.196
      -0.166
      -0.064
       0.090
       0.240
       0.324
       0.320
       0.253
       0.184
       0.182
       0.282
       0.450
       0.599
       0.631
       0.493
       0.219
      -0.091
      -0.324
      -0.413
      -0.361
      -0.216
      -0.031
       0.150
       0.296
       0.380
       0.379
       0.287
       0.114
      -0.110
      -0.340
      -0.527
      -0.638
      -0.658
      -0.598
      -0.479
      -0.325
      -0.166
      -0.035
       0.033
       0.019
      -0.062
      -0.174
      -0.270
      -0.314
      -0.287
      -0.186
      -0.027
       0.159
       0.324
       0.418
       0.399
       0.266
       0.068
      -0.110
      -0.192
      -0.149
      -0.018
       0.134
       0.252
       0.317
       0.339
       0.330
       0.284
       0.192
       0.064
      -0.058
      -0.121
      -0.095
       0.003
       0.138
       0.282
       0.418
       0.522
       0.546
       0.448
       0.233
      -0.027
      -0.224
      -0.287
      -0.221
      -0.092
       0.023
       0.078
       0.066
      -0.002
      -0.110
      -0.244
      -0.390
      -0.525
      -0.607
      -0.598
      -0.480
      -0.278
      -0.060
       0.094
       0.133
       0.063
      -0.059
      -0.155
      -0.174
      -0.112
      -0.010
       0.074
       0.101
       0.068
       0.014
      -0.019
      -0.004
       0.043
       0.085
       0.080
       0.017
      -0.080
      -0.160
      -0.176
      -0.110
       0.009
       0.122
       0.188
       0.208
       0.228
       0.287
       0.380
       0.450
       0.431
       0.309
       0.135
      -0.008
      -0.063
      -0.027
       0.073
       0.205
       0.344
       0.456
       0.502
       0.448
       0.294
       0.080
      -0.132
      -0.295
      -0.394
      -0.437
      -0.437
      -0.404
      -0.348
      -0.290
      -0.251
      -0.249
      -0.275
      -0.306
      -0.319
      -0.308
      -0.287
      -0.269
      -0.254
      -0.230
      -0.179
      -0.100
      -0.005
       0.080
       0.127
       0.121
       0.064
      -0.023
      -0.101
      -0.135
      -0.109
      -0.036
       0.049
       0.115
       0.155
       0.188
       0.230
       0.282
       0.331
       0.361
       0.367
       0.348
       0.315
       0.285
       0.274
       0.291
       0.324
       0.349
       0.339
       0.282
       0.184
       0.070
      -0.036
      -0.113
      -0.143
      -0.118
      -0.051
       0.026
       0.070
       0.048
      -0.045
      -0.186
      -0.328
      -0.429
      -0.459
      -0.413
      -0.310
      -0.181
      -0.057
       0.039
       0.092
       0.087
       0.017
      -0.103
      -0.227
      -0.292
      -0.264
      -0.158
      -0.036
       0.035
       0.027
      -0.040
      -0.115
      -0.151
