Origin Time       20/10/2013 19:45:05 UTC
Lat.              35.8 N	
Long.             77.5 E	
Depth (Km)         80.0
Magnitude         5.5
 Region           India-China-Border-Region                                        
 Above details taken from IMD 
    
Station Code      DLU
Station Lat.       28.691  N
Station Long.      77.212  E
Station Height(m)  220.0
Site Class        C   Vs30 between 200 m/sec to 375 m/sec *  
Record Time       20.10.2013 19:47:34.969 UTC
Sampling Rate     200. Hz
 Record Duration   80.000 Sec.
 Direction         N-S (N positive)
Max. Acceleration     -1.245 cm/sec**2
     
  * For reference see Site Classification link of website 
     
 Base Line Corrected and Low Pass Filtered (Cut Off at 35 Hz) Time History
 Acceleration data in cm/sec**2
    
[...]
      -0.200
      -0.143
      -0.074
      -0.028
      -0.009
       0.012
       0.075
       0.186
       0.299
       0.349
       0.307
       0.206
       0.117
       0.094
       0.138
       0.204
       0.235
       0.202
       0.121
       0.034
      -0.023
      -0.046
      -0.058
      -0.091
      -0.154
      -0.232
      -0.291
      -0.312
      -0.295
      -0.262
      -0.231
      -0.205
      -0.177
      -0.136
      -0.085
      -0.032
       0.016
       0.060
       0.096
       0.121
       0.132
       0.139
       0.154
       0.176
       0.185
       0.154
       0.074
      -0.025
      -0.098
      -0.113
      -0.076
      -0.017
       0.027
       0.038
       0.018
      -0.021
      -0.065
      -0.098
      -0.105
      -0.080
      -0.037
      -0.006
      -0.010
      -0.049
      -0.101
      -0.141
      -0.155
      -0.139
      -0.095
      -0.031
       0.031
       0.059
       0.041
       0.001
      -0.010
       0.032
       0.105
       0.152
       0.137
       0.070
       0.000
      -0.034
      -0.027
      -0.010
      -0.014
      -0.051
      -0.108
      -0.159
      -0.180
      -0.157
      -0.097
      -0.028
       0.012
       0.000
      -0.051
      -0.097
      -0.094
      -0.040
       0.028
       0.066
       0.063
       0.046
       0.049
       0.080
       0.119
       0.132
       0.099
       0.025
      -0.069
      -0.155
      -0.211
      -0.222
      -0.176
      -0.079
       0.040
       0.134
       0.157
       0.107
       0.026
      -0.024
      -0.010
       0.055
       0.122
       0.143
       0.100
       0.015
      -0.062
      -0.088
      -0.056
       0.010
       0.071
       0.100
       0.102
       0.100
       0.111
       0.138
       0.168
       0.190
       0.199
       0.194
       0.173
       0.135
       0.081
       0.013
      -0.061
      -0.126
      -0.163
      -0.150
      -0.077
       0.036
       0.134
       0.160
       0.089
      -0.044
      -0.166
      -0.206
      -0.145
      -0.029
       0.068
       0.093
       0.044
      -0.037
      -0.102
      -0.127
      -0.113
      -0.077
      -0.039
      -0.017
      -0.025
      -0.068
      -0.131
      -0.192
      -0.232
      -0.248
      -0.249
      -0.242
      -0.231
      -0.219
      -0.206
      -0.198
      -0.197
      -0.187
      -0.151
      -0.078
       0.022
       0.121
       0.198
       0.249
       0.279
       0.295
       0.293
       0.267
       0.221
       0.175
       0.143
       0.123
       0.103
       0.078
       0.052
       0.040
       0.044
       0.050
       0.031
      -0.028
      -0.115
      -0.198
      -0.252
      -0.266
      -0.242
      -0.189
      -0.122
      -0.068
      -0.051
      -0.071
      -0.103
      -0.111
      -0.078
      -0.015
       0.054
       0.104
       0.126
       0.128
       0.132
       0.158
       0.204
       0.247
       0.259
       0.223
       0.154
       0.089
       0.061
       0.067
       0.066
       0.011
      -0.106
      -0.247
      -0.362
      -0.419
      -0.419
      -0.390
      -0.353
      -0.316
      -0.265
      -0.181
      -0.056
       0.091
       0.213
       0.263
       0.222
       0.117
       0.005
      -0.059
      -0.061
      -0.024
       0.004
      -0.017
      -0.091
      -0.177
      -0.220
      -0.179
      -0.060
       0.088
       0.208
       0.263
       0.249
       0.189
       0.124
       0.090
       0.104
       0.143
       0.172
       0.169
       0.151
       0.155
       0.199
       0.259
       0.289
       0.256
       0.169
       0.065
      -0.016
      -0.053
      -0.044
      -0.011
       0.012
      -0.005
      -0.068
      -0.150
      -0.209
      -0.213
      -0.159
      -0.081
      -0.022
      -0.006
      -0.027
      -0.053
      -0.062
      -0.050
      -0.039
      -0.051
      -0.094
      -0.150
      -0.192
      -0.198
      -0.167
      -0.110
      -0.043
       0.020
       0.063
       0.065
       0.020
      -0.045
      -0.085
      -0.071
      -0.025
      -0.008
      -0.067
      -0.189
      -0.313
      -0.382
      -0.383
      -0.337
      -0.265
      -0.172
      -0.060
       0.043
       0.102
       0.098
       0.048
      -0.004
      -0.014
       0.042
       0.156
       0.302
       0.437
       0.519
       0.522
       0.454
       0.355
       0.268
       0.217
       0.199
       0.201
       0.203
       0.176
       0.093
      -0.055
      -0.236
      -0.392
      -0.475
      -0.478
      -0.439
      -0.406
      -0.391
      -0.365
      -0.289
      -0.162
      -0.031
       0.045
       0.035
      -0.043
      -0.143
      -0.220
      -0.252
      -0.238
      -0.189
      -0.121
      -0.051
       0.010
       0.060
       0.108
       0.170
       0.251
       0.335
       0.396
       0.414
       0.390
       0.339
       0.278
       0.219
       0.169
       0.128
       0.098
       0.073
       0.041
      -0.002
      -0.043
      -0.055
      -0.023
       0.041
       0.108
       0.156
       0.183
       0.204
       0.238
       0.286
       0.326
       0.330
       0.282
       0.194
       0.103
       0.042
       0.015
      -0.006
      -0.062
      -0.175
      -0.334
      -0.497
      -0.610
      -0.632
      -0.557
      -0.423
      -0.297
      -0.230
      -0.232
      -0.267
      -0.276
      -0.222
      -0.106
       0.037
       0.165
       0.251
       0.290
       0.300
       0.304
       0.308
       0.295
       0.241
       0.130
      -0.020
      -0.155
      -0.214
      -0.166
      -0.035
       0.116
       0.221
       0.253
       0.222
       0.170
       0.130
       0.108
       0.083
       0.031
      -0.052
      -0.152
      -0.246
      -0.320
      -0.373
      -0.409
      -0.428
      -0.424
      -0.385
      -0.307
      -0.195
      -0.066
       0.063
       0.167
       0.223
       0.213
       0.138
       0.028
      -0.068
      -0.112
      -0.092
      -0.023
       0.066
       0.155
       0.235
       0.294
       0.315
       0.277
       0.181
       0.053
      -0.058
      -0.115
      -0.109
      -0.070
      -0.039
      -0.045
      -0.074
      -0.094
      -0.073
      -0.010
       0.073
       0.143
       0.175
       0.168
       0.144
       0.129
       0.133
       0.149
       0.157
       0.135
       0.069
      -0.040
      -0.170
      -0.279
      -0.328
      -0.301
      -0.217
      -0.115
      -0.032
       0.018
       0.038
       0.043
       0.047
       0.055
       0.067
       0.072
       0.059
       0.024
      -0.016
      -0.036
      -0.019
       0.021
       0.045
       0.023
      -0.041
      -0.115
      -0.159
      -0.157
      -0.121
      -0.077
      -0.039
      -0.002
       0.050
       0.125
       0.206
       0.262
       0.272
       0.240
       0.193
       0.159
       0.135
       0.097
       0.033
      -0.033
      -0.063
      -0.043
      -0.006
      -0.001
      -0.039
      -0.087
      -0.095
      -0.045
       0.043
       0.140
       0.228
       0.293
       0.323
       0.309
       0.252
       0.164
       0.048
      -0.102
      -0.283
      -0.466
      -0.598
      -0.632
      -0.557
      -0.407
      -0.240
      -0.110
      -0.044
      -0.037
      -0.059
      -0.076
      -0.061
      -0.004
       0.090
       0.195
       0.275
       0.296
       0.248
       0.148
       0.033
      -0.061
      -0.106
      -0.096
      -0.044
       0.026
       0.085
       0.113
       0.111
       0.099
       0.098
       0.118
       0.147
       0.162
       0.136
       0.047
      -0.104
      -0.289
      -0.456
      -0.553
      -0.549
      -0.454
      -0.312
      -0.172
      -0.068
      -0.003
       0.043
       0.095
       0.165
       0.246
       0.320
       0.359
       0.343
       0.264
       0.146
       0.039
      -0.014
      -0.010
       0.014
       0.012
      -0.027
      -0.066
      -0.047
       0.058
       0.226
       0.400
       0.519
       0.549
       0.496
       0.402
       0.314
       0.251
       0.189
       0.081
      -0.086
      -0.266
      -0.386
      -0.388
      -0.275
      -0.099
       0.065
       0.146
       0.104
      -0.048
      -0.242
      -0.389
      -0.436
      -0.395
      -0.315
      -0.252
      -0.229
      -0.241
      -0.266
      -0.273
      -0.232
      -0.135
      -0.015
       0.065
       0.048
      -0.066
      -0.212
      -0.302
      -0.278
      -0.148
       0.037
       0.209
       0.330
       0.399
       0.438
       0.465
       0.475
       0.441
       0.340
       0.184
       0.024
      -0.086
      -0.132
      -0.145
      -0.161
      -0.184
      -0.196
      -0.194
      -0.204
      -0.242
      -0.281
      -0.262
      -0.155
       0.008
       0.157
       0.249
       0.287
       0.296
       0.293
       0.287
       0.304
       0.385
       0.538
       0.712
       0.814
       0.776
       0.596
       0.334
       0.050
      -0.219
      -0.455
      -0.621
      -0.674
      -0.593
      -0.411
      -0.208
      -0.062
      -0.004
      -0.007
      -0.019
      -0.003
       0.038
       0.077
       0.086
       0.056
      -0.003
      -0.082
      -0.190
      -0.336
      -0.509
      -0.659
      -0.728
      -0.680
      -0.537
      -0.362
      -0.225
      -0.161
      -0.169
      -0.212
      -0.242
      -0.210
      -0.099
       0.058
       0.180
       0.190
       0.070
      -0.113
      -0.253
      -0.269
      -0.154
       0.037
       0.232
       0.386
       0.486
       0.538
       0.544
       0.505
       0.420
       0.290
       0.120
      -0.068
      -0.231
      -0.314
      -0.286
      -0.164
      -0.007
       0.119
       0.183
       0.194
       0.193
       0.214
       0.260
       0.302
       0.311
       0.280
       0.229
       0.184
       0.159
       0.138
       0.097
       0.030
      -0.029
      -0.019
       0.099
       0.305
       0.514
       0.619
       0.546
       0.310
      -0.002
      -0.275
      -0.430
      -0.453
      -0.390
      -0.310
      -0.265
      -0.273
      -0.308
      -0.327
      -0.296
      -0.204
      -0.083
       0.016
       0.042
      -0.023
      -0.146
      -0.266
      -0.320
      -0.276
      -0.139
       0.052
       0.239
       0.370
       0.420
       0.396
       0.326
       0.234
       0.125
       0.000
      -0.125
      -0.213
      -0.235
      -0.193
      -0.127
      -0.084
      -0.079
      -0.093
      -0.097
      -0.072
      -0.010
       0.089
       0.210
       0.315
       0.352
       0.287
       0.127
      -0.076
      -0.261
      -0.388
      -0.453
      -0.464
      -0.411
      -0.270
      -0.034
       0.255
       0.513
       0.653
       0.630
       0.465
       0.234
       0.036
      -0.051
      -0.006
       0.132
       0.286
       0.386
       0.399
       0.339
       0.243
       0.146
       0.063
      -0.012
      -0.092
      -0.193
      -0.320
      -0.461
      -0.579
      -0.625
      -0.577
      -0.460
      -0.335
      -0.262
      -0.258
      -0.295
      -0.329
      -0.334
      -0.311
      -0.270
      -0.210
      -0.125
      -0.030
       0.040
       0.053
       0.012
      -0.039
      -0.039
       0.043
       0.182
       0.312
       0.382
       0.382
       0.337
       0.267
       0.179
       0.083
       0.005
      -0.017
       0.034
       0.134
       0.233
       0.284
       0.274
       0.224
       0.163
       0.104
       0.040
      -0.043
      -0.149
      -0.255
      -0.318
      -0.294
      -0.167
       0.034
       0.238
       0.363
       0.357
       0.221
       0.000
      -0.235
      -0.420
      -0.520
      -0.538
      -0.497
      -0.420
      -0.317
      -0.186
      -0.024
       0.159
       0.338
       0.479
       0.551
       0.542
       0.475
       0.404
       0.390
       0.453
       0.557
       0.630
       0.615
       0.509
       0.361
       0.236
       0.167
       0.141
       0.118
       0.071
       0.007
      -0.037
      -0.026
       0.043
       0.131
       0.170
       0.119
      -0.013
      -0.170
      -0.293
      -0.357
      -0.364
      -0.323
      -0.237
      -0.115
       0.016
       0.108
       0.112
      -0.009
      -0.255
      -0.584
      -0.914
      -1.156
      -1.245
      -1.167
      -0.952
      -0.660
      -0.360
      -0.113
       0.043
       0.104
       0.101
       0.086
       0.099
       0.142
       0.186
       0.207
       0.210
       0.223
       0.264
       0.325
       0.374
       0.383
       0.353
       0.305
       0.271
       0.273
       0.328
       0.440
       0.591
       0.736
       0.825
       0.841
       0.802
       0.736
       0.655
       0.550
       0.422
       0.296
       0.197
       0.115
       0.006
      -0.162
      -0.369
      -0.552
      -0.652
      -0.657
      -0.618
      -0.604
      -0.661
      -0.789
      -0.957
      -1.119
      -1.229
      -1.245
      -1.142
      -0.926
      -0.643
      -0.357
      -0.111
       0.093
       0.285
       0.492
       0.698
       0.856
       0.911
       0.841
       0.663
       0.427
       0.188
      -0.008
      -0.137
      -0.186
      -0.146
      -0.033
       0.104
       0.196
       0.193
       0.104
      -0.007
      -0.069
      -0.043
       0.051
       0.160
       0.234
       0.254
       0.230
       0.191
       0.157
       0.126
       0.074
      -0.015
      -0.122
      -0.185
      -0.141
       0.038
       0.309
       0.574
       0.722
       0.693
       0.497
       0.213
      -0.055
      -0.227
      -0.283
      -0.269
      -0.262
      -0.320
      -0.435
      -0.549
      -0.597
      -0.561
      -0.479
      -0.403
      -0.352
      -0.301
      -0.210
      -0.060
       0.126
       0.288
       0.363
       0.321
       0.193
       0.061
       0.003
       0.049
       0.155
       0.245
       0.258
       0.186
       0.074
      -0.020
      -0.057
      -0.020
       0.079
       0.204
       0.292
       0.281
       0.143
      -0.084
      -0.310
      -0.444
      -0.448
      -0.344
      -0.184
      -0.009
       0.158
       0.304
       0.404
       0.428
       0.364
       0.239
       0.108
       0.025
       0.010
       0.031
       0.035
      -0.009
      -0.085
      -0.141
      -0.149
      -0.122
      -0.097
      -0.096
      -0.113
      -0.134
      -0.152
      -0.168
      -0.182
      -0.198
      -0.217
      -0.221
      -0.174
      -0.042
       0.161
       0.371
       0.506
       0.521
       0.426
       0.262
       0.067
      -0.126
      -0.284
      -0.377
      -0.385
      -0.313
      -0.190
      -0.053
       0.059
       0.121
       0.124
       0.072
      -0.010
      -0.082
      -0.102
      -0.057
       0.022
       0.082
       0.085
       0.044
       0.008
       0.022
       0.088
       0.173
       0.234
       0.253
       0.237
       0.205
       0.169
       0.126
       0.071
       0.016
      -0.015
       0.001
       0.063
       0.150
       0.219
       0.229
       0.162
       0.032
      -0.126
      -0.278
      -0.390
      -0.437
      -0.406
      -0.317
      -0.214
      -0.136
      -0.088
      -0.042
       0.033
       0.140
       0.244
       0.296
       0.267
       0.164
       0.022
      -0.113
      -0.219
      -0.304
      -0.383
      -0.459
      -0.503
      -0.487
      -0.408
      -0.302
      -0.220
      -0.191
      -0.199
      -0.198
      -0.158
      -0.092
      -0.039
      -0.028
      -0.048
      -0.064
      -0.051
      -0.009
       0.055
       0.156
       0.314
       0.517
       0.694
       0.764
       0.697
       0.547
       0.412
       0.366
       0.406
       0.460
       0.456
       0.370
       0.236
       0.106
       0.004
      -0.081
      -0.177
      -0.291
      -0.408
      -0.490
      -0.504
      -0.438
      -0.310
      -0.171
      -0.083
      -0.081
      -0.152
      -0.241
      -0.294
      -0.297
      -0.276
      -0.267
      -0.288
      -0.325
      -0.349
      -0.333
      -0.269
      -0.170
      -0.074
      -0.022
      -0.038
      -0.108
      -0.183
      -0.205
      -0.141
      -0.001
       0.171
       0.329
       0.447
       0.524
       0.571
       0.595
       0.597
       0.570
       0.503
       0.400
       0.279
       0.178
       0.132
       0.159
       0.241
       0.329
       0.368
       0.332
       0.234
       0.121
       0.044
       0.042
       0.108
       0.184
       0.194
       0.095
      -0.079
      -0.236
      -0.293
      -0.238
      -0.149
      -0.130
      -0.241
      -0.449
      -0.645
      -0.710
      -0.585
      -0.302
       0.030
       0.288
       0.384
       0.304
       0.098
      -0.153
      -0.370
      -0.512
      -0.578
      -0.590
      -0.564
      -0.495
      -0.376
      -0.220
      -0.071
       0.031
       0.076
       0.101
       0.159
       0.272
       0.417
       0.541
       0.600
       0.575
       0.469
       0.298
       0.091
      -0.103
      -0.219
      -0.226
      -0.146
      -0.040
       0.043
       0.099
       0.147
       0.199
       0.241
       0.245
       0.197
       0.107
      -0.004
      -0.123
      -0.249
      -0.367
      -0.449
      -0.469
      -0.433
      -0.376
      -0.327
      -0.284
      -0.214
      -0.101
       0.027
       0.099
       0.054
      -0.105
      -0.304
      -0.448
      -0.476
      -0.402
      -0.284
      -0.178
      -0.098
      -0.022
       0.082
       0.224
       0.384
       0.527
       0.627
       0.674
       0.679
