Origin Time       20/10/2013 19:45:05
Lat.              35.8 N	
Long.             77.5 E	
Depth (Km)         80.0
Magnitude         5.5
 Region           India-China-Border-Region                                        
 Above details taken from IMD 
     
Station Code      DLU
Station Lat.       28.691  N
Station Long.      77.212  E
Station Height(m)  220.0
Site Class        C   Vs30 between 200 m/sec to 375 m/sec *  
Record Time       20.10.2013 19:47:34.969
Sampling Rate     200. Hz
 Record Duration   80.000 Sec.
 Direction         E-W (E positive)
Max. Acceleration      1.352 cm/sec**2
     
  * For reference see Site Classification link of website 
     
 Base Line Corrected and Low Pass Filtered (Cut Off at 35 Hz) Time History
 Acceleration data in cm/sec**2
    
[...]
       0.175
       0.279
       0.334
       0.330
       0.279
       0.207
       0.140
       0.098
       0.082
       0.081
       0.089
       0.109
       0.144
       0.189
       0.227
       0.232
       0.183
       0.073
      -0.082
      -0.251
      -0.394
      -0.476
      -0.481
      -0.422
      -0.337
      -0.273
      -0.261
      -0.296
      -0.335
      -0.328
      -0.252
      -0.127
       0.006
       0.115
       0.182
       0.194
       0.149
       0.064
      -0.017
      -0.041
       0.011
       0.107
       0.197
       0.255
       0.286
       0.297
       0.270
       0.184
       0.049
      -0.087
      -0.166
      -0.163
      -0.107
      -0.049
      -0.034
      -0.068
      -0.122
      -0.152
      -0.122
      -0.029
       0.092
       0.177
       0.178
       0.094
      -0.026
      -0.112
      -0.114
      -0.041
       0.046
       0.084
       0.057
       0.007
      -0.010
       0.024
       0.081
       0.124
       0.143
       0.161
       0.194
       0.231
       0.238
       0.186
       0.079
      -0.041
      -0.124
      -0.143
      -0.110
      -0.061
      -0.020
       0.014
       0.051
       0.095
       0.132
       0.143
       0.121
       0.072
       0.006
      -0.069
      -0.144
      -0.206
      -0.239
      -0.245
      -0.237
      -0.223
      -0.199
      -0.159
      -0.119
      -0.107
      -0.135
      -0.174
      -0.159
      -0.047
       0.137
       0.302
       0.355
       0.275
       0.133
       0.034
       0.042
       0.132
       0.221
       0.234
       0.160
       0.053
      -0.016
      -0.016
       0.029
       0.076
       0.104
       0.122
       0.131
       0.104
       0.007
      -0.156
      -0.322
      -0.413
      -0.389
      -0.275
      -0.141
      -0.046
      -0.018
      -0.052
      -0.125
      -0.194
      -0.204
      -0.126
       0.013
       0.138
       0.173
       0.094
      -0.049
      -0.168
      -0.190
      -0.112
       0.013
       0.119
       0.176
       0.186
       0.164
       0.110
       0.025
      -0.064
      -0.110
      -0.078
       0.009
       0.090
       0.125
       0.135
       0.178
       0.272
       0.370
       0.389
       0.288
       0.106
      -0.067
      -0.154
      -0.137
      -0.052
       0.051
       0.125
       0.134
       0.054
      -0.112
      -0.319
      -0.484
      -0.531
      -0.441
      -0.264
      -0.079
       0.060
       0.141
       0.185
       0.202
       0.188
       0.138
       0.070
       0.027
       0.044
       0.122
       0.231
       0.334
       0.405
       0.421
       0.364
       0.231
       0.048
      -0.126
      -0.232
      -0.251
      -0.227
      -0.231
      -0.305
      -0.427
      -0.526
      -0.537
      -0.447
      -0.303
      -0.181
      -0.138
      -0.179
      -0.263
      -0.332
      -0.335
      -0.240
      -0.054
       0.174
       0.361
       0.436
       0.379
       0.237
       0.089
       0.006
       0.021
       0.121
       0.259
       0.376
       0.435
       0.435
       0.403
       0.367
       0.338
       0.303
       0.246
       0.157
       0.039
      -0.087
      -0.198
      -0.264
      -0.269
      -0.213
      -0.123
      -0.033
       0.031
       0.057
       0.048
       0.016
      -0.010
      -0.001
       0.052
       0.124
       0.157
       0.094
      -0.076
      -0.304
      -0.499
      -0.585
      -0.552
      -0.444
      -0.325
      -0.241
      -0.211
      -0.230
      -0.268
      -0.284
      -0.237
      -0.122
       0.028
       0.152
       0.197
       0.145
       0.031
      -0.060
      -0.041
       0.107
       0.308
       0.444
       0.438
       0.317
       0.182
       0.116
       0.124
       0.153
       0.161
       0.152
       0.151
       0.160
       0.157
       0.123
       0.052
      -0.048
      -0.164
      -0.267
      -0.319
      -0.291
      -0.189
      -0.057
       0.048
       0.088
       0.064
      -0.001
      -0.068
      -0.086
      -0.015
       0.146
       0.336
       0.455
       0.427
       0.253
       0.013
      -0.184
      -0.276
      -0.275
      -0.238
      -0.211
      -0.198
      -0.177
      -0.125
      -0.049
       0.028
       0.072
       0.056
      -0.033
      -0.172
      -0.306
      -0.376
      -0.353
      -0.247
      -0.100
       0.049
       0.172
       0.253
       0.281
       0.251
       0.177
       0.094
       0.033
      -0.004
      -0.044
      -0.103
      -0.161
      -0.177
      -0.140
      -0.089
      -0.079
      -0.131
      -0.209
      -0.254
      -0.223
      -0.124
       0.009
       0.145
       0.273
       0.389
       0.487
       0.559
       0.590
       0.570
       0.495
       0.381
       0.270
       0.205
       0.202
       0.232
       0.235
       0.162
       0.011
      -0.168
      -0.303
      -0.353
      -0.335
      -0.309
      -0.332
      -0.407
      -0.473
      -0.459
      -0.343
      -0.176
      -0.047
      -0.025
      -0.107
      -0.231
      -0.312
      -0.288
      -0.145
       0.080
       0.316
       0.484
       0.531
       0.438
       0.228
      -0.035
      -0.266
      -0.393
      -0.397
      -0.314
      -0.200
      -0.088
       0.017
       0.130
       0.257
       0.390
       0.513
       0.597
       0.602
       0.490
       0.261
      -0.022
      -0.261
      -0.378
      -0.365
      -0.272
      -0.169
      -0.099
      -0.064
      -0.042
      -0.008
       0.051
       0.132
       0.217
       0.277
       0.293
       0.273
       0.246
       0.236
       0.229
       0.180
       0.050
      -0.150
      -0.356
      -0.493
      -0.525
      -0.462
      -0.338
      -0.194
      -0.073
      -0.019
      -0.065
      -0.223
      -0.466
      -0.711
      -0.836
      -0.728
      -0.370
       0.115
       0.526
       0.717
       0.693
       0.571
       0.471
       0.427
       0.404
       0.364
       0.294
       0.208
       0.119
       0.034
      -0.052
      -0.150
      -0.259
      -0.356
      -0.399
      -0.352
      -0.225
      -0.071
       0.047
       0.104
       0.125
       0.142
       0.154
       0.129
       0.055
      -0.024
      -0.030
       0.067
       0.197
       0.219
       0.038
      -0.310
      -0.665
      -0.842
      -0.737
      -0.374
       0.114
       0.566
       0.859
       0.940
       0.824
       0.570
       0.271
       0.037
      -0.041
       0.042
       0.189
       0.254
       0.147
      -0.094
      -0.347
      -0.510
      -0.565
      -0.557
      -0.534
      -0.508
      -0.455
      -0.350
      -0.187
       0.009
       0.191
       0.301
       0.312
       0.262
       0.243
       0.334
       0.515
       0.657
       0.606
       0.313
      -0.100
      -0.408
      -0.445
      -0.240
       0.005
       0.076
      -0.084
      -0.335
      -0.471
      -0.390
      -0.162
       0.049
       0.141
       0.143
       0.160
       0.252
       0.376
       0.435
       0.372
       0.219
       0.062
      -0.038
      -0.082
      -0.110
      -0.145
      -0.184
      -0.215
      -0.245
      -0.282
      -0.324
      -0.366
      -0.420
      -0.516
      -0.650
      -0.745
      -0.683
      -0.415
      -0.027
       0.305
       0.451
       0.416
       0.309
       0.240
       0.229
       0.222
       0.175
       0.109
       0.087
       0.146
       0.253
       0.336
       0.341
       0.281
       0.219
       0.199
       0.208
       0.191
       0.117
       0.018
      -0.044
      -0.045
      -0.023
      -0.039
      -0.131
      -0.281
      -0.436
      -0.544
      -0.580
      -0.558
      -0.509
      -0.456
      -0.389
      -0.258
      -0.007
       0.351
       0.701
       0.872
       0.761
       0.417
       0.011
      -0.296
      -0.443
      -0.462
      -0.402
      -0.286
      -0.119
       0.064
       0.202
       0.238
       0.164
       0.033
      -0.089
      -0.157
      -0.175
      -0.157
      -0.101
       0.018
       0.227
       0.522
       0.844
       1.078
       1.094
       0.839
       0.395
      -0.038
      -0.257
      -0.187
       0.063
       0.276
       0.284
       0.091
      -0.149
      -0.254
      -0.156
       0.048
       0.166
       0.048
      -0.291
      -0.680
      -0.915
      -0.907
      -0.724
      -0.505
      -0.345
      -0.251
      -0.183
      -0.122
      -0.080
      -0.049
       0.016
       0.165
       0.385
       0.589
       0.665
       0.560
       0.313
       0.028
      -0.193
      -0.290
      -0.269
      -0.192
      -0.135
      -0.127
      -0.118
      -0.019
       0.204
       0.467
       0.619
       0.548
       0.284
      -0.026
      -0.224
      -0.260
      -0.208
      -0.173
      -0.197
      -0.232
      -0.194
      -0.048
       0.157
       0.319
       0.355
       0.258
       0.085
      -0.086
      -0.203
      -0.258
      -0.275
      -0.288
      -0.324
      -0.394
      -0.487
      -0.563
      -0.563
      -0.443
      -0.213
       0.061
       0.291
       0.422
       0.449
       0.395
       0.289
       0.157
       0.033
      -0.038
      -0.022
       0.082
       0.228
       0.342
       0.354
       0.237
       0.020
      -0.228
      -0.427
      -0.521
      -0.494
      -0.378
      -0.239
      -0.146
      -0.137
      -0.204
      -0.295
      -0.333
      -0.254
      -0.058
       0.184
       0.366
       0.415
       0.342
       0.230
       0.187
       0.271
       0.466
       0.696
       0.869
       0.920
       0.822
       0.592
       0.287
      -0.017
      -0.251
      -0.373
      -0.379
      -0.295
      -0.172
      -0.072
      -0.050
      -0.132
      -0.303
      -0.507
      -0.666
      -0.706
      -0.590
      -0.328
       0.015
       0.343
       0.560
       0.605
       0.471
       0.210
      -0.091
      -0.348
      -0.508
      -0.559
      -0.518
      -0.408
      -0.245
      -0.047
       0.150
       0.279
       0.284
       0.151
      -0.072
      -0.307
      -0.484
      -0.569
      -0.562
      -0.488
      -0.375
      -0.244
      -0.107
       0.034
       0.189
       0.377
       0.599
       0.824
       0.997
       1.068
       1.021
       0.879
       0.694
       0.513
       0.357
       0.223
       0.097
      -0.038
      -0.200
      -0.409
      -0.665
      -0.922
      -1.080
      -1.033
      -0.742
      -0.287
       0.166
       0.447
       0.472
       0.268
      -0.058
      -0.374
      -0.572
      -0.585
      -0.404
      -0.092
       0.238
       0.479
       0.571
       0.523
       0.381
       0.199
       0.010
      -0.174
      -0.350
      -0.501
      -0.592
      -0.576
      -0.426
      -0.172
       0.089
       0.231
       0.185
      -0.003
      -0.197
      -0.262
      -0.143
       0.114
       0.398
       0.590
       0.616
       0.471
       0.223
      -0.012
      -0.127
      -0.073
       0.110
       0.321
       0.452
       0.446
       0.317
       0.128
      -0.046
      -0.153
      -0.183
      -0.166
      -0.147
      -0.161
      -0.216
      -0.294
      -0.371
      -0.428
      -0.449
      -0.421
      -0.339
      -0.223
      -0.108
      -0.032
      -0.005
      -0.005
       0.009
       0.076
       0.199
       0.344
       0.441
       0.416
       0.234
      -0.062
      -0.361
      -0.536
      -0.508
      -0.292
       0.012
       0.263
       0.341
       0.207
      -0.084
      -0.402
      -0.592
      -0.550
      -0.278
       0.117
       0.497
       0.770
       0.924
       0.994
       0.999
       0.927
       0.748
       0.464
       0.133
      -0.146
      -0.285
      -0.255
      -0.106
       0.055
       0.122
       0.052
      -0.108
      -0.254
      -0.295
      -0.215
      -0.084
      -0.005
      -0.039
      -0.162
      -0.286
      -0.326
      -0.263
      -0.165
      -0.141
      -0.271
      -0.548
      -0.875
      -1.119
      -1.177
      -1.026
      -0.729
      -0.400
      -0.146
      -0.015
       0.009
      -0.006
       0.015
       0.119
       0.293
       0.473
       0.591
       0.621
       0.602
       0.600
       0.646
       0.695
       0.644
       0.416
       0.027
      -0.401
      -0.699
      -0.742
      -0.503
      -0.060
       0.451
       0.901
       1.211
       1.352
       1.332
       1.170
       0.896
       0.546
       0.167
      -0.188
      -0.477
      -0.670
      -0.757
      -0.745
      -0.660
      -0.550
      -0.476
      -0.485
      -0.576
      -0.686
      -0.711
      -0.581
      -0.312
      -0.008
       0.199
       0.228
       0.090
      -0.120
      -0.284
      -0.321
      -0.220
      -0.040
       0.141
       0.259
       0.291
       0.236
       0.102
      -0.088
      -0.282
      -0.397
      -0.373
      -0.219
      -0.018
       0.131
       0.169
       0.114
       0.041
       0.032
       0.123
       0.289
       0.462
       0.573
       0.584
       0.504
       0.373
       0.245
       0.164
       0.155
       0.209
       0.281
       0.302
       0.223
       0.055
      -0.127
      -0.214
      -0.138
       0.086
       0.366
       0.584
       0.650
       0.538
       0.274
      -0.071
      -0.399
      -0.616
      -0.657
      -0.516
      -0.256
       0.007
       0.147
       0.089
      -0.153
      -0.481
      -0.759
      -0.885
      -0.831
      -0.650
      -0.442
      -0.294
      -0.249
      -0.295
      -0.387
      -0.475
      -0.515
      -0.487
      -0.397
      -0.271
      -0.145
      -0.050
       0.009
       0.050
       0.104
       0.187
       0.282
       0.340
       0.313
       0.199
       0.051
      -0.040
      -0.012
       0.135
       0.351
       0.578
       0.784
       0.969
       1.126
       1.231
       1.255
       1.190
       1.059
       0.896
       0.727
       0.556
       0.368
       0.148
      -0.092
      -0.307
      -0.439
      -0.464
      -0.409
      -0.341
      -0.315
      -0.333
      -0.355
      -0.339
      -0.274
      -0.183
      -0.098
      -0.047
      -0.056
      -0.159
      -0.369
      -0.658
      -0.940
      -1.117
      -1.133
      -1.009
      -0.816
      -0.621
      -0.462
      -0.356
      -0.307
      -0.293
      -0.251
      -0.110
       0.143
       0.424
       0.590
       0.539
       0.290
      -0.024
      -0.234
      -0.226
       0.007
       0.368
       0.714
       0.914
       0.910
       0.731
       0.481
       0.279
       0.198
       0.238
       0.342
       0.440
       0.474
       0.422
       0.297
       0.142
       0.003
      -0.095
      -0.145
      -0.154
      -0.144
      -0.145
      -0.186
      -0.267
      -0.370
      -0.465
      -0.526
      -0.534
      -0.474
      -0.342
      -0.164
       0.006
       0.112
       0.142
       0.129
       0.130
       0.182
       0.276
       0.363
       0.370
       0.242
      -0.026
      -0.376
      -0.710
      -0.929
      -0.969
      -0.819
      -0.515
      -0.136
       0.214
       0.440
       0.488
       0.365
       0.133
      -0.124
      -0.325
      -0.417
      -0.382
      -0.230
       0.003
       0.269
       0.513
       0.691
       0.788
       0.807
       0.765
       0.674
       0.549
       0.409
       0.285
       0.205
       0.179
       0.181
       0.174
       0.150
       0.144
       0.195
       0.292
       0.359
       0.315
       0.149
      -0.062
      -0.204
      -0.210
      -0.108
       0.015
       0.082
       0.072
       0.006
      -0.093
      -0.225
      -0.406
      -0.633
      -0.859
      -1.005
      -1.004
      -0.848
      -0.593
      -0.336
      -0.162
      -0.119
      -0.210
      -0.395
      -0.597
      -0.717
      -0.668
      -0.431
      -0.080
       0.252
       0.448
       0.483
       0.430
       0.397
       0.431
       0.489
       0.486
       0.377
       0.203
       0.056
       0.018
       0.101
       0.238
       0.333
       0.328
       0.224
       0.076
      -0.050
      -0.105
      -0.074
       0.028
       0.161
       0.278
       0.329
       0.277
       0.124
      -0.083
      -0.270
      -0.381
      -0.412
      -0.413
      -0.443
      -0.516
      -0.567
      -0.488
      -0.207
       0.243
       0.720
       1.055
       1.148
       1.009
       0.715
       0.343
      -0.063
      -0.461
      -0.773
      -0.909
      -0.821
      -0.550
      -0.205
       0.104
       0.315
       0.406
       0.366
       0.198
      -0.053
      -0.290
      -0.401
      -0.312
      -0.040
       0.308
       0.582
       0.659
       0.496
       0.143
      -0.286
      -0.658
      -0.871
      -0.889
      -0.734
      -0.461
      -0.131
       0.197
       0.466
       0.633
       0.694
       0.679
       0.638
       0.596
       0.533
       0.412
       0.228
       0.028
      -0.119
      -0.171
      -0.141
      -0.082
      -0.054
      -0.096
      -0.212
      -0.377
      -0.547
      -0.675
      -0.718
      -0.644
      -0.453
      -0.179
       0.112
       0.344
       0.460
       0.442
       0.307
       0.093
      -0.154
      -0.392
      -0.580
      -0.686
      -0.685
      -0.569
      -0.354
      -0.076
       0.210
       0.439
       0.542
       0.473
       0.235
      -0.101
      -0.418
      -0.590
      -0.547
      -0.301
       0.066
       0.452
       0.774
       0.978
       1.033
       0.933
       0.705
       0.401
       0.096
      -0.129
      -0.211
      -0.134
       0.060
       0.292
       0.487
       0.601
       0.630
       0.592
       0.501
       0.369
       0.210
       0.047
