Origin Time       2/8/2013 02:32:05	  UTC
Lat.              33.5 N	
Long.             75.5 E	
Depth (Km)         28.0
Magnitude         5.4
 Region           JK-HP-Border                                                     
 Above details taken from IMD 
    
Station Code      JMU
Station Lat.       32.732  N
Station Long.      74.874  E
Station Height(m)  361.0
Site Class        B   Vs30 between 375 m/sec to 700 m/sec *  
Record Time       02.08.2013 02:33:00.649 UTC
Sampling Rate     200. Hz
 Record Duration   80.180 Sec.
 Direction         N-S (N positive)
Max. Acceleration     -2.297 cm/sec**2
     
  * For reference see Site Classification link of website 
     
 Base Line Corrected and Low Pass Filtered (Cut Off at 35 Hz) Time History
 Acceleration data in cm/sec**2
    
[...]
      -0.203
      -0.286
      -0.356
      -0.409
      -0.441
      -0.454
      -0.458
      -0.463
      -0.464
      -0.448
      -0.404
      -0.337
      -0.258
      -0.179
      -0.109
      -0.054
      -0.013
       0.019
       0.045
       0.060
       0.061
       0.049
       0.029
       0.010
      -0.002
      -0.002
       0.004
       0.007
       0.004
       0.000
       0.004
       0.025
       0.066
       0.123
       0.184
       0.242
       0.294
       0.341
       0.378
       0.400
       0.405
       0.398
       0.381
       0.349
       0.300
       0.237
       0.166
       0.091
       0.017
      -0.054
      -0.121
      -0.178
      -0.219
      -0.238
      -0.243
      -0.243
      -0.248
      -0.257
      -0.268
      -0.278
      -0.279
      -0.265
      -0.233
      -0.183
      -0.119
      -0.052
       0.008
       0.053
       0.088
       0.120
       0.153
       0.185
       0.212
       0.234
       0.252
       0.265
       0.273
       0.274
       0.265
       0.245
       0.217
       0.187
       0.161
       0.137
       0.118
       0.098
       0.069
       0.026
      -0.027
      -0.075
      -0.109
      -0.123
      -0.116
      -0.090
      -0.055
      -0.022
       0.002
       0.017
       0.024
       0.023
       0.019
       0.019
       0.024
       0.030
       0.034
       0.033
       0.026
       0.014
       0.001
      -0.011
      -0.025
      -0.046
      -0.071
      -0.096
      -0.118
      -0.137
      -0.151
      -0.163
      -0.174
      -0.180
      -0.176
      -0.158
      -0.132
      -0.103
      -0.072
      -0.036
       0.002
       0.038
       0.075
       0.121
       0.180
       0.248
       0.312
       0.358
       0.376
       0.366
       0.340
       0.309
       0.275
       0.242
       0.211
       0.186
       0.166
       0.151
       0.141
       0.131
       0.112
       0.079
       0.036
      -0.004
      -0.033
      -0.045
      -0.042
      -0.029
      -0.014
      -0.003
       0.006
       0.017
       0.027
       0.034
       0.034
       0.030
       0.022
       0.017
       0.021
       0.040
       0.071
       0.112
       0.153
       0.182
       0.187
       0.166
       0.129
       0.090
       0.057
       0.034
       0.024
       0.026
       0.030
       0.028
       0.012
      -0.012
      -0.039
      -0.062
      -0.078
      -0.094
      -0.119
      -0.156
      -0.197
      -0.233
      -0.255
      -0.258
      -0.239
      -0.202
      -0.157
      -0.112
      -0.068
      -0.024
       0.017
       0.052
       0.082
       0.106
       0.121
       0.127
       0.128
       0.129
       0.127
       0.121
       0.110
       0.094
       0.067
       0.025
      -0.025
      -0.073
      -0.107
      -0.119
      -0.107
      -0.082
      -0.059
      -0.042
      -0.027
      -0.011
       0.001
       0.005
       0.002
      -0.004
      -0.012
      -0.021
      -0.028
      -0.032
      -0.029
      -0.013
       0.017
       0.054
       0.087
       0.109
       0.128
       0.155
       0.199
       0.259
       0.332
       0.404
       0.466
       0.512
       0.540
       0.546
       0.528
       0.486
       0.431
       0.370
       0.303
       0.228
       0.142
       0.046
      -0.058
      -0.162
      -0.256
      -0.332
      -0.386
      -0.412
      -0.413
      -0.399
      -0.384
      -0.372
      -0.357
      -0.334
      -0.301
      -0.263
      -0.221
      -0.179
      -0.136
      -0.094
      -0.056
      -0.027
      -0.010
       0.000
       0.011
       0.023
       0.033
       0.036
       0.037
       0.037
       0.035
       0.031
       0.027
       0.023
       0.020
       0.019
       0.020
       0.018
       0.007
      -0.005
      -0.005
       0.018
       0.066
       0.128
       0.190
       0.233
       0.246
       0.232
       0.201
       0.165
       0.134
       0.119
       0.124
       0.138
       0.147
       0.139
       0.115
       0.081
       0.048
       0.021
      -0.001
      -0.023
      -0.049
      -0.072
      -0.080
      -0.067
      -0.031
       0.022
       0.084
       0.141
       0.178
       0.192
       0.190
       0.180
       0.170
       0.163
       0.160
       0.155
       0.144
       0.126
       0.102
       0.073
       0.040
       0.004
      -0.037
      -0.086
      -0.145
      -0.208
      -0.265
      -0.306
      -0.326
      -0.322
      -0.294
      -0.247
      -0.186
      -0.117
      -0.047
       0.007
       0.032
       0.028
       0.011
      -0.005
      -0.010
      -0.008
      -0.007
      -0.015
      -0.031
      -0.051
      -0.071
      -0.099
      -0.137
      -0.182
      -0.229
      -0.278
      -0.330
      -0.385
      -0.431
      -0.459
      -0.460
      -0.432
      -0.378
      -0.311
      -0.241
      -0.172
      -0.104
      -0.041
       0.014
       0.058
       0.095
       0.125
       0.152
       0.178
       0.207
       0.238
       0.268
       0.297
       0.319
       0.330
       0.331
       0.329
       0.332
       0.341
       0.354
       0.367
       0.380
       0.390
       0.399
       0.412
       0.431
       0.448
       0.455
       0.451
       0.439
       0.422
       0.405
       0.397
       0.400
       0.410
       0.416
       0.411
       0.386
       0.339
       0.273
       0.199
       0.126
       0.054
      -0.020
      -0.101
      -0.188
      -0.282
      -0.377
      -0.460
      -0.526
      -0.578
      -0.621
      -0.654
      -0.669
      -0.659
      -0.616
      -0.541
      -0.447
      -0.353
      -0.272
      -0.207
      -0.150
      -0.093
      -0.032
       0.035
       0.100
       0.148
       0.169
       0.156
       0.113
       0.047
      -0.028
      -0.097
      -0.158
      -0.213
      -0.266
      -0.309
      -0.337
      -0.350
      -0.352
      -0.345
      -0.328
      -0.299
      -0.257
      -0.206
      -0.150
      -0.091
      -0.021
       0.065
       0.165
       0.269
       0.366
       0.454
       0.528
       0.584
       0.618
       0.624
       0.601
       0.545
       0.459
       0.353
       0.232
       0.099
      -0.034
      -0.153
      -0.243
      -0.296
      -0.312
      -0.296
      -0.259
      -0.213
      -0.166
      -0.124
      -0.085
      -0.045
       0.003
       0.065
       0.137
       0.207
       0.266
       0.308
       0.332
       0.333
       0.316
       0.285
       0.245
       0.197
       0.144
       0.090
       0.038
      -0.013
      -0.060
      -0.093
      -0.112
      -0.122
      -0.130
      -0.139
      -0.145
      -0.144
      -0.134
      -0.114
      -0.094
      -0.086
      -0.092
      -0.110
      -0.133
      -0.158
      -0.181
      -0.204
      -0.230
      -0.263
      -0.294
      -0.316
      -0.323
      -0.318
      -0.302
      -0.276
      -0.239
      -0.191
      -0.133
      -0.075
      -0.031
      -0.015
      -0.021
      -0.034
      -0.034
      -0.013
       0.025
       0.070
       0.108
       0.134
       0.148
       0.150
       0.138
       0.110
       0.073
       0.035
       0.002
      -0.025
      -0.048
      -0.068
      -0.087
      -0.103
      -0.111
      -0.105
      -0.089
      -0.064
      -0.030
       0.016
       0.068
       0.119
       0.167
       0.213
       0.256
       0.288
       0.305
       0.305
       0.289
       0.263
       0.232
       0.197
       0.153
       0.095
       0.030
      -0.032
      -0.082
      -0.119
      -0.141
      -0.156
      -0.174
      -0.203
      -0.239
      -0.273
      -0.300
      -0.318
      -0.329
      -0.333
      -0.336
      -0.340
      -0.340
      -0.329
      -0.302
      -0.258
      -0.205
      -0.151
      -0.108
      -0.081
      -0.060
      -0.034
      -0.001
       0.035
       0.070
       0.105
       0.137
       0.166
       0.190
       0.204
       0.203
       0.190
       0.175
       0.163
       0.150
       0.130
       0.103
       0.074
       0.048
       0.025
       0.002
      -0.031
      -0.082
      -0.150
      -0.226
      -0.295
      -0.348
      -0.382
      -0.395
      -0.387
      -0.360
      -0.313
      -0.244
      -0.155
      -0.060
       0.026
       0.092
       0.132
       0.152
       0.166
       0.189
       0.224
       0.262
       0.289
       0.300
       0.301
       0.299
       0.301
       0.304
       0.299
       0.274
       0.229
       0.169
       0.102
       0.036
      -0.028
      -0.082
      -0.123
      -0.147
      -0.152
      -0.134
      -0.099
      -0.059
      -0.027
      -0.008
       0.000
      -0.003
      -0.013
      -0.024
      -0.034
      -0.043
      -0.052
      -0.056
      -0.050
      -0.035
      -0.014
       0.009
       0.032
       0.056
       0.087
       0.131
       0.185
       0.240
       0.285
       0.315
       0.328
       0.319
       0.293
       0.259
       0.224
       0.189
       0.150
       0.106
       0.054
       0.001
      -0.047
      -0.081
      -0.103
      -0.124
      -0.151
      -0.190
      -0.242
      -0.303
      -0.365
      -0.417
      -0.455
      -0.486
      -0.518
      -0.551
      -0.581
      -0.604
      -0.613
      -0.601
      -0.572
      -0.534
      -0.493
      -0.450
      -0.405
      -0.362
      -0.319
      -0.274
      -0.229
      -0.186
      -0.149
      -0.118
      -0.098
      -0.090
      -0.090
      -0.090
      -0.081
      -0.054
      -0.003
       0.076
       0.173
       0.278
       0.383
       0.483
       0.570
       0.636
       0.679
       0.702
       0.709
       0.699
       0.676
       0.644
       0.609
       0.570
       0.528
       0.485
       0.445
       0.413
       0.399
       0.407
       0.432
       0.461
       0.484
       0.495
       0.486
       0.453
       0.397
       0.327
       0.252
       0.177
       0.103
       0.027
      -0.057
      -0.150
      -0.246
      -0.340
      -0.428
      -0.513
      -0.589
      -0.648
      -0.690
      -0.717
      -0.735
      -0.744
      -0.741
      -0.726
      -0.696
      -0.654
      -0.607
      -0.560
      -0.514
      -0.462
      -0.404
      -0.339
      -0.274
      -0.220
      -0.190
      -0.184
      -0.188
      -0.184
      -0.168
      -0.143
      -0.111
      -0.068
      -0.014
       0.050
       0.116
       0.181
       0.241
       0.296
       0.350
       0.405
       0.456
       0.497
       0.521
       0.524
       0.500
       0.448
       0.373
       0.287
       0.201
       0.121
       0.050
      -0.015
      -0.073
      -0.121
      -0.154
      -0.172
      -0.181
      -0.189
      -0.194
      -0.191
      -0.173
      -0.136
      -0.083
      -0.023
       0.031
       0.067
       0.082
       0.077
       0.052
       0.009
      -0.043
      -0.089
      -0.115
      -0.120
      -0.110
      -0.102
      -0.109
      -0.139
      -0.184
      -0.232
      -0.277
      -0.312
      -0.326
      -0.308
      -0.256
      -0.178
      -0.086
       0.009
       0.101
       0.192
       0.290
       0.398
       0.515
       0.640
       0.776
       0.922
       1.068
       1.194
       1.283
       1.322
       1.305
       1.241
       1.150
       1.041
       0.914
       0.759
       0.576
       0.374
       0.164
      -0.042
      -0.241
      -0.427
      -0.598
      -0.749
      -0.876
      -0.980
      -1.070
      -1.152
      -1.225
      -1.284
      -1.321
      -1.331
      -1.317
      -1.290
      -1.264
      -1.246
      -1.233
      -1.222
      -1.216
      -1.214
      -1.213
      -1.211
      -1.205
      -1.190
      -1.158
      -1.099
      -1.013
      -0.905
      -0.784
      -0.659
      -0.535
      -0.407
      -0.270
      -0.122
       0.028
       0.173
       0.318
       0.470
       0.638
       0.827
       1.027
       1.220
       1.386
       1.512
       1.599
       1.655
       1.689
       1.709
       1.724
       1.736
       1.740
       1.732
       1.713
       1.683
       1.639
       1.580
       1.504
       1.410
       1.300
       1.175
       1.039
       0.895
       0.744
       0.590
       0.431
       0.265
       0.081
      -0.124
      -0.341
      -0.557
      -0.757
      -0.933
      -1.087
      -1.236
      -1.394
      -1.566
      -1.741
      -1.908
      -2.056
      -2.176
      -2.258
      -2.297
      -2.293
      -2.250
      -2.176
      -2.079
      -1.964
      -1.824
      -1.650
      -1.445
      -1.219
      -0.976
      -0.715
      -0.436
      -0.145
       0.146
       0.425
       0.681
       0.906
       1.100
       1.263
       1.394
       1.495
       1.572
       1.633
       1.673
       1.684
       1.658
       1.597
       1.507
       1.398
       1.284
       1.178
       1.087
       1.011
       0.949
       0.895
       0.841
       0.779
       0.710
       0.639
       0.575
       0.519
       0.473
       0.429
       0.372
       0.297
       0.206
       0.110
       0.016
      -0.077
      -0.169
      -0.264
      -0.370
      -0.492
      -0.632
      -0.782
      -0.932
      -1.070
      -1.182
      -1.257
      -1.292
      -1.286
      -1.240
      -1.159
      -1.054
      -0.937
      -0.812
      -0.675
      -0.521
      -0.347
      -0.154
       0.053
       0.265
       0.476
       0.681
       0.870
       1.031
       1.149
       1.220
       1.247
       1.233
       1.185
       1.116
       1.038
       0.956
       0.868
       0.775
       0.673
       0.566
       0.460
       0.364
       0.282
       0.207
       0.137
       0.073
       0.023
      -0.009
      -0.027
      -0.038
      -0.052
      -0.080
      -0.129
      -0.197
      -0.281
      -0.381
      -0.496
      -0.619
      -0.742
      -0.856
      -0.953
      -1.016
      -1.036
      -1.014
      -0.960
      -0.885
      -0.797
      -0.701
      -0.598
      -0.485
      -0.356
      -0.211
      -0.048
       0.138
       0.344
       0.563
       0.782
       0.992
       1.186
       1.357
       1.498
       1.608
       1.681
       1.710
       1.693
       1.632
       1.530
       1.392
       1.225
       1.039
       0.840
       0.620
       0.370
       0.090
      -0.202
      -0.483
      -0.731
      -0.932
      -1.084
      -1.194
      -1.266
      -1.298
      -1.285
      -1.222
      -1.112
      -0.963
      -0.794
      -0.625
      -0.469
      -0.332
      -0.214
      -0.120
      -0.049
       0.005
       0.047
       0.079
       0.099
       0.110
       0.113
       0.107
       0.095
       0.081
       0.071
       0.071
       0.084
       0.111
       0.154
       0.211
       0.287
       0.380
       0.480
       0.568
       0.628
       0.653
       0.646
       0.615
       0.574
       0.530
       0.479
       0.408
       0.308
       0.186
       0.057
      -0.065
      -0.174
      -0.267
      -0.348
      -0.417
      -0.471
      -0.506
      -0.522
      -0.525
      -0.515
      -0.491
      -0.459
      -0.430
      -0.410
      -0.395
      -0.375
      -0.346
      -0.308
      -0.266
      -0.235
      -0.221
      -0.224
      -0.233
      -0.242
      -0.248
      -0.249
      -0.239
      -0.215
      -0.183
      -0.149
      -0.120
      -0.099
      -0.081
      -0.058
      -0.026
       0.009
       0.038
       0.055
       0.058
       0.041
       0.003
      -0.053
      -0.114
      -0.168
      -0.212
      -0.240
      -0.252
      -0.248
      -0.234
      -0.210
      -0.175
      -0.121
      -0.045
       0.053
       0.165
       0.270
       0.352
       0.411
       0.455
       0.487
       0.501
       0.488
       0.448
       0.390
       0.322
       0.254
       0.190
       0.132
       0.083
       0.045
       0.016
      -0.014
      -0.060
      -0.125
      -0.203
      -0.281
      -0.349
      -0.396
      -0.420
      -0.429
      -0.435
      -0.441
      -0.440
      -0.424
      -0.395
      -0.353
      -0.299
      -0.231
      -0.154
      -0.075
      -0.007
       0.040
       0.067
       0.079
       0.079
       0.068
       0.049
       0.029
       0.016
       0.006
      -0.015
      -0.054
      -0.113
      -0.187
      -0.266
      -0.338
      -0.395
      -0.437
      -0.469
      -0.489
      -0.493
      -0.480
      -0.453
      -0.416
      -0.373
      -0.327
      -0.274
      -0.204
      -0.109
       0.011
       0.143
       0.280
       0.412
       0.537
       0.654
       0.762
       0.860
       0.941
       1.005
       1.055
       1.098
       1.134
       1.160
       1.177
       1.185
       1.176
       1.137
       1.056
       0.929
       0.760
       0.560
       0.346
       0.132
      -0.078
      -0.285
      -0.482
      -0.668
      -0.843
      -1.011
      -1.171
      -1.312
      -1.424
      -1.493
      -1.514
      -1.488
      -1.426
      -1.343
      -1.246
      -1.139
      -1.026
      -0.911
      -0.794
      -0.674
      -0.554
      -0.438
      -0.329
      -0.236
      -0.166
      -0.119
      -0.084
      -0.052
      -0.022
      -0.004
      -0.009
      -0.040
      -0.091
      -0.148
      -0.196
      -0.223
      -0.224
      -0.192
      -0.122
      -0.017
       0.107
       0.234
       0.357
       0.475
       0.590
       0.703
       0.811
       0.903
       0.961
       0.977
       0.950
       0.886
       0.794
       0.689
       0.583
       0.485
       0.393
       0.300
       0.201
       0.095
      -0.018
      -0.128
      -0.221
      -0.291
      -0.342
      -0.380
      -0.403
      -0.409
      -0.397
      -0.371
      -0.339
      -0.312
      -0.298
      -0.295
      -0.297
      -0.301
      -0.312
