Origin Time       2/8/2013 02:32:05	 
Lat.              33.5 N	
Long.             75.5 E	
Depth (Km)         28.0
Magnitude         5.4
 Region           JK-HP-Border                                                     
 Above details taken from IMD 
   
Station Code      JMU
Station Lat.       32.732
Station Long.      74.874
Station Height(m)  361.0
Site Class        B   Vs30 between 375 m/sec to 700 m/sec *  
Record Time       02.08.2013 02:33:00.649
Sampling Rate     200. Hz
 Record Duration   80.180 Sec.
 Direction         Vert. (Up positive)
Max. Acceleration     -1.026 cm/sec**2
     
  * For reference see Site Classification link of website 
     
 Base Line Corrected and Low Pass Filtered (Cut Off at 35 Hz) Time History
 Acceleration data in cm/sec**2
    
[...]
       0.262
       0.231
       0.198
       0.157
       0.112
       0.077
       0.068
       0.095
       0.152
       0.228
       0.310
       0.382
       0.424
       0.411
       0.336
       0.213
       0.066
      -0.085
      -0.228
      -0.351
      -0.443
      -0.499
      -0.525
      -0.530
      -0.522
      -0.503
      -0.471
      -0.431
      -0.392
      -0.359
      -0.324
      -0.273
      -0.204
      -0.128
      -0.052
       0.033
       0.141
       0.273
       0.417
       0.552
       0.657
       0.718
       0.728
       0.689
       0.609
       0.504
       0.395
       0.306
       0.249
       0.226
       0.236
       0.272
       0.313
       0.335
       0.322
       0.279
       0.222
       0.168
       0.130
       0.113
       0.114
       0.128
       0.151
       0.173
       0.181
       0.155
       0.089
      -0.009
      -0.123
      -0.233
      -0.318
      -0.366
      -0.377
      -0.355
      -0.306
      -0.233
      -0.150
      -0.085
      -0.065
      -0.101
      -0.182
      -0.280
      -0.368
      -0.423
      -0.441
      -0.421
      -0.364
      -0.272
      -0.158
      -0.041
       0.058
       0.126
       0.156
       0.148
       0.117
       0.082
       0.060
       0.055
       0.068
       0.093
       0.124
       0.155
       0.186
       0.217
       0.247
       0.271
       0.289
       0.303
       0.314
       0.320
       0.317
       0.306
       0.289
       0.267
       0.250
       0.244
       0.250
       0.257
       0.252
       0.226
       0.174
       0.102
       0.019
      -0.066
      -0.148
      -0.221
      -0.275
      -0.304
      -0.310
      -0.303
      -0.298
      -0.307
      -0.332
      -0.363
      -0.379
      -0.363
      -0.315
      -0.246
      -0.168
      -0.090
      -0.026
       0.009
       0.004
      -0.042
      -0.119
      -0.209
      -0.290
      -0.348
      -0.375
      -0.370
      -0.327
      -0.253
      -0.165
      -0.086
      -0.028
       0.007
       0.021
       0.015
      -0.007
      -0.034
      -0.047
      -0.024
       0.048
       0.159
       0.281
       0.385
       0.448
       0.457
       0.406
       0.297
       0.155
       0.016
      -0.082
      -0.119
      -0.093
      -0.027
       0.048
       0.107
       0.139
       0.144
       0.123
       0.079
       0.015
      -0.062
      -0.141
      -0.200
      -0.211
      -0.158
      -0.049
       0.091
       0.230
       0.341
       0.407
       0.417
       0.372
       0.278
       0.140
      -0.027
      -0.193
      -0.325
      -0.401
      -0.411
      -0.371
      -0.310
      -0.261
      -0.243
      -0.255
      -0.288
      -0.333
      -0.380
      -0.411
      -0.403
      -0.339
      -0.220
      -0.065
       0.097
       0.237
       0.339
       0.394
       0.395
       0.334
       0.216
       0.066
      -0.081
      -0.192
      -0.249
      -0.252
      -0.225
      -0.198
      -0.193
      -0.209
      -0.238
      -0.270
      -0.304
      -0.339
      -0.370
      -0.380
      -0.346
      -0.245
      -0.077
       0.133
       0.343
       0.511
       0.606
       0.613
       0.535
       0.389
       0.200
       0.002
      -0.168
      -0.271
      -0.290
      -0.232
      -0.126
      -0.013
       0.067
       0.088
       0.054
      -0.016
      -0.099
      -0.178
      -0.237
      -0.253
      -0.206
      -0.092
       0.069
       0.246
       0.401
       0.505
       0.548
       0.534
       0.470
       0.365
       0.229
       0.080
      -0.061
      -0.174
      -0.243
      -0.268
      -0.264
      -0.251
      -0.239
      -0.227
      -0.213
      -0.197
      -0.185
      -0.179
      -0.180
      -0.186
      -0.190
      -0.182
      -0.160
      -0.133
      -0.117
      -0.122
      -0.148
      -0.185
      -0.213
      -0.213
      -0.178
      -0.111
      -0.022
       0.081
       0.185
       0.279
       0.353
       0.397
       0.409
       0.393
       0.360
       0.318
       0.269
       0.211
       0.145
       0.078
       0.014
      -0.051
      -0.123
      -0.204
      -0.290
      -0.372
      -0.436
      -0.463
      -0.440
      -0.363
      -0.238
      -0.086
       0.065
       0.194
       0.291
       0.350
       0.366
       0.334
       0.262
       0.175
       0.102
       0.063
       0.058
       0.072
       0.078
       0.062
       0.029
      -0.005
      -0.027
      -0.036
      -0.034
      -0.019
       0.010
       0.057
       0.122
       0.195
       0.250
       0.264
       0.233
       0.173
       0.110
       0.055
       0.007
      -0.044
      -0.100
      -0.147
      -0.165
      -0.147
      -0.104
      -0.055
      -0.009
       0.034
       0.068
       0.088
       0.084
       0.057
       0.005
      -0.067
      -0.149
      -0.225
      -0.283
      -0.314
      -0.321
      -0.310
      -0.287
      -0.257
      -0.229
      -0.223
      -0.260
      -0.345
      -0.459
      -0.563
      -0.629
      -0.645
      -0.618
      -0.562
      -0.492
      -0.418
      -0.350
      -0.300
      -0.277
      -0.277
      -0.279
      -0.253
      -0.181
      -0.066
       0.075
       0.216
       0.337
       0.433
       0.507
       0.561
       0.586
       0.569
       0.510
       0.434
       0.372
       0.346
       0.345
       0.339
       0.293
       0.204
       0.099
       0.010
      -0.046
      -0.071
      -0.069
      -0.045
       0.000
       0.064
       0.142
       0.219
       0.267
       0.262
       0.202
       0.106
       0.003
      -0.084
      -0.146
      -0.182
      -0.194
      -0.173
      -0.111
      -0.020
       0.063
       0.100
       0.072
      -0.015
      -0.138
      -0.270
      -0.392
      -0.492
      -0.563
      -0.593
      -0.561
      -0.458
      -0.299
      -0.122
       0.030
       0.126
       0.161
       0.152
       0.122
       0.080
       0.020
      -0.055
      -0.120
      -0.138
      -0.087
       0.016
       0.127
       0.195
       0.197
       0.147
       0.082
       0.031
       0.006
       0.007
       0.036
       0.101
       0.204
       0.341
       0.488
       0.615
       0.688
       0.696
       0.646
       0.557
       0.437
       0.285
       0.099
      -0.103
      -0.287
      -0.408
      -0.444
      -0.406
      -0.334
      -0.263
      -0.212
      -0.178
      -0.156
      -0.144
      -0.153
      -0.193
      -0.262
      -0.331
      -0.358
      -0.318
      -0.217
      -0.088
       0.033
       0.124
       0.174
       0.183
       0.148
       0.075
      -0.021
      -0.111
      -0.171
      -0.194
      -0.190
      -0.174
      -0.150
      -0.120
      -0.084
      -0.047
      -0.012
       0.012
       0.020
       0.006
      -0.022
      -0.053
      -0.072
      -0.065
      -0.034
       0.002
       0.021
       0.015
      -0.012
      -0.054
      -0.110
      -0.176
      -0.233
      -0.254
      -0.210
      -0.094
       0.076
       0.260
       0.416
       0.515
       0.543
       0.497
       0.384
       0.224
       0.041
      -0.141
      -0.299
      -0.406
      -0.441
      -0.400
      -0.298
      -0.161
      -0.013
       0.123
       0.230
       0.298
       0.320
       0.287
       0.199
       0.068
      -0.085
      -0.234
      -0.357
      -0.441
      -0.483
      -0.494
      -0.488
      -0.467
      -0.424
      -0.353
      -0.257
      -0.145
      -0.026
       0.090
       0.199
       0.294
       0.362
       0.384
       0.353
       0.278
       0.186
       0.102
       0.044
       0.023
       0.038
       0.084
       0.146
       0.216
       0.279
       0.321
       0.325
       0.284
       0.204
       0.103
       0.006
      -0.065
      -0.102
      -0.113
      -0.115
      -0.118
      -0.126
      -0.137
      -0.144
      -0.144
      -0.132
      -0.108
      -0.071
      -0.015
       0.054
       0.117
       0.144
       0.114
       0.025
      -0.101
      -0.231
      -0.337
      -0.405
      -0.438
      -0.438
      -0.402
      -0.330
      -0.230
      -0.117
       0.002
       0.129
       0.263
       0.403
       0.540
       0.660
       0.742
       0.764
       0.715
       0.600
       0.440
       0.266
       0.108
      -0.017
      -0.103
      -0.152
      -0.167
      -0.155
      -0.133
      -0.117
      -0.113
      -0.119
      -0.131
      -0.144
      -0.154
      -0.160
      -0.159
      -0.145
      -0.114
      -0.069
      -0.016
       0.043
       0.116
       0.210
       0.320
       0.424
       0.495
       0.511
       0.463
       0.357
       0.217
       0.070
      -0.063
      -0.164
      -0.226
      -0.248
      -0.239
      -0.210
      -0.167
      -0.117
      -0.072
      -0.038
      -0.013
       0.013
       0.051
       0.104
       0.169
       0.230
       0.269
       0.268
       0.226
       0.147
       0.048
      -0.051
      -0.127
      -0.162
      -0.151
      -0.097
      -0.017
       0.068
       0.132
       0.160
       0.154
       0.127
       0.098
       0.089
       0.118
       0.187
       0.284
       0.389
       0.479
       0.525
       0.503
       0.411
       0.270
       0.111
      -0.038
      -0.154
      -0.219
      -0.213
      -0.130
       0.011
       0.164
       0.275
       0.310
       0.274
       0.198
       0.114
       0.039
      -0.014
      -0.029
       0.006
       0.091
       0.213
       0.352
       0.492
       0.612
       0.695
       0.717
       0.661
       0.519
       0.307
       0.056
      -0.205
      -0.448
      -0.645
      -0.767
      -0.797
      -0.747
      -0.653
      -0.561
      -0.514
      -0.527
      -0.583
      -0.643
      -0.663
      -0.617
      -0.497
      -0.316
      -0.099
       0.124
       0.324
       0.465
       0.515
       0.458
       0.314
       0.128
      -0.054
      -0.200
      -0.300
      -0.352
      -0.361
      -0.335
      -0.279
      -0.194
      -0.080
       0.059
       0.213
       0.371
       0.519
       0.653
       0.770
       0.861
       0.900
       0.860
       0.734
       0.546
       0.336
       0.137
      -0.026
      -0.143
      -0.221
      -0.274
      -0.308
      -0.323
      -0.314
      -0.277
      -0.215
      -0.135
      -0.050
       0.033
       0.117
       0.206
       0.293
       0.362
       0.400
       0.402
       0.373
       0.316
       0.234
       0.129
       0.004
      -0.131
      -0.253
      -0.337
      -0.372
      -0.359
      -0.311
      -0.250
      -0.196
      -0.164
      -0.156
      -0.167
      -0.189
      -0.206
      -0.194
      -0.133
      -0.022
       0.116
       0.246
       0.334
       0.363
       0.336
       0.271
       0.189
       0.105
       0.029
      -0.027
      -0.049
      -0.030
       0.026
       0.103
       0.171
       0.194
       0.152
       0.054
      -0.068
      -0.175
      -0.244
      -0.268
      -0.258
      -0.232
      -0.207
      -0.189
      -0.176
      -0.170
      -0.167
      -0.159
      -0.132
      -0.075
       0.013
       0.125
       0.241
       0.338
       0.402
       0.438
       0.452
       0.444
       0.409
       0.347
       0.265
       0.175
       0.090
       0.018
      -0.042
      -0.094
      -0.140
      -0.173
      -0.190
      -0.198
      -0.206
      -0.224
      -0.254
      -0.284
      -0.299
      -0.281
      -0.223
      -0.135
      -0.029
       0.081
       0.183
       0.264
       0.313
       0.324
       0.300
       0.256
       0.212
       0.186
       0.180
       0.177
       0.158
       0.115
       0.046
      -0.046
      -0.150
      -0.252
      -0.339
      -0.410
      -0.465
      -0.505
      -0.523
      -0.516
      -0.482
      -0.421
      -0.338
      -0.234
      -0.105
       0.055
       0.235
       0.409
       0.546
       0.631
       0.661
       0.647
       0.602
       0.533
       0.440
       0.326
       0.208
       0.103
       0.020
      -0.054
      -0.132
      -0.218
      -0.302
      -0.365
      -0.394
      -0.386
      -0.352
      -0.298
      -0.224
      -0.125
      -0.010
       0.099
       0.182
       0.233
       0.261
       0.280
       0.299
       0.318
       0.329
       0.317
       0.273
       0.187
       0.053
      -0.126
      -0.331
      -0.535
      -0.718
      -0.869
      -0.977
      -1.026
      -1.001
      -0.899
      -0.733
      -0.528
      -0.313
      -0.112
       0.064
       0.211
       0.323
       0.390
       0.401
       0.357
       0.269
       0.157
       0.041
      -0.064
      -0.150
      -0.213
      -0.246
      -0.239
      -0.192
      -0.114
      -0.016
       0.090
       0.193
       0.280
       0.348
       0.400
       0.440
       0.466
       0.472
       0.447
       0.385
       0.287
       0.167
       0.040
      -0.088
      -0.211
      -0.316
      -0.382
      -0.388
      -0.330
      -0.214
      -0.060
       0.103
       0.246
       0.347
       0.392
       0.377
       0.309
       0.210
       0.101
       0.000
      -0.085
      -0.149
      -0.191
      -0.214
      -0.220
      -0.207
      -0.174
      -0.125
      -0.073
      -0.027
       0.008
       0.032
       0.045
       0.046
       0.032
       0.002
      -0.039
      -0.081
      -0.108
      -0.112
      -0.094
      -0.063
      -0.026
       0.004
       0.020
       0.021
       0.009
      -0.013
      -0.042
      -0.076
      -0.115
      -0.162
      -0.215
      -0.266
      -0.301
      -0.308
      -0.282
      -0.222
      -0.130
      -0.020
       0.089
       0.174
       0.214
       0.193
       0.119
       0.018
      -0.076
      -0.139
      -0.165
      -0.159
      -0.135
      -0.111
      -0.097
      -0.097
      -0.105
      -0.117
      -0.122
      -0.109
      -0.063
       0.022
       0.140
       0.275
       0.399
       0.482
       0.506
       0.478
       0.419
       0.352
       0.289
       0.235
       0.193
       0.166
       0.157
       0.164
       0.173
       0.163
       0.122
       0.054
      -0.033
      -0.131
      -0.238
      -0.350
      -0.456
      -0.550
      -0.629
      -0.694
      -0.741
      -0.769
      -0.777
      -0.762
      -0.721
      -0.650
      -0.547
      -0.414
      -0.265
      -0.117
       0.020
       0.151
       0.277
       0.389
       0.468
       0.499
       0.476
       0.405
       0.299
       0.172
       0.036
      -0.100
      -0.220
      -0.312
      -0.368
      -0.388
      -0.378
      -0.345
      -0.299
      -0.251
      -0.204
      -0.150
      -0.076
       0.022
       0.135
       0.243
       0.323
       0.353
       0.325
       0.249
       0.148
       0.044
      -0.043
      -0.104
      -0.140
      -0.150
      -0.129
      -0.074
       0.003
       0.074
       0.120
       0.145
       0.166
       0.192
       0.213
       0.213
       0.181
       0.120
       0.048
      -0.025
      -0.098
      -0.181
      -0.279
      -0.388
      -0.504
      -0.623
      -0.740
      -0.840
      -0.907
      -0.935
      -0.923
      -0.873
      -0.786
      -0.664
      -0.510
      -0.332
      -0.143
       0.041
       0.216
       0.382
       0.530
       0.637
       0.680
       0.641
       0.519
       0.321
       0.069
      -0.204
      -0.464
      -0.675
      -0.801
      -0.821
      -0.735
      -0.568
      -0.363
      -0.156
       0.023
       0.165
       0.275
       0.363
       0.433
       0.486
       0.528
       0.564
       0.597
       0.610
       0.578
       0.481
       0.318
       0.110
      -0.108
      -0.298
      -0.439
      -0.522
      -0.545
      -0.510
      -0.422
      -0.294
      -0.146
      -0.005
       0.095
       0.132
       0.107
       0.040
      -0.039
      -0.109
      -0.158
      -0.179
      -0.168
      -0.122
      -0.044
       0.054
       0.141
       0.186
       0.177
       0.125
       0.049
      -0.029
      -0.084
      -0.100
      -0.065
       0.020
       0.143
       0.284
       0.415
       0.512
       0.566
       0.580
       0.567
       0.544
       0.535
       0.551
       0.586
       0.619
       0.626
       0.587
       0.492
       0.338
       0.139
      -0.080
      -0.289
      -0.462
      -0.575
      -0.619
      -0.602
      -0.543
      -0.466
      -0.390
      -0.327
      -0.279
      -0.238
      -0.196
      -0.149
      -0.098
      -0.040
       0.022
       0.076
       0.104
       0.093
       0.045
      -0.021
      -0.077
      -0.107
      -0.113
      -0.110
      -0.111
      -0.115
      -0.113
      -0.099
      -0.077
      -0.043
       0.011
       0.094
       0.203
       0.320
       0.415
       0.460
       0.445
       0.386
       0.309
       0.236
       0.177
       0.139
       0.123
       0.128
       0.147
       0.176
       0.206
       0.225
       0.223
       0.199
       0.159
       0.111
       0.065
       0.028
       0.001
      -0.017
      -0.026
      -0.024
      -0.007
       0.022
       0.060
       0.105
       0.153
       0.201
       0.250
       0.306
       0.367
       0.421
       0.452
       0.453
       0.427
       0.381
       0.322
       0.249
       0.160
       0.056
      -0.049
      -0.134
      -0.186
      -0.206
      -0.211
      -0.214
      -0.222
      -0.231
      -0.226
      -0.194
      -0.128
      -0.041
       0.053
       0.143
       0.224
       0.297
       0.365
       0.430
       0.485
       0.522
       0.530
       0.501
       0.427
       0.298
       0.118
      -0.091
      -0.289
      -0.436
      -0.504
      -0.486
      -0.396
      -0.264
      -0.116
       0.023
       0.139
