Origin Time       2/8/2013 02:32:05	 
Lat.              33.5 N	
Long.             75.5 E	
Depth (Km)         28.0
Magnitude         5.4
 Region           JK-HP-Border                                                     
 Above details taken from IMD 
     
Station Code      JMU
Station Lat.       32.732  N
Station Long.      74.874  E
Station Height(m)  361.0
Site Class        B   Vs30 between 375 m/sec to 700 m/sec *  
Record Time       02.08.2013 02:33:00.649
Sampling Rate     200. Hz
 Record Duration   80.180 Sec.
 Direction         E-W (E positive)
Max. Acceleration      1.699 cm/sec**2
     
  * For reference see Site Classification link of website 
     
 Base Line Corrected and Low Pass Filtered (Cut Off at 35 Hz) Time History
 Acceleration data in cm/sec**2
    
[...]
       0.352
       0.312
       0.284
       0.270
       0.266
       0.263
       0.256
       0.245
       0.229
       0.209
       0.186
       0.161
       0.137
       0.116
       0.096
       0.072
       0.040
       0.001
      -0.038
      -0.073
      -0.099
      -0.113
      -0.113
      -0.102
      -0.090
      -0.085
      -0.094
      -0.125
      -0.177
      -0.242
      -0.308
      -0.362
      -0.396
      -0.405
      -0.393
      -0.364
      -0.331
      -0.302
      -0.284
      -0.283
      -0.295
      -0.308
      -0.309
      -0.287
      -0.239
      -0.169
      -0.083
       0.009
       0.095
       0.163
       0.206
       0.216
       0.194
       0.154
       0.112
       0.082
       0.069
       0.070
       0.083
       0.106
       0.142
       0.197
       0.269
       0.343
       0.397
       0.407
       0.363
       0.269
       0.146
       0.024
      -0.071
      -0.122
      -0.127
      -0.100
      -0.061
      -0.040
      -0.052
      -0.095
      -0.149
      -0.190
      -0.209
      -0.207
      -0.194
      -0.183
      -0.180
      -0.180
      -0.171
      -0.147
      -0.107
      -0.061
      -0.020
       0.004
       0.007
      -0.010
      -0.041
      -0.078
      -0.110
      -0.120
      -0.103
      -0.064
      -0.019
       0.012
       0.018
      -0.002
      -0.038
      -0.073
      -0.097
      -0.101
      -0.085
      -0.049
       0.003
       0.063
       0.125
       0.184
       0.234
       0.267
       0.279
       0.267
       0.235
       0.191
       0.149
       0.122
       0.119
       0.141
       0.181
       0.220
       0.240
       0.223
       0.171
       0.100
       0.030
      -0.026
      -0.065
      -0.090
      -0.107
      -0.120
      -0.130
      -0.133
      -0.129
      -0.126
      -0.135
      -0.165
      -0.218
      -0.286
      -0.353
      -0.407
      -0.443
      -0.464
      -0.470
      -0.457
      -0.421
      -0.367
      -0.309
      -0.259
      -0.229
      -0.224
      -0.239
      -0.264
      -0.284
      -0.289
      -0.270
      -0.230
      -0.177
      -0.125
      -0.081
      -0.041
       0.004
       0.057
       0.117
       0.172
       0.209
       0.217
       0.192
       0.143
       0.085
       0.035
       0.012
       0.024
       0.064
       0.115
       0.159
       0.189
       0.212
       0.239
       0.281
       0.340
       0.409
       0.471
       0.513
       0.533
       0.536
       0.528
       0.517
       0.509
       0.507
       0.507
       0.504
       0.486
       0.444
       0.375
       0.289
       0.197
       0.108
       0.018
      -0.076
      -0.171
      -0.260
      -0.333
      -0.387
      -0.423
      -0.448
      -0.474
      -0.505
      -0.541
      -0.577
      -0.605
      -0.616
      -0.603
      -0.568
      -0.516
      -0.457
      -0.396
      -0.343
      -0.300
      -0.265
      -0.232
      -0.195
      -0.156
      -0.123
      -0.107
      -0.115
      -0.152
      -0.211
      -0.280
      -0.344
      -0.387
      -0.403
      -0.393
      -0.366
      -0.332
      -0.289
      -0.230
      -0.148
      -0.043
       0.081
       0.209
       0.325
       0.412
       0.467
       0.498
       0.517
       0.535
       0.560
       0.588
       0.606
       0.604
       0.573
       0.518
       0.447
       0.370
       0.298
       0.238
       0.187
       0.141
       0.093
       0.039
      -0.027
      -0.105
      -0.184
      -0.248
      -0.282
      -0.281
      -0.254
      -0.219
      -0.189
      -0.168
      -0.151
      -0.130
      -0.103
      -0.075
      -0.049
      -0.027
      -0.015
      -0.016
      -0.030
      -0.053
      -0.078
      -0.096
      -0.102
      -0.088
      -0.052
       0.001
       0.060
       0.113
       0.156
       0.190
       0.226
       0.269
       0.311
       0.335
       0.329
       0.290
       0.227
       0.152
       0.074
      -0.005
      -0.086
      -0.165
      -0.231
      -0.273
      -0.292
      -0.295
      -0.295
      -0.299
      -0.308
      -0.311
      -0.296
      -0.252
      -0.180
      -0.090
       0.005
       0.094
       0.164
       0.212
       0.241
       0.254
       0.251
       0.232
       0.201
       0.165
       0.133
       0.111
       0.105
       0.120
       0.155
       0.205
       0.258
       0.297
       0.304
       0.274
       0.215
       0.144
       0.075
       0.018
      -0.025
      -0.055
      -0.073
      -0.082
      -0.081
      -0.074
      -0.064
      -0.053
      -0.043
      -0.037
      -0.041
      -0.057
      -0.082
      -0.110
      -0.134
      -0.148
      -0.141
      -0.108
      -0.053
       0.013
       0.080
       0.142
       0.194
       0.227
       0.236
       0.218
       0.179
       0.131
       0.093
       0.073
       0.071
       0.080
       0.088
       0.082
       0.053
       0.000
      -0.071
      -0.153
      -0.237
      -0.315
      -0.376
      -0.411
      -0.417
      -0.397
      -0.361
      -0.315
      -0.266
      -0.213
      -0.153
      -0.090
      -0.033
       0.007
       0.026
       0.033
       0.042
       0.065
       0.106
       0.157
       0.199
       0.218
       0.205
       0.162
       0.098
       0.030
      -0.029
      -0.066
      -0.077
      -0.060
      -0.018
       0.037
       0.091
       0.126
       0.137
       0.124
       0.099
       0.076
       0.067
       0.072
       0.080
       0.081
       0.072
       0.058
       0.045
       0.038
       0.039
       0.044
       0.045
       0.032
      -0.002
      -0.058
      -0.129
      -0.199
      -0.245
      -0.251
      -0.212
      -0.137
      -0.047
       0.032
       0.079
       0.090
       0.072
       0.041
       0.010
      -0.010
      -0.018
      -0.019
      -0.023
      -0.030
      -0.037
      -0.043
      -0.054
      -0.073
      -0.102
      -0.134
      -0.160
      -0.170
      -0.159
      -0.127
      -0.078
      -0.017
       0.057
       0.142
       0.233
       0.322
       0.395
       0.438
       0.441
       0.408
       0.350
       0.274
       0.185
       0.082
      -0.028
      -0.142
      -0.253
      -0.355
      -0.434
      -0.478
      -0.480
      -0.444
      -0.385
      -0.321
      -0.269
      -0.232
      -0.205
      -0.179
      -0.149
      -0.111
      -0.067
      -0.025
       0.005
       0.018
       0.015
       0.001
      -0.012
      -0.015
      -0.004
       0.015
       0.032
       0.038
       0.028
       0.002
      -0.041
      -0.095
      -0.153
      -0.208
      -0.251
      -0.278
      -0.283
      -0.262
      -0.215
      -0.140
      -0.040
       0.074
       0.188
       0.290
       0.371
       0.427
       0.461
       0.475
       0.468
       0.435
       0.376
       0.302
       0.231
       0.176
       0.141
       0.126
       0.124
       0.126
       0.124
       0.113
       0.093
       0.072
       0.059
       0.068
       0.108
       0.176
       0.265
       0.360
       0.445
       0.504
       0.524
       0.505
       0.453
       0.381
       0.305
       0.235
       0.171
       0.107
       0.035
      -0.045
      -0.127
      -0.203
      -0.267
      -0.319
      -0.363
      -0.410
      -0.464
      -0.522
      -0.578
      -0.624
      -0.655
      -0.667
      -0.656
      -0.628
      -0.594
      -0.562
      -0.533
      -0.497
      -0.445
      -0.368
      -0.267
      -0.158
      -0.060
       0.011
       0.042
       0.029
      -0.022
      -0.093
      -0.160
      -0.200
      -0.203
      -0.166
      -0.095
      -0.004
       0.096
       0.196
       0.293
       0.385
       0.470
       0.541
       0.590
       0.617
       0.626
       0.625
       0.623
       0.625
       0.638
       0.665
       0.703
       0.741
       0.767
       0.772
       0.754
       0.713
       0.657
       0.599
       0.545
       0.496
       0.452
       0.413
       0.378
       0.344
       0.302
       0.243
       0.156
       0.035
      -0.117
      -0.283
      -0.438
      -0.560
      -0.639
      -0.675
      -0.683
      -0.685
      -0.697
      -0.727
      -0.775
      -0.833
      -0.894
      -0.949
      -0.996
      -1.037
      -1.074
      -1.105
      -1.127
      -1.138
      -1.131
      -1.092
      -1.009
      -0.879
      -0.707
      -0.508
      -0.300
      -0.103
       0.071
       0.214
       0.325
       0.408
       0.468
       0.512
       0.543
       0.562
       0.574
       0.588
       0.608
       0.632
       0.657
       0.678
       0.687
       0.678
       0.650
       0.605
       0.548
       0.483
       0.417
       0.358
       0.311
       0.273
       0.242
       0.209
       0.170
       0.122
       0.068
       0.015
      -0.031
      -0.068
      -0.096
      -0.109
      -0.106
      -0.089
      -0.073
      -0.079
      -0.124
      -0.212
      -0.326
      -0.434
      -0.511
      -0.548
      -0.555
      -0.546
      -0.530
      -0.512
      -0.489
      -0.459
      -0.426
      -0.396
      -0.370
      -0.341
      -0.304
      -0.259
      -0.208
      -0.158
      -0.115
      -0.084
      -0.069
      -0.071
      -0.092
      -0.130
      -0.178
      -0.227
      -0.267
      -0.288
      -0.285
      -0.260
      -0.221
      -0.182
      -0.152
      -0.136
      -0.132
      -0.139
      -0.153
      -0.173
      -0.198
      -0.227
      -0.257
      -0.283
      -0.301
      -0.307
      -0.294
      -0.261
      -0.211
      -0.151
      -0.090
      -0.038
      -0.004
       0.013
       0.023
       0.040
       0.074
       0.128
       0.198
       0.276
       0.349
       0.407
       0.450
       0.482
       0.511
       0.544
       0.588
       0.641
       0.695
       0.739
       0.765
       0.777
       0.782
       0.783
       0.780
       0.767
       0.744
       0.713
       0.678
       0.641
       0.591
       0.517
       0.414
       0.285
       0.142
      -0.001
      -0.127
      -0.231
      -0.313
      -0.383
      -0.447
      -0.510
      -0.572
      -0.631
      -0.682
      -0.723
      -0.752
      -0.768
      -0.766
      -0.749
      -0.722
      -0.697
      -0.678
      -0.664
      -0.646
      -0.613
      -0.561
      -0.496
      -0.425
      -0.355
      -0.283
      -0.209
      -0.131
      -0.052
       0.031
       0.118
       0.210
       0.300
       0.386
       0.464
       0.533
       0.593
       0.646
       0.691
       0.726
       0.749
       0.761
       0.760
       0.741
       0.698
       0.628
       0.536
       0.430
       0.317
       0.202
       0.086
      -0.030
      -0.144
      -0.253
      -0.359
      -0.466
      -0.571
      -0.665
      -0.733
      -0.769
      -0.770
      -0.740
      -0.684
      -0.609
      -0.528
      -0.448
      -0.371
      -0.298
      -0.224
      -0.148
      -0.075
      -0.015
       0.024
       0.041
       0.039
       0.026
       0.014
       0.010
       0.015
       0.023
       0.024
       0.014
      -0.005
      -0.032
      -0.059
      -0.083
      -0.100
      -0.113
      -0.121
      -0.121
      -0.110
      -0.084
      -0.050
      -0.016
       0.010
       0.024
       0.033
       0.051
       0.088
       0.145
       0.218
       0.299
       0.377
       0.438
       0.474
       0.483
       0.471
       0.447
       0.426
       0.415
       0.413
       0.406
       0.383
       0.344
       0.303
       0.277
       0.282
       0.317
       0.372
       0.428
       0.468
       0.484
       0.476
       0.449
       0.411
       0.368
       0.321
       0.273
       0.229
       0.194
       0.166
       0.138
       0.106
       0.070
       0.035
       0.003
      -0.028
      -0.061
      -0.099
      -0.140
      -0.180
      -0.219
      -0.261
      -0.309
      -0.359
      -0.405
      -0.438
      -0.457
      -0.462
      -0.456
      -0.445
      -0.434
      -0.427
      -0.429
      -0.443
      -0.467
      -0.490
      -0.500
      -0.492
      -0.473
      -0.456
      -0.452
      -0.471
      -0.513
      -0.573
      -0.634
      -0.682
      -0.708
      -0.707
      -0.679
      -0.624
      -0.541
      -0.426
      -0.276
      -0.091
       0.123
       0.358
       0.604
       0.846
       1.070
       1.265
       1.427
       1.552
       1.639
       1.688
       1.699
       1.676
       1.624
       1.549
       1.462
       1.367
       1.268
       1.168
       1.068
       0.965
       0.855
       0.734
       0.601
       0.456
       0.301
       0.141
      -0.016
      -0.166
      -0.305
      -0.429
      -0.532
      -0.608
      -0.655
      -0.678
      -0.681
      -0.670
      -0.648
      -0.613
      -0.567
      -0.511
      -0.452
      -0.391
      -0.325
      -0.255
      -0.186
      -0.128
      -0.088
      -0.073
      -0.080
      -0.100
      -0.127
      -0.155
      -0.181
      -0.200
      -0.208
      -0.202
      -0.181
      -0.152
      -0.122
      -0.101
      -0.093
      -0.096
      -0.104
      -0.112
      -0.122
      -0.133
      -0.139
      -0.134
      -0.113
      -0.078
      -0.040
      -0.013
      -0.001
      -0.001
      -0.002
       0.004
       0.020
       0.045
       0.072
       0.091
       0.100
       0.105
       0.119
       0.150
       0.196
       0.252
       0.307
       0.353
       0.382
       0.393
       0.388
       0.373
       0.357
       0.347
       0.339
       0.321
       0.283
       0.227
       0.159
       0.089
       0.028
      -0.009
      -0.013
       0.013
       0.053
       0.089
       0.106
       0.103
       0.092
       0.087
       0.104
       0.146
       0.212
       0.294
       0.378
       0.439
       0.456
       0.416
       0.322
       0.191
       0.047
      -0.089
      -0.202
      -0.291
      -0.355
      -0.400
      -0.432
      -0.460
      -0.489
      -0.516
      -0.541
      -0.564
      -0.588
      -0.612
      -0.635
      -0.652
      -0.660
      -0.653
      -0.626
      -0.577
      -0.511
      -0.434
      -0.363
      -0.311
      -0.287
      -0.288
      -0.301
      -0.313
      -0.315
      -0.301
      -0.274
      -0.243
      -0.214
      -0.196
      -0.197
      -0.222
      -0.273
      -0.347
      -0.432
      -0.513
      -0.576
      -0.610
      -0.610
      -0.580
      -0.526
      -0.451
      -0.366
      -0.277
      -0.187
      -0.085
       0.039
       0.191
       0.364
       0.545
       0.714
       0.859
       0.977
       1.071
       1.142
       1.188
       1.204
       1.189
       1.142
       1.064
       0.959
       0.837
       0.705
       0.571
       0.437
       0.304
       0.170
       0.036
      -0.094
      -0.215
      -0.322
      -0.409
      -0.470
      -0.502
      -0.509
      -0.499
      -0.482
      -0.462
      -0.436
      -0.401
      -0.356
      -0.309
      -0.272
      -0.258
      -0.265
      -0.283
      -0.297
      -0.300
      -0.296
      -0.288
      -0.281
      -0.276
      -0.273
      -0.274
      -0.282
      -0.297
      -0.312
      -0.316
      -0.305
      -0.280
      -0.247
      -0.209
      -0.167
      -0.119
      -0.054
       0.037
       0.157
       0.293
       0.422
       0.521
       0.576
       0.591
       0.582
       0.565
       0.546
       0.524
       0.499
       0.472
       0.448
       0.429
       0.414
       0.395
       0.365
       0.325
       0.280
       0.236
       0.193
       0.152
       0.113
       0.080
       0.056
       0.042
       0.038
       0.046
       0.057
       0.065
       0.065
       0.057
       0.044
       0.027
       0.007
      -0.017
      -0.043
      -0.068
      -0.084
      -0.088
      -0.083
      -0.077
      -0.075
      -0.078
      -0.084
      -0.090
      -0.086
      -0.067
      -0.027
       0.033
       0.110
       0.189
       0.257
       0.301
       0.321
       0.324
       0.316
       0.305
       0.298
       0.294
       0.285
       0.261
       0.220
       0.164
       0.094
       0.012
      -0.075
      -0.158
      -0.223
      -0.260
      -0.271
      -0.270
      -0.272
      -0.288
      -0.312
      -0.335
      -0.351
      -0.360
      -0.371
      -0.392
      -0.432
      -0.485
      -0.536
      -0.567
      -0.565
      -0.531
      -0.473
      -0.399
      -0.317
      -0.229
      -0.138
      -0.048
       0.031
       0.097
       0.148
       0.183
       0.196
       0.178
       0.126
       0.048
      -0.040
      -0.116
      -0.165
      -0.187
      -0.191
      -0.190
      -0.188
      -0.181
      -0.166
      -0.142
      -0.106
      -0.052
       0.027
       0.133
       0.253
       0.365
       0.442
       0.468
       0.444
       0.384
       0.303
       0.212
       0.118
       0.024
      -0.070
      -0.159
      -0.236
      -0.289
      -0.313
      -0.308
      -0.280
      -0.236
      -0.185
      -0.129
      -0.068
      -0.005
       0.057
       0.117
       0.183
       0.259
       0.341
       0.414
       0.464
       0.482
       0.476
       0.462
       0.455
       0.457
       0.461
       0.462
       0.449
       0.416
       0.353
       0.265
       0.163
       0.061
      -0.034
      -0.115
      -0.177
      -0.213
      -0.218
      -0.195
      -0.155
      -0.113
      -0.081
      -0.066
      -0.066
      -0.079
      -0.100
      -0.125
      -0.148
      -0.173
      -0.206
      -0.252
      -0.306
      -0.358
      -0.401
      -0.428
      -0.433
      -0.414
      -0.374
      -0.323
      -0.282
      -0.266
      -0.280
      -0.308
      -0.328
      -0.328
      -0.312
      -0.289
      -0.268
      -0.251
