Origin Time       2/8/2013 02:32:05	 
Lat.              33.5 N	
Long.             75.5 E	
Depth (Km)         28.0
Magnitude         5.4
 Region           JK-HP-Border                                                     
 Above details taken from IMD 
   
Station Code      HAM
Station Lat.       31.691
Station Long.      76.520
Station Height(m)    1.0
Site Class        B   Vs30 between 375 m/sec to 700 m/sec *  
Record Time       02.08.2013 02:32:49.044
Sampling Rate     200. Hz
 Record Duration   82.110 Sec.
 Direction         Vert. (Up positive)
Max. Acceleration     -1.557 cm/sec**2
     
  * For reference see Site Classification link of website 
     
 Base Line Corrected and Low Pass Filtered (Cut Off at 35 Hz) Time History
 Acceleration data in cm/sec**2
    
[...]
       0.087
       0.093
       0.107
       0.117
       0.110
       0.084
       0.053
       0.031
       0.029
       0.050
       0.089
       0.139
       0.188
       0.222
       0.232
       0.206
       0.144
       0.058
      -0.028
      -0.094
      -0.132
      -0.149
      -0.156
      -0.156
      -0.150
      -0.136
      -0.122
      -0.119
      -0.134
      -0.161
      -0.181
      -0.177
      -0.145
      -0.099
      -0.058
      -0.029
      -0.016
      -0.023
      -0.062
      -0.136
      -0.220
      -0.278
      -0.284
      -0.244
      -0.187
      -0.143
      -0.122
      -0.111
      -0.094
      -0.066
      -0.041
      -0.031
      -0.037
      -0.048
      -0.054
      -0.051
      -0.045
      -0.038
      -0.027
      -0.010
       0.014
       0.035
       0.045
       0.039
       0.022
       0.003
      -0.011
      -0.019
      -0.022
      -0.021
      -0.014
       0.003
       0.030
       0.064
       0.101
       0.136
       0.164
       0.180
       0.174
       0.147
       0.109
       0.080
       0.074
       0.084
       0.091
       0.084
       0.073
       0.072
       0.076
       0.054
      -0.017
      -0.115
      -0.181
      -0.178
      -0.128
      -0.087
      -0.083
      -0.095
      -0.093
      -0.076
      -0.062
      -0.054
      -0.038
      -0.008
       0.016
       0.017
       0.007
       0.015
       0.060
       0.126
       0.184
       0.217
       0.224
       0.210
       0.177
       0.130
       0.076
       0.026
      -0.017
      -0.051
      -0.082
      -0.117
      -0.153
      -0.177
      -0.172
      -0.139
      -0.095
      -0.059
      -0.034
      -0.016
       0.001
       0.011
       0.013
       0.007
      -0.004
      -0.018
      -0.039
      -0.068
      -0.096
      -0.109
      -0.101
      -0.077
      -0.048
      -0.022
       0.007
       0.045
       0.094
       0.145
       0.187
       0.214
       0.228
       0.235
       0.234
       0.225
       0.207
       0.181
       0.153
       0.124
       0.088
       0.041
      -0.014
      -0.065
      -0.099
      -0.107
      -0.099
      -0.087
      -0.082
      -0.084
      -0.083
      -0.075
      -0.060
      -0.043
      -0.025
      -0.005
       0.012
       0.011
      -0.020
      -0.076
      -0.123
      -0.126
      -0.089
      -0.057
      -0.076
      -0.146
      -0.208
      -0.205
      -0.133
      -0.052
      -0.021
      -0.049
      -0.100
      -0.131
      -0.117
      -0.058
       0.029
       0.113
       0.157
       0.146
       0.102
       0.072
       0.091
       0.151
       0.216
       0.249
       0.241
       0.208
       0.171
       0.145
       0.136
       0.137
       0.135
       0.119
       0.082
       0.024
      -0.048
      -0.114
      -0.153
      -0.153
      -0.125
      -0.090
      -0.064
      -0.049
      -0.029
       0.007
       0.066
       0.137
       0.203
       0.247
       0.258
       0.238
       0.198
       0.148
       0.091
       0.025
      -0.049
      -0.125
      -0.191
      -0.237
      -0.263
      -0.278
      -0.292
      -0.306
      -0.313
      -0.305
      -0.276
      -0.222
      -0.147
      -0.061
       0.028
       0.110
       0.179
       0.231
       0.262
       0.274
       0.272
       0.261
       0.242
       0.212
       0.167
       0.107
       0.033
      -0.051
      -0.144
      -0.236
      -0.314
      -0.365
      -0.387
      -0.387
      -0.374
      -0.350
      -0.309
      -0.249
      -0.177
      -0.110
      -0.057
      -0.007
       0.063
       0.160
       0.258
       0.319
       0.326
       0.300
       0.271
       0.251
       0.230
       0.198
       0.159
       0.117
       0.065
      -0.004
      -0.084
      -0.148
      -0.182
      -0.190
      -0.193
      -0.205
      -0.215
      -0.207
      -0.176
      -0.138
      -0.108
      -0.086
      -0.060
      -0.024
       0.016
       0.051
       0.082
       0.117
       0.163
       0.212
       0.242
       0.238
       0.204
       0.151
       0.092
       0.026
      -0.052
      -0.144
      -0.239
      -0.319
      -0.370
      -0.386
      -0.369
      -0.326
      -0.265
      -0.194
      -0.114
      -0.028
       0.052
       0.112
       0.140
       0.138
       0.116
       0.090
       0.073
       0.072
       0.089
       0.120
       0.157
       0.186
       0.198
       0.189
       0.162
       0.127
       0.089
       0.055
       0.026
       0.007
      -0.005
      -0.009
      -0.012
      -0.015
      -0.017
      -0.014
      -0.007
      -0.007
      -0.022
      -0.062
      -0.127
      -0.216
      -0.321
      -0.425
      -0.505
      -0.537
      -0.513
      -0.438
      -0.340
      -0.255
      -0.203
      -0.171
      -0.127
      -0.050
       0.038
       0.096
       0.109
       0.103
       0.112
       0.142
       0.166
       0.159
       0.124
       0.088
       0.077
       0.096
       0.133
       0.170
       0.202
       0.226
       0.242
       0.250
       0.254
       0.253
       0.237
       0.195
       0.137
       0.088
       0.075
       0.105
       0.157
       0.208
       0.244
       0.261
       0.262
       0.241
       0.195
       0.130
       0.061
       0.002
      -0.043
      -0.079
      -0.109
      -0.131
      -0.137
      -0.122
      -0.090
      -0.045
       0.009
       0.071
       0.140
       0.213
       0.289
       0.364
       0.427
       0.468
       0.476
       0.446
       0.378
       0.280
       0.163
       0.043
      -0.059
      -0.128
      -0.155
      -0.149
      -0.127
      -0.110
      -0.111
      -0.136
      -0.185
      -0.258
      -0.344
      -0.427
      -0.487
      -0.515
      -0.513
      -0.487
      -0.446
      -0.397
      -0.345
      -0.302
      -0.276
      -0.269
      -0.279
      -0.298
      -0.317
      -0.328
      -0.323
      -0.306
      -0.285
      -0.280
      -0.298
      -0.328
      -0.341
      -0.316
      -0.269
      -0.239
      -0.250
      -0.278
      -0.269
      -0.199
      -0.098
      -0.028
      -0.021
      -0.062
      -0.106
      -0.117
      -0.081
      -0.003
       0.096
       0.188
       0.240
       0.239
       0.201
       0.154
       0.115
       0.079
       0.037
      -0.006
      -0.032
      -0.026
       0.012
       0.065
       0.113
       0.145
       0.160
       0.159
       0.144
       0.118
       0.087
       0.058
       0.033
       0.013
      -0.008
      -0.032
      -0.058
      -0.081
      -0.095
      -0.093
      -0.074
      -0.039
       0.012
       0.077
       0.155
       0.240
       0.323
       0.390
       0.429
       0.430
       0.392
       0.326
       0.246
       0.171
       0.112
       0.071
       0.045
       0.027
       0.013
       0.000
      -0.012
      -0.021
      -0.024
      -0.026
      -0.033
      -0.053
      -0.083
      -0.120
      -0.159
      -0.193
      -0.216
      -0.218
      -0.198
      -0.161
      -0.117
      -0.073
      -0.031
       0.010
       0.051
       0.097
       0.153
       0.226
       0.314
       0.399
       0.453
       0.454
       0.411
       0.355
       0.316
       0.293
       0.257
       0.184
       0.087
       0.003
      -0.053
      -0.100
      -0.162
      -0.240
      -0.311
      -0.362
      -0.395
      -0.414
      -0.419
      -0.415
      -0.418
      -0.444
      -0.481
      -0.497
      -0.465
      -0.386
      -0.287
      -0.190
      -0.102
      -0.018
       0.064
       0.133
       0.178
       0.190
       0.171
       0.123
       0.048
      -0.047
      -0.153
      -0.257
      -0.343
      -0.392
      -0.395
      -0.351
      -0.271
      -0.171
      -0.067
       0.028
       0.107
       0.165
       0.202
       0.223
       0.232
       0.235
       0.235
       0.234
       0.231
       0.221
       0.200
       0.168
       0.131
       0.097
       0.068
       0.042
       0.018
      -0.007
      -0.035
      -0.069
      -0.102
      -0.130
      -0.145
      -0.143
      -0.125
      -0.094
      -0.054
      -0.001
       0.068
       0.153
       0.242
       0.318
       0.366
       0.380
       0.367
       0.336
       0.298
       0.261
       0.230
       0.204
       0.179
       0.152
       0.119
       0.078
       0.027
      -0.037
      -0.110
      -0.178
      -0.227
      -0.247
      -0.247
      -0.245
      -0.246
      -0.240
      -0.211
      -0.161
      -0.110
      -0.077
      -0.056
      -0.034
      -0.005
       0.025
       0.045
       0.047
       0.028
      -0.011
      -0.056
      -0.087
      -0.089
      -0.058
       0.002
       0.078
       0.160
       0.239
       0.310
       0.366
       0.401
       0.408
       0.390
       0.357
       0.324
       0.305
       0.303
       0.307
       0.303
       0.287
       0.267
       0.252
       0.243
       0.233
       0.207
       0.155
       0.075
      -0.026
      -0.136
      -0.248
      -0.355
      -0.449
      -0.517
      -0.544
      -0.524
      -0.465
      -0.386
      -0.306
      -0.233
      -0.166
      -0.101
      -0.035
       0.033
       0.102
       0.168
       0.224
       0.266
       0.289
       0.294
       0.285
       0.262
       0.230
       0.192
       0.152
       0.116
       0.085
       0.057
       0.030
       0.004
      -0.018
      -0.032
      -0.034
      -0.022
       0.003
       0.039
       0.080
       0.121
       0.155
       0.179
       0.195
       0.206
       0.215
       0.220
       0.222
       0.220
       0.214
       0.210
       0.217
       0.245
       0.293
       0.350
       0.398
       0.427
       0.437
       0.441
       0.450
       0.470
       0.493
       0.501
       0.468
       0.379
       0.245
       0.092
      -0.052
      -0.173
      -0.271
      -0.348
      -0.400
      -0.421
      -0.412
      -0.381
      -0.345
      -0.315
      -0.295
      -0.276
      -0.248
      -0.204
      -0.147
      -0.089
      -0.042
      -0.013
       0.003
       0.010
       0.008
      -0.011
      -0.053
      -0.118
      -0.197
      -0.278
      -0.350
      -0.410
      -0.459
      -0.498
      -0.525
      -0.537
      -0.533
      -0.517
      -0.496
      -0.479
      -0.472
      -0.477
      -0.491
      -0.510
      -0.534
      -0.561
      -0.590
      -0.614
      -0.623
      -0.605
      -0.561
      -0.499
      -0.438
      -0.396
      -0.377
      -0.370
      -0.360
      -0.337
      -0.304
      -0.270
      -0.232
      -0.183
      -0.121
      -0.055
       0.002
       0.042
       0.073
       0.115
       0.179
       0.261
       0.347
       0.420
       0.474
       0.515
       0.548
       0.577
       0.598
       0.605
       0.595
       0.565
       0.519
       0.463
       0.405
       0.356
       0.320
       0.293
       0.258
       0.202
       0.125
       0.043
      -0.022
      -0.054
      -0.058
      -0.055
      -0.064
      -0.087
      -0.114
      -0.130
      -0.134
      -0.139
      -0.157
      -0.186
      -0.216
      -0.235
      -0.246
      -0.262
      -0.292
      -0.338
      -0.388
      -0.429
      -0.450
      -0.453
      -0.448
      -0.441
      -0.430
      -0.408
      -0.368
      -0.315
      -0.262
      -0.223
      -0.201
      -0.190
      -0.182
      -0.175
      -0.177
      -0.190
      -0.209
      -0.225
      -0.235
      -0.243
      -0.258
      -0.282
      -0.304
      -0.309
      -0.291
      -0.253
      -0.204
      -0.155
      -0.109
      -0.062
      -0.007
       0.059
       0.139
       0.226
       0.317
       0.409
       0.499
       0.589
       0.682
       0.784
       0.901
       1.031
       1.161
       1.278
       1.368
       1.421
       1.432
       1.404
       1.347
       1.275
       1.196
       1.116
       1.036
       0.959
       0.887
       0.819
       0.749
       0.675
       0.602
       0.538
       0.494
       0.473
       0.469
       0.467
       0.457
       0.435
       0.407
       0.385
       0.377
       0.385
       0.407
       0.443
       0.489
       0.542
       0.596
       0.643
       0.678
       0.696
       0.690
       0.649
       0.559
       0.413
       0.225
       0.028
      -0.143
      -0.279
      -0.410
      -0.576
      -0.794
      -1.035
      -1.250
      -1.405
      -1.497
      -1.544
      -1.557
      -1.540
      -1.496
      -1.432
      -1.359
      -1.282
      -1.194
      -1.084
      -0.950
      -0.802
      -0.651
      -0.511
      -0.388
      -0.283
      -0.197
      -0.128
      -0.072
      -0.031
      -0.011
      -0.022
      -0.069
      -0.144
      -0.235
      -0.330
      -0.423
      -0.515
      -0.605
      -0.685
      -0.747
      -0.784
      -0.796
      -0.788
      -0.768
      -0.739
      -0.693
      -0.623
      -0.521
      -0.391
      -0.240
      -0.081
       0.076
       0.220
       0.342
       0.437
       0.500
       0.537
       0.552
       0.555
       0.550
       0.539
       0.520
       0.494
       0.462
       0.424
       0.377
       0.319
       0.249
       0.170
       0.089
       0.015
      -0.043
      -0.074
      -0.071
      -0.031
       0.042
       0.139
       0.244
       0.345
       0.429
       0.486
       0.511
       0.501
       0.461
       0.405
       0.348
       0.304
       0.277
       0.261
       0.245
       0.221
       0.183
       0.136
       0.090
       0.059
       0.043
       0.028
      -0.004
      -0.057
      -0.108
      -0.125
      -0.090
      -0.020
       0.055
       0.108
       0.135
       0.144
       0.141
       0.126
       0.094
       0.042
      -0.026
      -0.102
      -0.176
      -0.240
      -0.293
      -0.350
      -0.427
      -0.529
      -0.634
      -0.707
      -0.724
      -0.689
      -0.627
      -0.565
      -0.517
      -0.480
      -0.440
      -0.390
      -0.336
      -0.292
      -0.267
      -0.257
      -0.250
      -0.233
      -0.205
      -0.173
      -0.140
      -0.101
      -0.045
       0.031
       0.119
       0.205
       0.278
       0.341
       0.405
       0.474
       0.545
       0.603
       0.635
       0.638
       0.617
       0.579
       0.531
       0.476
       0.419
       0.367
       0.326
       0.298
       0.282
       0.275
       0.277
       0.289
       0.317
       0.362
       0.420
       0.481
       0.532
       0.569
       0.595
       0.612
       0.617
       0.603
       0.562
       0.491
       0.392
       0.269
       0.126
      -0.028
      -0.184
      -0.330
      -0.460
      -0.569
      -0.652
      -0.711
      -0.751
      -0.779
      -0.803
      -0.825
      -0.843
      -0.852
      -0.850
      -0.840
      -0.827
      -0.813
      -0.798
      -0.780
      -0.758
      -0.739
      -0.728
      -0.728
      -0.736
      -0.747
      -0.753
      -0.751
      -0.734
      -0.703
      -0.661
      -0.612
      -0.562
      -0.512
      -0.463
      -0.420
      -0.390
      -0.377
      -0.376
      -0.374
      -0.360
      -0.330
      -0.289
      -0.244
      -0.207
      -0.184
      -0.182
      -0.200
      -0.234
      -0.275
      -0.311
      -0.328
      -0.320
      -0.283
      -0.221
      -0.144
      -0.062
       0.014
       0.076
       0.117
       0.140
       0.150
       0.163
       0.197
       0.265
       0.365
       0.487
       0.612
       0.726
       0.827
       0.917
       1.007
       1.100
       1.191
       1.270
       1.319
       1.326
       1.284
       1.199
       1.086
       0.964
       0.853
       0.762
       0.688
       0.621
       0.551
       0.469
       0.372
       0.262
       0.140
       0.012
      -0.119
      -0.241
      -0.346
      -0.426
      -0.482
      -0.523
      -0.561
      -0.605
      -0.655
      -0.708
      -0.758
      -0.798
      -0.818
      -0.807
      -0.753
      -0.650
      -0.503
      -0.326
      -0.138
       0.045
       0.213
       0.354
       0.459
       0.519
       0.534
       0.516
       0.479
       0.438
       0.399
       0.360
       0.320
       0.279
       0.245
       0.227
       0.226
       0.238
       0.255
       0.273
       0.294
       0.318
       0.338
       0.344
       0.326
       0.280
       0.211
       0.125
       0.030
      -0.070
      -0.173
      -0.278
      -0.378
      -0.464
      -0.524
      -0.555
      -0.562
      -0.557
      -0.552
      -0.551
      -0.551
      -0.545
      -0.520
      -0.468
      -0.386
      -0.278
      -0.157
      -0.039
       0.061
       0.132
       0.175
       0.202
       0.230
       0.272
       0.333
       0.408
       0.486
       0.558
       0.616
       0.667
       0.714
       0.755
       0.776
       0.761
       0.702
       0.604
       0.484
       0.354
       0.226
       0.097
      -0.031
      -0.154
      -0.261
      -0.345
      -0.407
      -0.455
      -0.499
      -0.543
      -0.584
      -0.622
      -0.659
      -0.696
      -0.735
      -0.768
      -0.789
      -0.789
      -0.765
      -0.719
      -0.653
      -0.577
      -0.499
      -0.425
      -0.355
      -0.287
      -0.213
      -0.128
      -0.032
       0.073
       0.181
       0.286
       0.384
       0.473
       0.552
       0.622
       0.682
       0.727
       0.750
       0.744
       0.707
       0.650
       0.588
       0.534
       0.496
       0.476
       0.472
       0.482
       0.499
       0.517
       0.531
       0.546
       0.566
       0.593
       0.623
       0.648
       0.659
       0.649
       0.614
       0.552
       0.462
       0.346
       0.203
       0.038
      -0.139
      -0.309
      -0.453
      -0.558
      -0.626
