Origin Time       2/8/2013 02:32:05	  UTC
Lat.              33.5 N	
Long.             75.5 E	
Depth (Km)         28.0
Magnitude         5.4
 Region           JK-HP-Border                                                     
 Above details taken from IMD 
    
Station Code      HAM
Station Lat.       31.691  N
Station Long.      76.520  E
Station Height(m)    1.0
Site Class        B   Vs30 between 375 m/sec to 700 m/sec *  
Record Time       02.08.2013 02:32:49.044 UTC
Sampling Rate     200. Hz
 Record Duration   82.110 Sec.
 Direction         N-S (N positive)
Max. Acceleration      6.597 cm/sec**2
     
  * For reference see Site Classification link of website 
     
 Base Line Corrected and Low Pass Filtered (Cut Off at 35 Hz) Time History
 Acceleration data in cm/sec**2
    
[...]
      -0.046
      -0.041
      -0.040
      -0.037
      -0.032
      -0.026
      -0.022
      -0.017
      -0.006
       0.015
       0.040
       0.061
       0.073
       0.081
       0.092
       0.108
       0.119
       0.112
       0.091
       0.071
       0.063
       0.062
       0.055
       0.037
       0.016
       0.003
       0.002
       0.008
       0.014
       0.007
      -0.017
      -0.050
      -0.075
      -0.081
      -0.071
      -0.062
      -0.064
      -0.078
      -0.094
      -0.107
      -0.113
      -0.113
      -0.107
      -0.093
      -0.071
      -0.041
      -0.004
       0.036
       0.074
       0.107
       0.133
       0.150
       0.155
       0.147
       0.132
       0.116
       0.102
       0.090
       0.077
       0.062
       0.046
       0.030
       0.016
       0.007
       0.003
       0.002
       0.003
       0.005
       0.009
       0.019
       0.035
       0.057
       0.077
       0.089
       0.092
       0.088
       0.083
       0.077
       0.072
       0.070
       0.072
       0.075
       0.079
       0.079
       0.076
       0.073
       0.076
       0.088
       0.107
       0.125
       0.134
       0.130
       0.115
       0.098
       0.082
       0.065
       0.045
       0.021
      -0.002
      -0.019
      -0.025
      -0.025
      -0.027
      -0.036
      -0.051
      -0.061
      -0.059
      -0.051
      -0.053
      -0.073
      -0.094
      -0.093
      -0.067
      -0.040
      -0.037
      -0.054
      -0.070
      -0.070
      -0.062
      -0.060
      -0.071
      -0.092
      -0.117
      -0.140
      -0.156
      -0.163
      -0.167
      -0.181
      -0.206
      -0.231
      -0.238
      -0.219
      -0.183
      -0.143
      -0.107
      -0.075
      -0.046
      -0.020
       0.002
       0.018
       0.030
       0.041
       0.052
       0.061
       0.066
       0.063
       0.052
       0.038
       0.029
       0.024
       0.020
       0.015
       0.012
       0.015
       0.024
       0.031
       0.033
       0.028
       0.020
       0.015
       0.009
       0.004
      -0.002
      -0.004
      -0.002
       0.006
       0.018
       0.031
       0.042
       0.045
       0.039
       0.027
       0.010
      -0.008
      -0.026
      -0.041
      -0.051
      -0.053
      -0.044
      -0.026
      -0.002
       0.022
       0.039
       0.052
       0.064
       0.079
       0.095
       0.104
       0.103
       0.094
       0.083
       0.078
       0.080
       0.083
       0.077
       0.058
       0.042
       0.048
       0.078
       0.105
       0.095
       0.049
       0.009
       0.018
       0.070
       0.121
       0.131
       0.106
       0.081
       0.081
       0.106
       0.133
       0.144
       0.137
       0.125
       0.123
       0.133
       0.143
       0.138
       0.112
       0.072
       0.031
       0.003
      -0.010
      -0.019
      -0.032
      -0.051
      -0.068
      -0.076
      -0.073
      -0.061
      -0.046
      -0.027
      -0.001
       0.033
       0.072
       0.112
       0.143
       0.162
       0.167
       0.162
       0.150
       0.130
       0.102
       0.065
       0.025
      -0.014
      -0.052
      -0.087
      -0.119
      -0.143
      -0.155
      -0.153
      -0.140
      -0.120
      -0.097
      -0.071
      -0.043
      -0.017
       0.003
       0.016
       0.022
       0.024
       0.023
       0.018
       0.007
      -0.011
      -0.034
      -0.059
      -0.080
      -0.095
      -0.104
      -0.113
      -0.125
      -0.141
      -0.158
      -0.172
      -0.180
      -0.179
      -0.172
      -0.157
      -0.134
      -0.103
      -0.069
      -0.037
      -0.009
       0.015
       0.034
       0.046
       0.051
       0.049
       0.041
       0.029
       0.010
      -0.014
      -0.042
      -0.072
      -0.100
      -0.121
      -0.128
      -0.116
      -0.094
      -0.074
      -0.063
      -0.054
      -0.035
       0.002
       0.053
       0.104
       0.142
       0.164
       0.175
       0.180
       0.184
       0.185
       0.175
       0.151
       0.114
       0.070
       0.030
       0.001
      -0.017
      -0.032
      -0.046
      -0.056
      -0.057
      -0.046
      -0.029
      -0.011
       0.003
       0.017
       0.036
       0.060
       0.087
       0.107
       0.116
       0.113
       0.103
       0.089
       0.070
       0.045
       0.015
      -0.018
      -0.054
      -0.095
      -0.145
      -0.199
      -0.246
      -0.279
      -0.295
      -0.298
      -0.293
      -0.281
      -0.261
      -0.233
      -0.198
      -0.158
      -0.116
      -0.077
      -0.040
      -0.006
       0.024
       0.047
       0.057
       0.054
       0.039
       0.015
      -0.016
      -0.056
      -0.107
      -0.170
      -0.239
      -0.302
      -0.354
      -0.390
      -0.413
      -0.421
      -0.413
      -0.386
      -0.343
      -0.293
      -0.245
      -0.200
      -0.154
      -0.109
      -0.067
      -0.035
      -0.010
       0.009
       0.022
       0.024
       0.014
      -0.003
      -0.024
      -0.048
      -0.077
      -0.108
      -0.136
      -0.161
      -0.179
      -0.185
      -0.172
      -0.145
      -0.111
      -0.081
      -0.052
      -0.016
       0.029
       0.073
       0.104
       0.117
       0.112
       0.097
       0.080
       0.067
       0.056
       0.037
       0.007
      -0.031
      -0.063
      -0.078
      -0.069
      -0.042
      -0.009
       0.022
       0.057
       0.102
       0.161
       0.228
       0.290
       0.340
       0.381
       0.420
       0.463
       0.501
       0.523
       0.525
       0.509
       0.484
       0.455
       0.421
       0.379
       0.334
       0.296
       0.273
       0.266
       0.267
       0.268
       0.268
       0.270
       0.277
       0.286
       0.286
       0.274
       0.249
       0.216
       0.179
       0.138
       0.091
       0.037
      -0.027
      -0.103
      -0.191
      -0.289
      -0.395
      -0.507
      -0.624
      -0.744
      -0.856
      -0.951
      -1.025
      -1.080
      -1.119
      -1.146
      -1.159
      -1.156
      -1.142
      -1.123
      -1.100
      -1.070
      -1.030
      -0.981
      -0.930
      -0.884
      -0.839
      -0.785
      -0.715
      -0.631
      -0.540
      -0.455
      -0.384
      -0.330
      -0.283
      -0.232
      -0.180
      -0.137
      -0.110
      -0.099
      -0.092
      -0.083
      -0.071
      -0.061
      -0.051
      -0.034
      -0.001
       0.054
       0.132
       0.226
       0.327
       0.425
       0.515
       0.598
       0.686
       0.786
       0.900
       1.022
       1.143
       1.259
       1.372
       1.488
       1.606
       1.721
       1.820
       1.891
       1.930
       1.942
       1.935
       1.910
       1.864
       1.791
       1.694
       1.582
       1.468
       1.355
       1.242
       1.125
       1.007
       0.895
       0.795
       0.710
       0.638
       0.579
       0.532
       0.498
       0.472
       0.448
       0.424
       0.400
       0.377
       0.353
       0.325
       0.291
       0.246
       0.188
       0.112
       0.018
      -0.087
      -0.195
      -0.299
      -0.398
      -0.494
      -0.590
      -0.688
      -0.791
      -0.895
      -0.992
      -1.074
      -1.135
      -1.171
      -1.189
      -1.193
      -1.189
      -1.178
      -1.162
      -1.140
      -1.110
      -1.069
      -1.013
      -0.945
      -0.872
      -0.798
      -0.729
      -0.671
      -0.636
      -0.628
      -0.639
      -0.652
      -0.663
      -0.683
      -0.725
      -0.784
      -0.850
      -0.911
      -0.963
      -1.013
      -1.064
      -1.116
      -1.168
      -1.220
      -1.271
      -1.318
      -1.358
      -1.390
      -1.412
      -1.421
      -1.410
      -1.374
      -1.318
      -1.248
      -1.166
      -1.070
      -0.960
      -0.837
      -0.706
      -0.573
      -0.444
      -0.324
      -0.217
      -0.121
      -0.038
       0.030
       0.082
       0.120
       0.146
       0.159
       0.160
       0.150
       0.135
       0.125
       0.128
       0.149
       0.185
       0.233
       0.292
       0.360
       0.440
       0.533
       0.639
       0.751
       0.860
       0.954
       1.029
       1.086
       1.127
       1.157
       1.176
       1.182
       1.178
       1.170
       1.169
       1.181
       1.205
       1.235
       1.262
       1.285
       1.308
       1.333
       1.356
       1.370
       1.372
       1.359
       1.334
       1.301
       1.261
       1.211
       1.150
       1.079
       1.005
       0.940
       0.888
       0.838
       0.774
       0.693
       0.614
       0.554
       0.510
       0.465
       0.417
       0.374
       0.346
       0.332
       0.325
       0.317
       0.311
       0.309
       0.310
       0.307
       0.294
       0.266
       0.214
       0.131
       0.015
      -0.127
      -0.282
      -0.440
      -0.598
      -0.756
      -0.916
      -1.072
      -1.215
      -1.335
      -1.426
      -1.492
      -1.539
      -1.569
      -1.578
      -1.563
      -1.525
      -1.469
      -1.395
      -1.304
      -1.198
      -1.083
      -0.970
      -0.862
      -0.760
      -0.660
      -0.566
      -0.482
      -0.414
      -0.366
      -0.335
      -0.318
      -0.312
      -0.316
      -0.331
      -0.354
      -0.377
      -0.391
      -0.393
      -0.388
      -0.382
      -0.378
      -0.374
      -0.364
      -0.346
      -0.321
      -0.287
      -0.246
      -0.195
      -0.134
      -0.060
       0.025
       0.119
       0.215
       0.311
       0.403
       0.489
       0.566
       0.630
       0.678
       0.706
       0.709
       0.689
       0.646
       0.586
       0.514
       0.436
       0.356
       0.274
       0.194
       0.118
       0.052
      -0.002
      -0.041
      -0.068
      -0.082
      -0.075
      -0.034
       0.047
       0.155
       0.269
       0.370
       0.454
       0.521
       0.571
       0.595
       0.581
       0.525
       0.433
       0.314
       0.175
       0.017
      -0.159
      -0.340
      -0.511
      -0.652
      -0.754
      -0.813
      -0.830
      -0.805
      -0.740
      -0.638
      -0.503
      -0.343
      -0.167
       0.017
       0.199
       0.368
       0.520
       0.658
       0.788
       0.911
       1.023
       1.114
       1.179
       1.218
       1.235
       1.232
       1.212
       1.177
       1.131
       1.075
       1.010
       0.936
       0.853
       0.768
       0.685
       0.607
       0.535
       0.471
       0.417
       0.378
       0.359
       0.360
       0.380
       0.413
       0.457
       0.509
       0.569
       0.636
       0.705
       0.768
       0.811
       0.822
       0.795
       0.728
       0.623
       0.485
       0.314
       0.112
      -0.119
      -0.371
      -0.631
      -0.881
      -1.110
      -1.307
      -1.464
      -1.572
      -1.621
      -1.604
      -1.520
      -1.376
      -1.185
      -0.956
      -0.699
      -0.423
      -0.140
       0.129
       0.368
       0.563
       0.712
       0.810
       0.853
       0.834
       0.748
       0.599
       0.402
       0.175
      -0.066
      -0.311
      -0.553
      -0.781
      -0.974
      -1.110
      -1.175
      -1.166
      -1.085
      -0.935
      -0.715
      -0.428
      -0.090
       0.275
       0.645
       1.003
       1.339
       1.644
       1.897
       2.079
       2.179
       2.196
       2.137
       2.013
       1.833
       1.606
       1.348
       1.075
       0.802
       0.536
       0.280
       0.038
      -0.186
      -0.382
      -0.542
      -0.662
      -0.747
      -0.808
      -0.850
      -0.877
      -0.891
      -0.894
      -0.893
      -0.897
      -0.910
      -0.936
      -0.977
      -1.040
      -1.131
      -1.252
      -1.401
      -1.572
      -1.764
      -1.976
      -2.208
      -2.458
      -2.720
      -2.988
      -3.250
      -3.497
      -3.719
      -3.912
      -4.072
      -4.193
      -4.271
      -4.302
      -4.281
      -4.201
      -4.052
      -3.825
      -3.515
      -3.121
      -2.642
      -2.083
      -1.448
      -0.751
      -0.010
       0.756
       1.533
       2.309
       3.067
       3.789
       4.453
       5.040
       5.537
       5.940
       6.245
       6.456
       6.573
       6.597
       6.522
       6.335
       6.029
       5.612
       5.110
       4.555
       3.964
       3.340
       2.681
       1.992
       1.294
       0.608
      -0.047
      -0.659
      -1.221
      -1.725
      -2.165
      -2.532
      -2.823
      -3.046
      -3.213
      -3.336
      -3.422
      -3.472
      -3.490
      -3.481
      -3.449
      -3.397
      -3.329
      -3.251
      -3.168
      -3.081
      -2.981
      -2.858
      -2.705
      -2.526
      -2.334
      -2.136
      -1.933
      -1.721
      -1.499
      -1.269
      -1.035
      -0.803
      -0.576
      -0.352
      -0.128
       0.100
       0.333
       0.568
       0.806
       1.051
       1.308
       1.576
       1.847
       2.106
       2.341
       2.549
       2.729
       2.881
       3.001
       3.081
       3.121
       3.121
       3.090
       3.032
       2.951
       2.843
       2.706
       2.540
       2.348
       2.138
       1.916
       1.684
       1.445
       1.202
       0.959
       0.721
       0.489
       0.266
       0.053
      -0.142
      -0.316
      -0.466
      -0.591
      -0.689
      -0.760
      -0.802
      -0.815
      -0.802
      -0.767
      -0.719
      -0.667
      -0.617
      -0.569
      -0.521
      -0.470
      -0.422
      -0.383
      -0.362
      -0.364
      -0.395
      -0.455
      -0.544
      -0.661
      -0.812
      -1.003
      -1.232
      -1.495
      -1.780
      -2.076
      -2.365
      -2.630
      -2.852
      -3.018
      -3.122
      -3.157
      -3.117
      -3.001
      -2.817
      -2.577
      -2.292
      -1.970
      -1.617
      -1.241
      -0.857
      -0.486
      -0.150
       0.133
       0.350
       0.501
       0.590
       0.621
       0.596
       0.513
       0.372
       0.180
      -0.049
      -0.291
      -0.521
      -0.721
      -0.875
      -0.971
      -0.994
      -0.932
      -0.780
      -0.541
      -0.225
       0.157
       0.590
       1.053
       1.516
       1.950
       2.330
       2.637
       2.863
       3.007
       3.067
       3.047
       2.949
       2.781
       2.556
       2.288
       1.996
       1.691
       1.385
       1.089
       0.818
       0.582
       0.390
       0.243
       0.144
       0.093
       0.091
       0.135
       0.216
       0.322
       0.436
       0.542
       0.629
       0.687
       0.710
       0.691
       0.625
       0.513
       0.356
       0.158
      -0.074
      -0.333
      -0.612
      -0.900
      -1.181
      -1.441
      -1.666
      -1.849
      -1.983
      -2.061
      -2.077
      -2.024
      -1.902
      -1.714
      -1.472
      -1.190
      -0.880
      -0.550
      -0.202
       0.161
       0.534
       0.907
       1.268
       1.604
       1.909
       2.181
       2.420
       2.626
       2.792
       2.906
       2.957
       2.943
       2.871
       2.753
       2.597
       2.404
       2.173
       1.908
       1.618
       1.316
       1.007
       0.698
       0.389
       0.085
      -0.203
      -0.463
      -0.685
      -0.868
      -1.016
      -1.135
      -1.224
      -1.281
      -1.303
      -1.296
      -1.268
      -1.226
      -1.165
      -1.079
      -0.968
      -0.842
      -0.714
      -0.595
      -0.491
      -0.404
      -0.337
      -0.295
      -0.285
      -0.314
      -0.383
      -0.490
      -0.625
      -0.775
      -0.926
      -1.065
      -1.182
      -1.273
      -1.334
      -1.362
      -1.349
      -1.284
      -1.161
      -0.981
      -0.754
      -0.496
      -0.222
       0.056
       0.328
       0.581
       0.802
       0.976
       1.095
       1.161
       1.179
       1.152
       1.082
       0.973
       0.836
       0.693
       0.564
       0.468
       0.409
       0.384
       0.385
       0.407
       0.448
       0.509
       0.587
       0.669
       0.742
       0.791
       0.812
       0.806
       0.774
       0.716
       0.629
       0.512
       0.371
       0.214
       0.051
      -0.115
      -0.283
      -0.454
      -0.624
      -0.781
      -0.917
      -1.032
      -1.132
      -1.225
      -1.312
      -1.394
      -1.469
      -1.545
      -1.628
      -1.724
      -1.831
      -1.942
      -2.045
      -2.134
      -2.201
      -2.248
      -2.273
      -2.273
      -2.242
      -2.169
      -2.051
      -1.885
      -1.678
      -1.437
      -1.172
      -0.891
      -0.604
      -0.317
      -0.039
       0.222
       0.459
       0.667
       0.840
       0.972
       1.056
       1.090
       1.074
       1.016
       0.926
       0.814
       0.682
       0.535
       0.378
       0.220
       0.067
      -0.077
      -0.209
      -0.324
      -0.419
      -0.497
      -0.562
      -0.624
      -0.686
      -0.749
      -0.811
      -0.868
      -0.914
      -0.947
      -0.963
      -0.958
      -0.931
      -0.881
      -0.812
      -0.726
      -0.625
      -0.506
      -0.369
      -0.214
      -0.045
       0.135
       0.326
       0.529
       0.747
       0.977
       1.217
       1.457
       1.690
       1.909
       2.113
       2.302
       2.473
       2.619
       2.731
       2.807
       2.851
       2.868
       2.859
       2.821
       2.748
       2.642
       2.508
       2.353
       2.184
       2.005
       1.817
       1.625
       1.433
       1.246
       1.068
       0.899
