Origin Time       2/8/2013 02:32:05	 
Lat.              33.5 N	
Long.             75.5 E	
Depth (Km)         28.0
Magnitude         5.4
 Region           JK-HP-Border                                                     
 Above details taken from IMD 
     
Station Code      HAM
Station Lat.       31.691  N
Station Long.      76.520  E
Station Height(m)    1.0
Site Class        B   Vs30 between 375 m/sec to 700 m/sec *  
Record Time       02.08.2013 02:32:49.044
Sampling Rate     200. Hz
 Record Duration   82.110 Sec.
 Direction         E-W (E positive)
Max. Acceleration     -4.920 cm/sec**2
     
  * For reference see Site Classification link of website 
     
 Base Line Corrected and Low Pass Filtered (Cut Off at 35 Hz) Time History
 Acceleration data in cm/sec**2
    
[...]
      -0.014
       0.002
       0.025
       0.044
       0.050
       0.043
       0.033
       0.030
       0.040
       0.057
       0.072
       0.078
       0.074
       0.064
       0.054
       0.044
       0.035
       0.027
       0.023
       0.025
       0.034
       0.042
       0.041
       0.027
       0.003
      -0.022
      -0.040
      -0.053
      -0.065
      -0.078
      -0.093
      -0.109
      -0.121
      -0.129
      -0.133
      -0.136
      -0.132
      -0.117
      -0.088
      -0.055
      -0.026
      -0.009
       0.001
       0.012
       0.028
       0.047
       0.063
       0.071
       0.069
       0.060
       0.049
       0.040
       0.032
       0.026
       0.020
       0.016
       0.018
       0.026
       0.037
       0.047
       0.056
       0.067
       0.083
       0.103
       0.125
       0.144
       0.159
       0.170
       0.175
       0.168
       0.150
       0.126
       0.101
       0.077
       0.052
       0.021
      -0.019
      -0.065
      -0.112
      -0.155
      -0.191
      -0.217
      -0.231
      -0.229
      -0.213
      -0.186
      -0.150
      -0.113
      -0.078
      -0.048
      -0.023
      -0.002
       0.018
       0.039
       0.060
       0.076
       0.084
       0.084
       0.080
       0.076
       0.075
       0.074
       0.072
       0.066
       0.059
       0.051
       0.039
       0.019
      -0.010
      -0.041
      -0.064
      -0.071
      -0.065
      -0.053
      -0.044
      -0.039
      -0.035
      -0.028
      -0.018
      -0.009
      -0.003
      -0.003
      -0.009
      -0.023
      -0.044
      -0.073
      -0.104
      -0.130
      -0.141
      -0.138
      -0.130
      -0.125
      -0.124
      -0.116
      -0.092
      -0.060
      -0.044
      -0.060
      -0.091
      -0.099
      -0.057
       0.018
       0.082
       0.103
       0.092
       0.083
       0.100
       0.134
       0.160
       0.157
       0.132
       0.105
       0.096
       0.105
       0.120
       0.123
       0.114
       0.106
       0.112
       0.128
       0.140
       0.139
       0.131
       0.122
       0.114
       0.100
       0.077
       0.050
       0.025
       0.005
      -0.014
      -0.035
      -0.056
      -0.072
      -0.080
      -0.078
      -0.070
      -0.059
      -0.050
      -0.045
      -0.048
      -0.054
      -0.059
      -0.056
      -0.041
      -0.018
       0.010
       0.036
       0.060
       0.078
       0.089
       0.088
       0.078
       0.062
       0.047
       0.037
       0.030
       0.021
       0.006
      -0.013
      -0.031
      -0.044
      -0.053
      -0.062
      -0.073
      -0.081
      -0.082
      -0.070
      -0.049
      -0.028
      -0.013
      -0.004
       0.004
       0.017
       0.034
       0.051
       0.061
       0.060
       0.054
       0.048
       0.046
       0.044
       0.037
       0.023
       0.003
      -0.016
      -0.030
      -0.040
      -0.046
      -0.054
      -0.060
      -0.058
      -0.042
      -0.015
       0.004
      -0.002
      -0.029
      -0.061
      -0.080
      -0.088
      -0.092
      -0.091
      -0.081
      -0.060
      -0.041
      -0.030
      -0.024
      -0.015
       0.003
       0.026
       0.042
       0.042
       0.029
       0.009
      -0.006
      -0.008
       0.002
       0.019
       0.034
       0.043
       0.046
       0.046
       0.046
       0.049
       0.055
       0.062
       0.066
       0.068
       0.071
       0.073
       0.075
       0.075
       0.072
       0.064
       0.055
       0.045
       0.037
       0.029
       0.021
       0.008
      -0.008
      -0.028
      -0.052
      -0.082
      -0.112
      -0.135
      -0.146
      -0.141
      -0.123
      -0.097
      -0.070
      -0.040
      -0.009
       0.023
       0.051
       0.071
       0.083
       0.089
       0.094
       0.097
       0.099
       0.098
       0.097
       0.096
       0.091
       0.080
       0.060
       0.037
       0.016
       0.001
      -0.004
       0.002
       0.022
       0.054
       0.089
       0.120
       0.141
       0.153
       0.157
       0.154
       0.139
       0.113
       0.079
       0.050
       0.031
       0.017
      -0.006
      -0.045
      -0.085
      -0.108
      -0.110
      -0.105
      -0.106
      -0.115
      -0.121
      -0.116
      -0.102
      -0.084
      -0.070
      -0.062
      -0.060
      -0.060
      -0.061
      -0.065
      -0.069
      -0.071
      -0.068
      -0.058
      -0.043
      -0.028
      -0.015
      -0.007
      -0.004
      -0.002
       0.004
       0.016
       0.027
       0.034
       0.037
       0.038
       0.042
       0.046
       0.050
       0.052
       0.054
       0.055
       0.056
       0.055
       0.050
       0.040
       0.027
       0.012
      -0.002
      -0.011
      -0.015
      -0.018
      -0.026
      -0.035
      -0.043
      -0.045
      -0.043
      -0.037
      -0.028
      -0.011
       0.012
       0.041
       0.069
       0.093
       0.111
       0.123
       0.125
       0.116
       0.097
       0.073
       0.048
       0.028
       0.014
       0.003
      -0.009
      -0.027
      -0.049
      -0.074
      -0.096
      -0.110
      -0.118
      -0.120
      -0.119
      -0.115
      -0.105
      -0.090
      -0.071
      -0.053
      -0.038
      -0.023
      -0.006
       0.010
       0.023
       0.027
       0.023
       0.011
      -0.003
      -0.009
      -0.005
       0.006
       0.013
       0.007
      -0.012
      -0.036
      -0.054
      -0.053
      -0.032
      -0.006
       0.007
       0.000
      -0.016
      -0.022
      -0.010
       0.017
       0.048
       0.072
       0.086
       0.090
       0.091
       0.091
       0.091
       0.091
       0.092
       0.090
       0.076
       0.051
       0.024
       0.006
       0.005
       0.017
       0.032
       0.045
       0.055
       0.064
       0.077
       0.091
       0.098
       0.094
       0.079
       0.060
       0.043
       0.028
       0.015
       0.004
      -0.005
      -0.014
      -0.021
      -0.028
      -0.034
      -0.036
      -0.034
      -0.030
      -0.029
      -0.030
      -0.028
      -0.015
       0.009
       0.041
       0.076
       0.112
       0.150
       0.189
       0.227
       0.261
       0.289
       0.309
       0.322
       0.327
       0.323
       0.309
       0.287
       0.261
       0.234
       0.207
       0.180
       0.154
       0.131
       0.110
       0.089
       0.061
       0.023
      -0.024
      -0.072
      -0.112
      -0.139
      -0.152
      -0.155
      -0.150
      -0.141
      -0.128
      -0.109
      -0.084
      -0.054
      -0.022
       0.005
       0.019
       0.019
       0.006
      -0.011
      -0.028
      -0.040
      -0.049
      -0.052
      -0.041
      -0.015
       0.019
       0.043
       0.050
       0.046
       0.047
       0.059
       0.074
       0.082
       0.079
       0.073
       0.071
       0.072
       0.065
       0.048
       0.029
       0.024
       0.034
       0.047
       0.046
       0.028
       0.001
      -0.021
      -0.034
      -0.045
      -0.065
      -0.102
      -0.148
      -0.196
      -0.239
      -0.277
      -0.313
      -0.348
      -0.384
      -0.418
      -0.449
      -0.475
      -0.498
      -0.517
      -0.531
      -0.538
      -0.539
      -0.534
      -0.520
      -0.496
      -0.465
      -0.430
      -0.399
      -0.373
      -0.350
      -0.321
      -0.280
      -0.224
      -0.155
      -0.080
      -0.007
       0.061
       0.119
       0.167
       0.204
       0.228
       0.237
       0.234
       0.223
       0.210
       0.199
       0.192
       0.187
       0.179
       0.165
       0.142
       0.115
       0.091
       0.074
       0.069
       0.072
       0.083
       0.100
       0.125
       0.156
       0.189
       0.219
       0.245
       0.266
       0.277
       0.272
       0.251
       0.228
       0.220
       0.233
       0.257
       0.273
       0.276
       0.277
       0.290
       0.313
       0.334
       0.340
       0.328
       0.306
       0.280
       0.247
       0.202
       0.139
       0.055
      -0.053
      -0.185
      -0.336
      -0.494
      -0.650
      -0.801
      -0.949
      -1.094
      -1.231
      -1.347
      -1.438
      -1.505
      -1.558
      -1.599
      -1.622
      -1.612
      -1.562
      -1.470
      -1.346
      -1.200
      -1.035
      -0.851
      -0.651
      -0.445
      -0.243
      -0.055
       0.121
       0.291
       0.455
       0.608
       0.747
       0.870
       0.981
       1.084
       1.177
       1.257
       1.317
       1.358
       1.383
       1.397
       1.404
       1.404
       1.394
       1.369
       1.326
       1.265
       1.189
       1.096
       0.986
       0.865
       0.743
       0.627
       0.525
       0.439
       0.369
       0.318
       0.286
       0.274
       0.276
       0.283
       0.290
       0.294
       0.299
       0.308
       0.323
       0.342
       0.360
       0.376
       0.392
       0.407
       0.420
       0.424
       0.406
       0.356
       0.283
       0.209
       0.158
       0.131
       0.112
       0.087
       0.063
       0.052
       0.058
       0.071
       0.081
       0.089
       0.106
       0.139
       0.183
       0.223
       0.247
       0.254
       0.247
       0.232
       0.212
       0.186
       0.156
       0.121
       0.079
       0.025
      -0.042
      -0.120
      -0.199
      -0.277
      -0.355
      -0.435
      -0.518
      -0.600
      -0.673
      -0.732
      -0.774
      -0.801
      -0.814
      -0.815
      -0.808
      -0.796
      -0.786
      -0.783
      -0.787
      -0.795
      -0.802
      -0.804
      -0.795
      -0.769
      -0.724
      -0.666
      -0.606
      -0.552
      -0.504
      -0.457
      -0.408
      -0.360
      -0.315
      -0.271
      -0.223
      -0.168
      -0.114
      -0.068
      -0.035
      -0.014
       0.000
       0.009
       0.013
       0.009
      -0.006
      -0.036
      -0.079
      -0.132
      -0.187
      -0.238
      -0.287
      -0.338
      -0.393
      -0.452
      -0.508
      -0.557
      -0.600
      -0.636
      -0.662
      -0.671
      -0.656
      -0.619
      -0.566
      -0.508
      -0.449
      -0.387
      -0.316
      -0.228
      -0.122
      -0.002
       0.120
       0.232
       0.328
       0.412
       0.491
       0.570
       0.645
       0.710
       0.766
       0.817
       0.871
       0.930
       0.988
       1.044
       1.099
       1.156
       1.215
       1.267
       1.302
       1.321
       1.330
       1.334
       1.333
       1.317
       1.278
       1.218
       1.145
       1.068
       0.991
       0.909
       0.821
       0.726
       0.633
       0.550
       0.482
       0.429
       0.385
       0.346
       0.311
       0.279
       0.251
       0.225
       0.200
       0.175
       0.152
       0.135
       0.122
       0.105
       0.073
       0.019
      -0.058
      -0.153
      -0.263
      -0.388
      -0.527
      -0.675
      -0.821
      -0.953
      -1.060
      -1.139
      -1.186
      -1.204
      -1.195
      -1.167
      -1.123
      -1.069
      -1.006
      -0.936
      -0.862
      -0.790
      -0.727
      -0.681
      -0.652
      -0.637
      -0.629
      -0.626
      -0.628
      -0.638
      -0.657
      -0.683
      -0.708
      -0.726
      -0.729
      -0.716
      -0.692
      -0.663
      -0.627
      -0.578
      -0.511
      -0.431
      -0.353
      -0.290
      -0.248
      -0.222
      -0.205
      -0.198
      -0.207
      -0.237
      -0.285
      -0.335
      -0.374
      -0.397
      -0.405
      -0.400
      -0.378
      -0.330
      -0.248
      -0.137
      -0.009
       0.123
       0.254
       0.386
       0.522
       0.659
       0.784
       0.886
       0.956
       1.000
       1.023
       1.028
       1.010
       0.968
       0.906
       0.837
       0.771
       0.714
       0.661
       0.605
       0.540
       0.469
       0.395
       0.320
       0.245
       0.161
       0.063
      -0.058
      -0.209
      -0.395
      -0.624
      -0.897
      -1.207
      -1.544
      -1.899
      -2.264
      -2.635
      -3.003
      -3.362
      -3.700
      -4.007
      -4.272
      -4.488
      -4.656
      -4.779
      -4.862
      -4.911
      -4.920
      -4.882
      -4.791
      -4.645
      -4.452
      -4.221
      -3.959
      -3.670
      -3.355
      -3.013
      -2.646
      -2.255
      -1.846
      -1.425
      -1.001
      -0.580
      -0.167
       0.237
       0.628
       1.000
       1.344
       1.655
       1.930
       2.174
       2.393
       2.591
       2.772
       2.934
       3.079
       3.207
       3.322
       3.429
       3.539
       3.662
       3.796
       3.933
       4.057
       4.164
       4.255
       4.339
       4.415
       4.475
       4.505
       4.498
       4.458
       4.390
       4.298
       4.176
       4.017
       3.826
       3.613
       3.392
       3.167
       2.938
       2.701
       2.455
       2.210
       1.977
       1.767
       1.585
       1.435
       1.312
       1.212
       1.123
       1.038
       0.952
       0.864
       0.776
       0.682
       0.573
       0.442
       0.295
       0.146
       0.010
      -0.103
      -0.196
      -0.271
      -0.328
      -0.363
      -0.370
      -0.347
      -0.293
      -0.212
      -0.108
       0.014
       0.146
       0.278
       0.398
       0.494
       0.556
       0.576
       0.542
       0.446
       0.282
       0.050
      -0.246
      -0.594
      -0.979
      -1.383
      -1.789
      -2.180
      -2.544
      -2.863
      -3.118
      -3.288
      -3.358
      -3.318
      -3.168
      -2.909
      -2.546
      -2.090
      -1.558
      -0.976
      -0.372
       0.224
       0.788
       1.298
       1.738
       2.091
       2.345
       2.490
       2.525
       2.454
       2.290
       2.049
       1.747
       1.404
       1.045
       0.699
       0.393
       0.145
      -0.038
      -0.158
      -0.217
      -0.214
      -0.142
       0.006
       0.224
       0.493
       0.788
       1.082
       1.357
       1.600
       1.801
       1.942
       2.000
       1.951
       1.784
       1.507
       1.139
       0.702
       0.215
      -0.312
      -0.860
      -1.404
      -1.914
      -2.365
      -2.745
      -3.052
      -3.285
      -3.436
      -3.497
      -3.461
      -3.335
      -3.135
      -2.878
      -2.578
      -2.244
      -1.890
      -1.533
      -1.197
      -0.903
      -0.666
      -0.494
      -0.389
      -0.351
      -0.376
      -0.458
      -0.583
      -0.737
      -0.901
      -1.060
      -1.197
      -1.299
      -1.356
      -1.361
      -1.314
      -1.217
      -1.071
      -0.885
      -0.668
      -0.436
      -0.208
       0.002
       0.182
       0.326
       0.431
       0.494
       0.520
       0.515
       0.485
       0.439
       0.386
       0.333
       0.286
       0.249
       0.224
       0.214
       0.224
       0.261
       0.329
       0.431
       0.563
       0.717
       0.885
       1.058
       1.227
       1.385
       1.523
       1.637
       1.725
       1.790
       1.834
       1.852
       1.837
       1.784
       1.699
       1.593
       1.479
       1.366
       1.256
       1.147
       1.036
       0.925
       0.821
       0.735
       0.674
       0.642
       0.633
       0.635
       0.631
       0.611
       0.569
       0.501
       0.403
       0.271
       0.103
      -0.095
      -0.321
      -0.569
      -0.836
      -1.116
      -1.403
      -1.687
      -1.958
      -2.206
      -2.422
      -2.604
      -2.755
      -2.878
      -2.974
      -3.035
      -3.053
      -3.023
      -2.950
      -2.843
      -2.711
      -2.561
      -2.391
      -2.202
      -1.997
      -1.779
      -1.550
      -1.312
      -1.067
      -0.822
      -0.591
      -0.386
      -0.215
      -0.073
       0.047
       0.153
       0.244
       0.317
       0.368
       0.402
       0.428
       0.449
       0.464
       0.464
       0.445
       0.412
       0.376
       0.345
       0.320
       0.294
       0.257
       0.212
       0.166
       0.128
       0.102
       0.086
       0.080
       0.086
       0.105
       0.133
       0.166
       0.199
       0.234
       0.278
       0.334
       0.397
       0.461
       0.515
       0.553
       0.575
       0.587
       0.593
       0.595
       0.589
       0.572
       0.547
       0.522
       0.501
       0.485
       0.471
       0.456
       0.443
       0.436
       0.443
       0.464
       0.493
       0.518
       0.526
       0.513
       0.478
       0.428
       0.373
       0.324
       0.286
       0.257
       0.237
       0.230
       0.246
       0.290
       0.361
       0.452
       0.556
       0.675
       0.809
       0.953
       1.094
       1.215
       1.311
       1.380
       1.421
       1.433
       1.412
       1.352
       1.252
       1.113
       0.934
       0.714
       0.455
       0.165
      -0.142
      -0.447
      -0.736
      -0.999
      -1.226
      -1.413
      -1.554
      -1.646
      -1.691
      -1.687
      -1.636
      -1.535
      -1.384
      -1.186
      -0.950
      -0.692
      -0.419
      -0.136
       0.160
       0.465
       0.769
       1.055
       1.308
       1.524
       1.704
       1.852
       1.970
       2.057
       2.112
       2.134
       2.119
       2.063
       1.963
       1.825
       1.655
       1.462
       1.251
       1.025
       0.788
       0.542
       0.292
       0.040
      -0.208
      -0.445
      -0.660
      -0.843
      -0.988
