Origin Time       4/2/2011 13:53:39	 
Lat.              24.8 N	
Long.             94.6 E	
Depth (Km)         30.0
Magnitude         6.4
 Region           Myanmar-India-Border                                             
 Above details taken from IMD 
   
Station Code      JHR
Station Lat.       26.759
Station Long.      94.206
Station Height(m)   82.0
Site Class        C   Vs30 between 200 m/sec to 375 m/sec *  
Record Time       04.02.2011 13:55:09.694
Sampling Rate     200. Hz
 Record Duration   95.100 Sec.
 Direction         Vert. (Up positive)
Max. Acceleration      3.932 cm/sec**2
     
  * For reference see Site Classification link of website 
     
 Base Line Corrected and Low Pass Filtered (Cut Off at 35 Hz) Time History
 Acceleration data in cm/sec**2
    
[...]
       1.153
       1.044
       0.736
       0.354
       0.006
      -0.275
      -0.511
      -0.725
      -0.901
      -1.014
      -1.073
      -1.143
      -1.308
      -1.587
      -1.886
      -2.049
      -1.989
      -1.794
      -1.672
      -1.778
      -2.097
      -2.474
      -2.720
      -2.681
      -2.270
      -1.508
      -0.559
       0.316
       0.892
       1.124
       1.169
       1.281
       1.635
       2.189
       2.689
       2.841
       2.533
       1.936
       1.379
       1.119
       1.192
       1.430
       1.620
       1.639
       1.468
       1.134
       0.681
       0.189
      -0.229
      -0.501
      -0.640
      -0.710
      -0.772
      -0.853
      -0.943
      -0.988
      -0.934
      -0.785
      -0.629
      -0.578
      -0.698
      -0.991
      -1.409
      -1.836
      -2.069
      -1.871
      -1.120
       0.051
       1.274
       2.124
       2.363
       2.065
       1.526
       1.065
       0.866
       0.951
       1.250
       1.662
       2.084
       2.416
       2.555
       2.400
       1.898
       1.113
       0.230
      -0.535
      -1.059
      -1.331
      -1.372
      -1.155
      -0.619
       0.236
       1.253
       2.136
       2.601
       2.552
       2.111
       1.492
       0.861
       0.284
      -0.251
      -0.787
      -1.375
      -2.027
      -2.693
      -3.268
      -3.628
      -3.667
      -3.327
      -2.633
      -1.695
      -0.685
       0.217
       0.868
       1.211
       1.296
       1.241
       1.155
       1.060
       0.910
       0.671
       0.392
       0.185
       0.143
       0.274
       0.497
       0.703
       0.811
       0.804
       0.712
       0.579
       0.414
       0.184
      -0.145
      -0.556
      -0.979
      -1.331
      -1.549
      -1.592
      -1.442
      -1.105
      -0.607
       0.006
       0.654
       1.197
       1.485
       1.434
       1.100
       0.650
       0.256
      -0.012
      -0.185
      -0.317
      -0.421
      -0.482
      -0.502
      -0.507
      -0.513
      -0.517
      -0.524
      -0.570
      -0.704
      -0.939
      -1.215
      -1.424
      -1.487
      -1.430
      -1.351
      -1.303
      -1.229
      -1.016
      -0.598
       0.004
       0.712
       1.423
       2.019
       2.392
       2.481
       2.298
       1.913
       1.435
       0.987
       0.672
       0.507
       0.392
       0.175
      -0.217
      -0.691
      -1.061
      -1.197
      -1.121
      -0.963
      -0.848
      -0.824
      -0.865
      -0.927
      -0.984
      -1.043
      -1.152
      -1.370
      -1.699
      -2.040
      -2.225
      -2.113
      -1.658
      -0.901
       0.053
       1.042
       1.887
       2.476
       2.815
       2.989
       3.052
       2.983
       2.745
       2.362
       1.918
       1.458
       0.934
       0.252
      -0.595
      -1.459
      -2.082
      -2.261
      -1.979
      -1.394
      -0.717
      -0.099
       0.406
       0.819
       1.179
       1.481
       1.666
       1.678
       1.547
       1.393
       1.327
       1.337
       1.304
       1.107
       0.735
       0.275
      -0.183
      -0.615
      -1.048
      -1.474
      -1.825
      -2.020
      -2.038
      -1.930
      -1.782
      -1.661
      -1.593
      -1.558
      -1.517
      -1.447
      -1.347
      -1.217
      -1.024
      -0.740
      -0.401
      -0.126
      -0.031
      -0.123
      -0.266
      -0.267
      -0.028
       0.365
       0.697
       0.777
       0.591
       0.315
       0.194
       0.360
       0.716
       0.992
       0.957
       0.615
       0.205
       0.010
       0.147
       0.534
       1.005
       1.456
       1.857
       2.172
       2.302
       2.124
       1.616
       0.924
       0.303
      -0.036
      -0.051
       0.110
       0.206
       0.053
      -0.357
      -0.848
      -1.161
      -1.088
      -0.591
       0.165
       0.881
       1.275
       1.217
       0.770
       0.102
      -0.602
      -1.209
      -1.653
      -1.922
      -2.021
      -1.929
      -1.600
      -1.026
      -0.299
       0.386
       0.854
       1.071
       1.166
       1.301
       1.518
       1.705
       1.713
       1.493
       1.143
       0.827
       0.641
       0.543
       0.398
       0.103
      -0.319
      -0.738
      -1.021
      -1.142
      -1.202
      -1.330
      -1.551
      -1.754
      -1.776
      -1.539
      -1.105
      -0.615
      -0.181
       0.178
       0.492
       0.772
       0.991
       1.133
       1.223
       1.285
       1.314
       1.296
       1.266
       1.313
       1.505
       1.816
       2.100
       2.141
       1.783
       1.054
       0.174
      -0.586
      -1.073
      -1.307
      -1.403
      -1.453
      -1.471
      -1.439
      -1.377
      -1.364
      -1.473
      -1.715
      -2.026
      -2.317
      -2.505
      -2.529
      -2.343
      -1.897
      -1.129
      -0.022
       1.305
       2.555
       3.349
       3.428
       2.796
       1.721
       0.595
      -0.229
      -0.546
      -0.357
       0.134
       0.598
       0.746
       0.501
       0.033
      -0.359
      -0.449
      -0.205
       0.219
       0.606
       0.797
       0.773
       0.654
       0.603
       0.707
       0.904
       1.037
       0.987
       0.779
       0.568
       0.508
       0.621
       0.775
       0.778
       0.519
       0.040
      -0.499
      -0.920
      -1.129
      -1.142
      -1.040
      -0.896
      -0.735
      -0.565
      -0.427
      -0.411
      -0.574
      -0.853
      -1.079
      -1.098
      -0.885
      -0.553
      -0.273
      -0.168
      -0.245
      -0.376
      -0.380
      -0.159
       0.195
       0.455
       0.419
       0.071
      -0.410
      -0.756
      -0.769
      -0.422
       0.148
       0.717
       1.068
       1.079
       0.783
       0.357
       0.020
      -0.108
      -0.070
       0.002
       0.025
       0.026
       0.083
       0.218
       0.376
       0.490
       0.569
       0.679
       0.853
       1.002
       0.967
       0.647
       0.105
      -0.472
      -0.901
      -1.113
      -1.167
      -1.173
      -1.218
      -1.314
      -1.410
      -1.453
      -1.444
      -1.428
      -1.422
      -1.375
      -1.236
      -1.052
      -0.964
      -1.088
      -1.392
      -1.701
      -1.814
      -1.624
      -1.163
      -0.547
       0.091
       0.653
       1.069
       1.284
       1.260
       1.022
       0.690
       0.454
       0.450
       0.635
       0.795
       0.707
       0.348
      -0.074
      -0.283
      -0.152
       0.225
       0.619
       0.818
       0.729
       0.385
      -0.132
      -0.757
      -1.426
      -2.026
      -2.386
      -2.364
      -1.942
      -1.262
      -0.564
      -0.083
       0.058
      -0.106
      -0.416
      -0.677
      -0.742
      -0.555
      -0.160
       0.330
       0.799
       1.184
       1.483
       1.705
       1.831
       1.801
       1.548
       1.061
       0.439
      -0.130
      -0.471
      -0.553
      -0.485
      -0.397
      -0.314
      -0.155
       0.147
       0.573
       1.032
       1.456
       1.832
       2.159
       2.393
       2.437
       2.195
       1.646
       0.862
      -0.012
      -0.788
      -1.282
      -1.392
      -1.164
      -0.788
      -0.502
      -0.467
      -0.691
      -1.029
      -1.272
      -1.281
      -1.081
      -0.836
      -0.707
      -0.723
      -0.783
      -0.765
      -0.604
      -0.304
       0.101
       0.547
       0.928
       1.115
       1.019
       0.655
       0.166
      -0.243
      -0.427
      -0.372
      -0.157
       0.150
       0.561
       1.121
       1.791
       2.407
       2.766
       2.785
       2.581
       2.376
       2.297
       2.250
       2.006
       1.417
       0.577
      -0.226
      -0.720
      -0.846
      -0.794
      -0.839
      -1.133
      -1.575
      -1.867
      -1.718
      -1.064
      -0.133
       0.696
       1.132
       1.107
       0.738
       0.197
      -0.370
      -0.859
      -1.172
      -1.224
      -0.987
      -0.532
      -0.022
       0.349
       0.461
       0.332
       0.102
      -0.043
       0.025
       0.311
       0.685
       0.948
       0.939
       0.644
       0.219
      -0.092
      -0.107
       0.177
       0.586
       0.893
       0.980
       0.907
       0.830
       0.850
       0.917
       0.876
       0.606
       0.122
      -0.424
      -0.854
      -1.075
      -1.127
      -1.116
      -1.115
      -1.097
      -0.971
      -0.688
      -0.319
      -0.035
       0.025
      -0.127
      -0.331
      -0.393
      -0.216
       0.143
       0.515
       0.707
       0.636
       0.384
       0.115
      -0.095
      -0.336
      -0.749
      -1.344
      -1.927
      -2.231
      -2.116
      -1.664
      -1.098
      -0.613
      -0.278
      -0.077
       0.005
      -0.046
      -0.220
      -0.446
      -0.602
      -0.568
      -0.282
       0.222
       0.824
       1.366
       1.719
       1.823
       1.690
       1.362
       0.915
       0.483
       0.241
       0.311
       0.665
       1.141
       1.550
       1.752
       1.658
       1.212
       0.419
      -0.579
      -1.484
      -1.979
      -1.935
      -1.511
      -1.029
      -0.727
      -0.630
      -0.602
      -0.515
      -0.357
      -0.209
      -0.136
      -0.134
      -0.157
      -0.182
      -0.225
      -0.310
      -0.442
      -0.607
      -0.791
      -0.986
      -1.184
      -1.346
      -1.376
      -1.148
      -0.596
       0.189
       0.975
       1.512
       1.674
       1.515
       1.216
       0.965
       0.845
       0.836
       0.905
       1.083
       1.415
       1.839
       2.141
       2.054
       1.442
       0.423
      -0.664
      -1.449
      -1.753
      -1.665
      -1.406
      -1.137
      -0.891
      -0.646
      -0.390
      -0.137
       0.087
       0.254
       0.361
       0.456
       0.606
       0.839
       1.072
       1.140
       0.920
       0.483
       0.107
       0.081
       0.462
       1.016
       1.406
       1.431
       1.128
       0.682
       0.262
      -0.083
      -0.417
      -0.825
      -1.322
      -1.812
      -2.116
      -2.060
      -1.590
      -0.845
      -0.106
       0.380
       0.560
       0.567
       0.552
       0.546
       0.472
       0.284
       0.073
       0.037
       0.331
       0.926
       1.609
       2.120
       2.322
       2.272
       2.138
       2.051
       2.014
       1.911
       1.588
       0.960
       0.090
      -0.821
      -1.557
      -2.021
      -2.298
      -2.566
      -2.938
      -3.354
      -3.626
      -3.598
      -3.262
      -2.735
      -2.166
      -1.669
      -1.314
      -1.112
      -0.997
      -0.848
      -0.546
      -0.025
       0.710
       1.583
       2.439
       3.086
       3.366
       3.225
       2.758
       2.178
       1.705
       1.436
       1.302
       1.168
       0.975
       0.760
       0.592
       0.488
       0.408
       0.280
       0.044
      -0.318
      -0.771
      -1.242
      -1.654
      -1.929
      -1.984
      -1.747
      -1.200
      -0.440
       0.320
       0.825
       0.913
       0.639
       0.280
       0.169
       0.477
       1.092
       1.693
       1.957
       1.758
       1.227
       0.654
       0.289
       0.188
       0.210
       0.139
      -0.159
      -0.671
      -1.287
      -1.884
      -2.377
      -2.693
      -2.750
      -2.508
      -2.042
      -1.533
      -1.161
      -1.007
      -1.022
      -1.070
      -1.003
      -0.732
      -0.272
       0.252
       0.668
       0.861
       0.863
       0.830
       0.917
       1.142
       1.356
       1.359
       1.064
       0.577
       0.131
      -0.082
      -0.041
       0.110
       0.197
       0.152
       0.042
      -0.028
      -0.031
      -0.034
      -0.106
      -0.217
      -0.257
      -0.141
       0.090
       0.298
       0.346
       0.191
      -0.109
      -0.438
      -0.672
      -0.717
      -0.543
      -0.206
       0.188
       0.528
       0.734
       0.745
       0.517
       0.035
      -0.667
      -1.490
      -2.286
      -2.883
      -3.140
      -3.006
      -2.551
      -1.919
      -1.238
      -0.594
      -0.069
       0.228
       0.231
       0.008
      -0.238
      -0.275
       0.044
       0.742
       1.716
       2.755
       3.576
       3.932
       3.732
       3.083
       2.227
       1.416
       0.799
       0.391
       0.097
      -0.208
      -0.593
      -1.009
      -1.305
      -1.332
      -1.046
      -0.555
      -0.059
       0.275
       0.398
       0.370
       0.274
       0.133
      -0.100
      -0.466
      -0.929
      -1.365
      -1.613
      -1.570
      -1.254
      -0.784
      -0.304
       0.078
       0.314
       0.402
       0.360
       0.194
      -0.098
      -0.478
      -0.823
      -0.989
      -0.937
      -0.828
      -0.930
      -1.402
      -2.111
      -2.669
      -2.691
      -2.070
      -1.048
      -0.035
       0.662
       0.979
       1.035
       0.968
       0.836
       0.639
       0.419
       0.318
       0.505
       1.030
       1.731
       2.308
       2.505
       2.256
       1.688
       1.020
       0.427
      -0.019
      -0.314
      -0.457
      -0.404
      -0.108
       0.407
       1.005
       1.475
       1.628
       1.381
       0.785
       0.003
      -0.747
      -1.277
      -1.518
      -1.548
      -1.523
      -1.544
      -1.595
      -1.582
      -1.441
      -1.188
      -0.882
      -0.534
      -0.074
       0.569
       1.343
       2.035
       2.381
       2.255
       1.777
       1.229
       0.871
       0.792
       0.924
       1.147
       1.371
       1.557
       1.696
       1.778
       1.765
       1.584
       1.171
       0.550
      -0.136
      -0.695
      -1.005
      -1.078
      -1.020
      -0.939
      -0.871
      -0.786
      -0.650
      -0.483
      -0.347
      -0.291
      -0.304
      -0.324
      -0.275
      -0.106
       0.153
       0.368
       0.371
       0.080
      -0.434
      -1.007
      -1.472
      -1.711
      -1.667
      -1.340
      -0.792
      -0.137
       0.477
       0.903
       1.035
       0.855
       0.452
      -0.023
      -0.434
      -0.703
      -0.803
      -0.755
      -0.641
      -0.592
      -0.699
      -0.905
      -1.011
      -0.834
      -0.388
       0.114
       0.437
       0.522
       0.514
       0.638
       1.042
       1.698
       2.416
       2.931
       3.041
       2.712
       2.063
       1.257
       0.407
      -0.421
      -1.146
      -1.637
      -1.780
      -1.571
      -1.170
      -0.829
      -0.732
      -0.861
      -1.020
      -1.010
      -0.806
      -0.578
      -0.540
      -0.760
      -1.077
      -1.213
      -0.973
      -0.396
       0.284
       0.795
       0.992
       0.898
       0.645
       0.374
       0.140
      -0.102
      -0.437
      -0.888
      -1.365
      -1.727
      -1.902
      -1.936
      -1.926
      -1.884
      -1.712
      -1.288
      -0.608
       0.168
       0.782
       1.012
       0.808
       0.343
      -0.072
      -0.180
       0.063
       0.481
       0.829
       0.953
       0.862
       0.681
       0.540
       0.475
       0.415
       0.262
      -0.005
      -0.276
      -0.358
      -0.108
       0.464
       1.179
       1.807
       2.194
       2.315
       2.202
       1.860
       1.266
       0.443
      -0.466
      -1.214
      -1.569
      -1.461
      -1.053
      -0.676
      -0.627
      -0.976
      -1.516
      -1.917
      -1.966
      -1.684
      -1.257
      -0.857
      -0.525
      -0.206
       0.149
       0.496
       0.706
       0.644
       0.268
      -0.311
      -0.861
      -1.144
      -1.050
      -0.648
      -0.117
       0.367
       0.725
       0.983
       1.197
       1.353
       1.350
       1.104
       0.682
       0.322
       0.298
       0.717
       1.438
       2.153
       2.570
       2.540
       2.071
       1.293
       0.393
      -0.439
      -1.068
      -1.440
      -1.569
      -1.506
      -1.321
      -1.087
      -0.878
      -0.754
      -0.734
      -0.769
      -0.749
      -0.556
      -0.154
       0.353
       0.749
       0.828
       0.519
      -0.057
      -0.653
      -1.026
      -1.070
      -0.832
      -0.439
      -0.004
       0.403
       0.738
       0.956
       1.017
       0.921
       0.728
       0.526
       0.372
       0.251
       0.115
      -0.059
      -0.247
      -0.426
      -0.610
      -0.819
      -1.030
      -1.181
      -1.226
      -1.153
      -0.989
      -0.783
      -0.594
      -0.447
      -0.305
      -0.105
       0.162
       0.438
       0.681
       0.911
       1.153
       1.346
       1.349
       1.055
       0.492
      -0.198
      -0.847
      -1.348
      -1.653
      -1.736
      -1.585
      -1.232
      -0.777
      -0.366
      -0.123
      -0.099
      -0.258
      -0.515
      -0.805
      -1.130
      -1.536
      -2.019
      -2.454
      -2.635
      -2.426
      -1.880
      -1.206
      -0.621
      -0.227
      -0.006
       0.107
       0.164
       0.206
       0.294
       0.492
       0.821
       1.209
       1.517
       1.612
       1.456
       1.153
       0.908
       0.906
       1.196
       1.653
       2.045
       2.184
       2.048
       1.764
       1.471
       1.183
       0.799
       0.235
      -0.460
      -1.113
      -1.542
      -1.680
      -1.607
      -1.461
      -1.309
      -1.104
      -0.758
      -0.245
       0.360
       0.934
       1.381
       1.684
       1.881
       2.014
       2.083
       2.050
       1.872
       1.537
       1.086
       0.611
       0.210
