Origin Time       4/2/2011 13:53:39	  UTC
Lat.              24.8 N	
Long.             94.6 E	
Depth (Km)         30.0
Magnitude         6.4
 Region           Myanmar-India-Border                                             
 Above details taken from IMD 
    
Station Code      JHR
Station Lat.       26.759  N
Station Long.      94.206  E
Station Height(m)   82.0
Site Class        C   Vs30 between 200 m/sec to 375 m/sec *  
Record Time       04.02.2011 13:55:09.694 UTC
Sampling Rate     200. Hz
 Record Duration   95.100 Sec.
 Direction         N-S (N positive)
Max. Acceleration      9.317 cm/sec**2
     
  * For reference see Site Classification link of website 
     
 Base Line Corrected and Low Pass Filtered (Cut Off at 35 Hz) Time History
 Acceleration data in cm/sec**2
    
[...]
      -0.973
      -0.556
      -0.231
      -0.007
       0.143
       0.252
       0.344
       0.455
       0.641
       0.961
       1.440
       2.040
       2.673
       3.231
       3.627
       3.814
       3.787
       3.574
       3.229
       2.807
       2.353
       1.900
       1.463
       1.035
       0.586
       0.068
      -0.555
      -1.279
      -2.066
      -2.850
      -3.564
      -4.129
      -4.451
      -4.453
      -4.111
      -3.484
      -2.699
      -1.901
      -1.217
      -0.735
      -0.505
      -0.538
      -0.793
      -1.173
      -1.551
      -1.818
      -1.912
      -1.814
      -1.517
      -1.019
      -0.335
       0.470
       1.274
       1.927
       2.313
       2.398
       2.231
       1.900
       1.481
       1.024
       0.576
       0.207
       0.000
       0.019
       0.266
       0.662
       1.075
       1.383
       1.528
       1.522
       1.418
       1.267
       1.103
       0.943
       0.790
       0.653
       0.559
       0.550
       0.677
       0.970
       1.409
       1.909
       2.342
       2.585
       2.577
       2.333
       1.922
       1.428
       0.928
       0.499
       0.214
       0.115
       0.181
       0.318
       0.390
       0.270
      -0.114
      -0.769
      -1.627
      -2.565
      -3.430
      -4.081
      -4.434
      -4.474
      -4.239
      -3.785
      -3.169
      -2.462
      -1.757
      -1.169
      -0.794
      -0.672
      -0.781
      -1.050
      -1.389
      -1.711
      -1.931
      -1.972
      -1.775
      -1.311
      -0.608
       0.233
       1.045
       1.644
       1.902
       1.805
       1.461
       1.043
       0.688
       0.433
       0.233
       0.038
      -0.143
      -0.231
      -0.127
       0.222
       0.798
       1.514
       2.246
       2.867
       3.279
       3.437
       3.362
       3.116
       2.770
       2.371
       1.943
       1.507
       1.100
       0.752
       0.465
       0.216
      -0.028
      -0.276
      -0.520
      -0.748
      -0.973
      -1.223
      -1.524
      -1.863
      -2.188
      -2.422
      -2.499
      -2.390
      -2.112
      -1.724
      -1.298
      -0.888
      -0.510
      -0.152
       0.206
       0.584
       0.978
       1.364
       1.697
       1.939
       2.085
       2.157
       2.178
       2.148
       2.037
       1.817
       1.479
       1.046
       0.564
       0.081
      -0.361
      -0.736
      -1.036
      -1.261
      -1.409
      -1.476
      -1.453
      -1.342
      -1.158
      -0.924
      -0.670
      -0.417
      -0.176
       0.052
       0.255
       0.410
       0.490
       0.493
       0.451
       0.419
       0.443
       0.526
       0.613
       0.612
       0.445
       0.088
      -0.414
      -0.973
      -1.497
      -1.928
      -2.244
      -2.466
      -2.635
      -2.801
      -2.983
      -3.165
      -3.302
      -3.344
      -3.259
      -3.053
      -2.762
      -2.447
      -2.166
      -1.957
      -1.827
      -1.750
      -1.682
      -1.571
      -1.366
      -1.015
      -0.485
       0.212
       0.996
       1.722
       2.217
       2.346
       2.073
       1.482
       0.743
       0.026
      -0.566
      -1.019
      -1.379
      -1.703
      -2.031
      -2.370
      -2.696
      -2.970
      -3.157
      -3.245
      -3.248
      -3.188
      -3.064
      -2.843
      -2.475
      -1.938
      -1.274
      -0.578
       0.030
       0.456
       0.663
       0.682
       0.585
       0.464
       0.412
       0.506
       0.780
       1.195
       1.636
       1.954
       2.026
       1.810
       1.361
       0.812
       0.323
       0.016
      -0.073
       0.007
       0.165
       0.335
       0.527
       0.831
       1.354
       2.153
       3.189
       4.340
       5.443
       6.353
       6.982
       7.303
       7.336
       7.122
       6.714
       6.170
       5.545
       4.877
       4.177
       3.445
       2.684
       1.919
       1.201
       0.589
       0.127
      -0.177
      -0.352
      -0.449
      -0.526
      -0.657
      -0.926
      -1.411
      -2.135
      -3.036
      -3.979
      -4.796
      -5.347
      -5.566
      -5.461
      -5.097
      -4.557
      -3.919
      -3.239
      -2.554
      -1.892
      -1.286
      -0.764
      -0.331
       0.038
       0.390
       0.772
       1.203
       1.665
       2.110
       2.488
       2.772
       2.953
       3.031
       3.003
       2.874
       2.669
       2.429
       2.187
       1.952
       1.710
       1.455
       1.202
       0.987
       0.844
       0.786
       0.805
       0.885
       1.010
       1.156
       1.279
       1.322
       1.236
       1.007
       0.674
       0.315
       0.014
      -0.166
      -0.191
      -0.054
       0.226
       0.593
       0.953
       1.205
       1.276
       1.154
       0.877
       0.512
       0.113
      -0.293
      -0.701
      -1.118
      -1.541
      -1.962
      -2.357
      -2.672
      -2.819
      -2.710
      -2.307
      -1.651
      -0.849
      -0.027
       0.712
       1.305
       1.740
       2.051
       2.304
       2.558
       2.817
       3.001
       2.986
       2.690
       2.137
       1.456
       0.806
       0.306
       0.008
      -0.096
      -0.052
       0.066
       0.171
       0.187
       0.100
      -0.038
      -0.145
      -0.184
      -0.194
      -0.269
      -0.482
      -0.834
      -1.251
      -1.628
      -1.895
      -2.043
      -2.124
      -2.212
      -2.356
      -2.546
      -2.702
      -2.711
      -2.494
      -2.067
      -1.540
      -1.057
      -0.719
      -0.541
      -0.469
      -0.432
      -0.390
      -0.351
      -0.337
      -0.349
      -0.352
      -0.316
      -0.249
      -0.194
      -0.194
      -0.263
      -0.382
      -0.518
      -0.639
      -0.721
      -0.757
      -0.752
      -0.729
      -0.718
      -0.746
      -0.820
      -0.932
      -1.066
      -1.199
      -1.296
      -1.308
      -1.198
      -0.955
      -0.607
      -0.208
       0.182
       0.530
       0.837
       1.126
       1.427
       1.751
       2.095
       2.439
       2.741
       2.945
       2.987
       2.820
       2.438
       1.908
       1.356
       0.918
       0.669
       0.588
       0.581
       0.551
       0.443
       0.259
       0.037
      -0.189
      -0.410
      -0.635
      -0.869
      -1.098
      -1.286
      -1.377
      -1.314
      -1.067
      -0.672
      -0.223
       0.164
       0.404
       0.467
       0.358
       0.087
      -0.337
      -0.890
      -1.507
      -2.084
      -2.505
      -2.694
      -2.640
      -2.396
      -2.042
      -1.656
      -1.293
      -0.995
      -0.793
      -0.717
      -0.776
      -0.952
      -1.193
      -1.432
      -1.600
      -1.648
      -1.561
      -1.355
      -1.065
      -0.724
      -0.361
      -0.016
       0.262
       0.426
       0.447
       0.317
       0.052
      -0.315
      -0.739
      -1.161
      -1.515
      -1.730
      -1.745
      -1.520
      -1.050
      -0.368
       0.446
       1.297
       2.098
       2.798
       3.368
       3.777
       3.973
       3.894
       3.511
       2.875
       2.119
       1.409
       0.863
       0.500
       0.265
       0.091
      -0.035
      -0.074
       0.025
       0.269
       0.612
       0.971
       1.274
       1.478
       1.576
       1.582
       1.520
       1.406
       1.246
       1.033
       0.765
       0.466
       0.193
       0.010
      -0.051
      -0.016
       0.041
       0.041
      -0.051
      -0.209
      -0.365
      -0.453
      -0.448
      -0.371
      -0.274
      -0.207
      -0.200
      -0.266
      -0.411
      -0.645
      -0.966
      -1.345
      -1.721
      -2.025
      -2.207
      -2.257
      -2.207
      -2.121
      -2.082
      -2.170
      -2.432
      -2.852
      -3.356
      -3.848
      -4.255
      -4.540
      -4.690
      -4.683
      -4.487
      -4.070
      -3.442
      -2.676
      -1.898
      -1.231
      -0.729
      -0.361
      -0.048
       0.275
       0.625
       0.989
       1.349
       1.690
       1.998
       2.257
       2.461
       2.621
       2.756
       2.870
       2.931
       2.872
       2.627
       2.180
       1.583
       0.930
       0.304
      -0.252
      -0.718
      -1.057
      -1.202
      -1.097
      -0.753
      -0.262
       0.248
       0.678
       0.997
       1.231
       1.445
       1.713
       2.092
       2.576
       3.082
       3.477
       3.640
       3.525
       3.180
       2.719
       2.270
       1.914
       1.664
       1.470
       1.244
       0.904
       0.405
      -0.238
      -0.957
      -1.667
      -2.299
      -2.820
      -3.217
      -3.478
      -3.578
      -3.496
      -3.240
      -2.855
      -2.396
      -1.895
      -1.350
      -0.748
      -0.107
       0.517
       1.051
       1.452
       1.720
       1.888
       1.988
       2.031
       2.012
       1.920
       1.745
       1.482
       1.131
       0.712
       0.274
      -0.114
      -0.397
      -0.555
      -0.619
      -0.646
      -0.683
      -0.744
      -0.804
      -0.824
      -0.776
      -0.653
      -0.470
      -0.242
       0.022
       0.331
       0.692
       1.096
       1.504
       1.852
       2.065
       2.095
       1.952
       1.697
       1.416
       1.161
       0.934
       0.697
       0.404
       0.024
      -0.434
      -0.924
      -1.375
      -1.712
      -1.884
      -1.879
      -1.720
      -1.450
      -1.107
      -0.717
      -0.305
       0.094
       0.428
       0.636
       0.680
       0.574
       0.398
       0.279
       0.323
       0.561
       0.945
       1.382
       1.790
       2.122
       2.357
       2.483
       2.471
       2.279
       1.880
       1.285
       0.556
      -0.207
      -0.893
      -1.406
      -1.699
      -1.772
      -1.668
      -1.439
      -1.122
      -0.731
      -0.263
       0.278
       0.866
       1.451
       1.976
       2.392
       2.658
       2.732
       2.575
       2.165
       1.528
       0.745
      -0.060
      -0.758
      -1.253
      -1.510
      -1.550
      -1.421
      -1.171
      -0.854
      -0.531
      -0.266
      -0.107
      -0.074
      -0.179
      -0.444
      -0.894
      -1.531
      -2.295
      -3.056
      -3.647
      -3.929
      -3.836
      -3.380
      -2.629
      -1.681
      -0.647
       0.364
       1.273
       2.044
       2.676
       3.176
       3.534
       3.723
       3.723
       3.534
       3.166
       2.632
       1.953
       1.183
       0.417
      -0.235
      -0.691
      -0.936
      -1.023
      -1.046
      -1.095
      -1.228
      -1.458
      -1.770
      -2.135
      -2.519
      -2.884
      -3.183
      -3.348
      -3.302
      -2.984
      -2.388
      -1.588
      -0.718
       0.082
       0.717
       1.160
       1.427
       1.531
       1.464
       1.212
       0.797
       0.292
      -0.200
      -0.605
      -0.910
      -1.157
      -1.402
      -1.672
      -1.944
      -2.168
      -2.300
      -2.315
      -2.218
      -2.034
      -1.796
      -1.524
      -1.212
      -0.842
      -0.400
       0.109
       0.664
       1.240
       1.818
       2.391
       2.965
       3.544
       4.116
       4.653
       5.124
       5.513
       5.813
       6.019
       6.121
       6.111
       5.991
       5.778
       5.504
       5.210
       4.929
       4.669
       4.397
       4.055
       3.589
       2.986
       2.300
       1.632
       1.094
       0.762
       0.651
       0.718
       0.885
       1.063
       1.172
       1.144
       0.939
       0.554
       0.037
      -0.544
      -1.125
      -1.677
      -2.193
      -2.671
      -3.097
      -3.448
      -3.713
      -3.891
      -4.000
      -4.065
      -4.122
      -4.222
      -4.422
      -4.756
      -5.198
      -5.670
      -6.071
      -6.333
      -6.449
      -6.460
      -6.421
      -6.360
      -6.262
      -6.081
      -5.777
      -5.336
      -4.788
      -4.207
      -3.682
      -3.279
      -3.013
      -2.836
      -2.667
      -2.427
      -2.078
      -1.631
      -1.132
      -0.631
      -0.160
       0.279
       0.703
       1.131
       1.576
       2.046
       2.554
       3.116
       3.754
       4.481
       5.280
       6.096
       6.854
       7.501
       8.029
       8.467
       8.840
       9.135
       9.307
       9.317
       9.162
       8.874
       8.490
       8.029
       7.488
       6.861
       6.156
       5.394
       4.619
       3.884
       3.234
       2.691
       2.241
       1.843
       1.443
       0.998
       0.493
      -0.069
      -0.674
      -1.308
      -1.943
      -2.533
      -3.014
      -3.329
      -3.458
      -3.437
      -3.350
      -3.297
      -3.356
      -3.577
      -3.979
      -4.560
      -5.285
      -6.076
      -6.833
      -7.457
      -7.883
      -8.097
      -8.129
      -8.040
      -7.915
      -7.834
      -7.848
      -7.946
      -8.059
      -8.087
      -7.940
      -7.568
      -6.958
      -6.115
      -5.067
      -3.878
      -2.662
      -1.558
      -0.673
      -0.029
       0.439
       0.833
       1.231
       1.653
       2.082
       2.496
       2.883
       3.242
       3.568
       3.847
       4.058
       4.176
       4.198
       4.163
       4.136
       4.181
       4.322
       4.529
       4.747
       4.923
       5.028
       5.051
       4.998
       4.873
       4.684
       4.440
       4.164
       3.899
       3.690
       3.560
       3.489
       3.416
       3.277
       3.044
       2.745
       2.436
       2.166
       1.946
       1.739
       1.477
       1.097
       0.579
      -0.032
      -0.648
      -1.179
      -1.561
      -1.770
      -1.817
      -1.743
      -1.612
      -1.497
      -1.468
      -1.573
      -1.833
      -2.240
      -2.753
      -3.300
      -3.797
      -4.180
      -4.435
      -4.587
      -4.685
      -4.758
      -4.815
      -4.844
      -4.842
      -4.828
      -4.826
      -4.850
      -4.889
      -4.924
      -4.936
      -4.912
      -4.838
      -4.703
      -4.506
      -4.255
      -3.973
      -3.677
      -3.379
      -3.084
      -2.795
      -2.529
      -2.310
      -2.143
      -2.007
      -1.849
      -1.603
      -1.224
      -0.712
      -0.111
       0.508
       1.081
       1.544
       1.831
       1.888
       1.692
       1.263
       0.660
      -0.039
      -0.749
      -1.387
      -1.889
      -2.206
      -2.313
      -2.214
      -1.945
      -1.566
      -1.138
      -0.704
      -0.280
       0.137
       0.548
       0.950
       1.330
       1.680
       1.995
       2.273
       2.516
       2.739
       2.968
       3.219
       3.473
       3.679
       3.775
       3.732
       3.559
       3.292
       2.965
       2.597
       2.208
       1.825
       1.495
       1.260
       1.143
       1.130
       1.170
       1.187
       1.111
       0.914
       0.614
       0.259
      -0.099
      -0.404
      -0.583
      -0.561
      -0.286
       0.227
       0.889
       1.557
       2.090
       2.399
       2.469
       2.356
       2.153
       1.963
       1.869
       1.908
       2.064
       2.293
       2.548
       2.798
       3.007
       3.125
       3.098
       2.893
       2.511
       1.985
       1.359
       0.666
      -0.075
      -0.843
      -1.596
      -2.272
      -2.808
      -3.161
      -3.311
      -3.270
      -3.063
      -2.723
      -2.288
      -1.811
      -1.354
      -0.971
      -0.693
      -0.532
      -0.491
      -0.570
      -0.746
      -0.959
      -1.114
      -1.113
      -0.894
      -0.452
       0.164
       0.879
       1.599
       2.205
       2.584
       2.664
       2.455
       2.041
       1.541
       1.065
       0.691
       0.471
       0.445
       0.635
       1.028
       1.553
       2.099
       2.552
       2.828
       2.891
       2.742
       2.406
       1.923
       1.353
       0.767
       0.241
      -0.153
      -0.364
      -0.372
      -0.192
       0.128
       0.504
       0.828
       0.996
       0.946
       0.674
       0.216
      -0.369
      -1.018
      -1.668
      -2.258
      -2.730
      -3.032
      -3.131
      -3.030
      -2.765
      -2.395
      -1.972
      -1.516
      -1.025
      -0.507
      -0.005
       0.411
       0.690
       0.833
       0.897
       0.956
       1.067
       1.241
       1.447
       1.631
       1.732
       1.714
       1.578
       1.361
       1.113
       0.872
       0.656
       0.459
       0.257
       0.020
      -0.269
      -0.592
      -0.909
      -1.187
      -1.434
      -1.697
      -2.034
      -2.473
      -3.003
      -3.581
      -4.143
      -4.618
      -4.933
      -5.032
      -4.900
      -4.563
      -4.088
      -3.556
      -3.029
      -2.532
      -2.062
      -1.615
      -1.194
      -0.807
      -0.456
      -0.142
       0.123
       0.309
       0.394
       0.394
       0.361
       0.356
       0.406
       0.489
       0.549
       0.536
       0.426
       0.226
      -0.023
      -0.268
      -0.471
      -0.632
      -0.792
      -1.000
      -1.283
      -1.631
      -2.005
      -2.350
      -2.615
      -2.751
      -2.714
      -2.470
      -2.012
      -1.379
      -0.651
       0.074
       0.712
       1.207
       1.555
       1.798
       1.996
       2.187
       2.362
       2.473
       2.475
       2.370
       2.204
       2.031
       1.864
       1.675
       1.428
       1.117
       0.782
       0.489
       0.301
       0.250
       0.328
       0.499
       0.730
       1.010
       1.348
       1.753
       2.206
       2.655
       3.023
       3.244
       3.286
       3.180
       3.002
       2.836
