Origin Time       4/2/2011 13:53:39	 
Lat.              24.8 N	
Long.             94.6 E	
Depth (Km)         30.0
Magnitude         6.4
 Region           Myanmar-India-Border                                             
 Above details taken from IMD 
     
Station Code      JHR
Station Lat.       26.759  N
Station Long.      94.206  E
Station Height(m)   82.0
Site Class        C   Vs30 between 200 m/sec to 375 m/sec *  
Record Time       04.02.2011 13:55:09.694
Sampling Rate     200. Hz
 Record Duration   95.100 Sec.
 Direction         E-W (E positive)
Max. Acceleration      7.205 cm/sec**2
     
  * For reference see Site Classification link of website 
     
 Base Line Corrected and Low Pass Filtered (Cut Off at 35 Hz) Time History
 Acceleration data in cm/sec**2
    
[...]
      -2.004
      -1.747
      -1.335
      -0.977
      -0.855
      -1.057
      -1.563
      -2.278
      -3.079
      -3.851
      -4.505
      -4.987
      -5.281
      -5.419
      -5.463
      -5.481
      -5.500
      -5.492
      -5.384
      -5.086
      -4.521
      -3.642
      -2.451
      -1.029
       0.457
       1.785
       2.760
       3.293
       3.426
       3.286
       2.996
       2.613
       2.130
       1.519
       0.770
      -0.095
      -1.032
      -1.965
      -2.787
      -3.373
      -3.642
      -3.596
      -3.329
      -2.965
      -2.590
      -2.229
      -1.862
      -1.454
      -0.979
      -0.413
       0.260
       1.038
       1.877
       2.704
       3.449
       4.081
       4.615
       5.065
       5.419
       5.635
       5.694
       5.627
       5.498
       5.354
       5.209
       5.063
       4.929
       4.843
       4.833
       4.896
       4.976
       4.965
       4.729
       4.158
       3.216
       1.979
       0.624
      -0.635
      -1.623
      -2.264
      -2.593
      -2.719
      -2.762
      -2.803
      -2.870
      -2.959
      -3.056
      -3.152
      -3.246
      -3.351
      -3.496
      -3.706
      -3.968
      -4.210
      -4.317
      -4.186
      -3.781
      -3.151
      -2.415
      -1.733
      -1.259
      -1.095
      -1.252
      -1.654
      -2.190
      -2.772
      -3.361
      -3.929
      -4.414
      -4.715
      -4.742
      -4.480
      -4.010
      -3.467
      -2.968
      -2.567
      -2.251
      -1.966
      -1.648
      -1.244
      -0.730
      -0.132
       0.463
       0.935
       1.185
       1.197
       1.044
       0.851
       0.734
       0.751
       0.866
       0.961
       0.885
       0.535
      -0.065
      -0.767
      -1.367
      -1.709
      -1.731
      -1.445
      -0.888
      -0.108
       0.815
       1.742
       2.497
       2.936
       3.007
       2.765
       2.333
       1.853
       1.467
       1.295
       1.415
       1.825
       2.432
       3.080
       3.622
       3.978
       4.137
       4.122
       3.950
       3.634
       3.201
       2.709
       2.224
       1.792
       1.422
       1.099
       0.818
       0.594
       0.449
       0.378
       0.335
       0.260
       0.128
      -0.033
      -0.156
      -0.178
      -0.068
       0.174
       0.526
       0.938
       1.333
       1.624
       1.749
       1.706
       1.546
       1.329
       1.077
       0.773
       0.409
       0.022
      -0.309
      -0.534
      -0.692
      -0.887
      -1.205
      -1.645
      -2.112
      -2.489
      -2.692
      -2.693
      -2.511
      -2.205
      -1.859
      -1.556
      -1.337
      -1.175
      -0.998
      -0.739
      -0.382
       0.036
       0.453
       0.812
       1.070
       1.205
       1.236
       1.233
       1.299
       1.503
       1.825
       2.136
       2.273
       2.131
       1.736
       1.229
       0.782
       0.500
       0.388
       0.391
       0.460
       0.577
       0.744
       0.962
       1.211
       1.453
       1.629
       1.684
       1.593
       1.388
       1.152
       0.982
       0.944
       1.055
       1.281
       1.550
       1.780
       1.898
       1.852
       1.623
       1.227
       0.721
       0.186
      -0.288
      -0.627
      -0.772
      -0.680
      -0.335
       0.224
       0.882
       1.466
       1.815
       1.834
       1.530
       0.987
       0.318
      -0.374
      -1.020
      -1.564
      -1.956
      -2.161
      -2.187
      -2.110
      -2.042
      -2.069
      -2.203
      -2.372
      -2.466
      -2.388
      -2.098
      -1.615
      -1.012
      -0.394
       0.130
       0.476
       0.622
       0.606
       0.493
       0.317
       0.056
      -0.341
      -0.888
      -1.507
      -2.034
      -2.287
      -2.166
      -1.706
      -1.058
      -0.414
       0.091
       0.410
       0.570
       0.618
       0.582
       0.460
       0.234
      -0.107
      -0.548
      -1.046
      -1.546
      -2.004
      -2.391
      -2.690
      -2.897
      -3.031
      -3.148
      -3.313
      -3.549
      -3.809
      -3.994
      -4.012
      -3.837
      -3.523
      -3.171
      -2.883
      -2.715
      -2.663
      -2.682
      -2.709
      -2.702
      -2.653
      -2.586
      -2.530
      -2.501
      -2.492
      -2.484
      -2.448
      -2.343
      -2.114
      -1.707
      -1.107
      -0.361
       0.437
       1.189
       1.830
       2.350
       2.761
       3.069
       3.268
       3.347
       3.306
       3.150
       2.894
       2.572
       2.259
       2.047
       1.995
       2.079
       2.192
       2.195
       1.999
       1.605
       1.086
       0.521
      -0.057
      -0.658
      -1.276
      -1.840
      -2.241
      -2.399
      -2.329
      -2.128
      -1.906
      -1.723
      -1.574
      -1.431
      -1.283
      -1.163
      -1.134
      -1.253
      -1.543
      -1.956
      -2.378
      -2.652
      -2.628
      -2.212
      -1.398
      -0.268
       1.045
       2.397
       3.660
       4.726
       5.490
       5.867
       5.826
       5.422
       4.774
       4.015
       3.229
       2.442
       1.657
       0.902
       0.241
      -0.261
      -0.589
      -0.791
      -0.953
      -1.152
      -1.429
      -1.779
      -2.152
      -2.464
      -2.605
      -2.476
      -2.039
      -1.357
      -0.583
       0.104
       0.591
       0.865
       0.978
       0.973
       0.844
       0.564
       0.128
      -0.406
      -0.924
      -1.290
      -1.405
      -1.226
      -0.757
      -0.026
       0.906
       1.928
       2.879
       3.609
       4.035
       4.165
       4.053
       3.749
       3.287
       2.712
       2.104
       1.564
       1.158
       0.887
       0.692
       0.521
       0.380
       0.347
       0.510
       0.900
       1.453
       2.038
       2.505
       2.732
       2.652
       2.266
       1.649
       0.940
       0.292
      -0.181
      -0.437
      -0.504
      -0.441
      -0.302
      -0.116
       0.119
       0.427
       0.828
       1.311
       1.819
       2.272
       2.615
       2.857
       3.042
       3.201
       3.291
       3.218
       2.900
       2.352
       1.695
       1.092
       0.653
       0.395
       0.265
       0.199
       0.172
       0.195
       0.289
       0.450
       0.644
       0.820
       0.934
       0.960
       0.888
       0.710
       0.420
       0.008
      -0.521
      -1.141
      -1.794
      -2.406
      -2.907
      -3.241
      -3.378
      -3.301
      -3.015
      -2.566
      -2.055
      -1.612
      -1.345
      -1.297
      -1.437
      -1.703
      -2.045
      -2.437
      -2.864
      -3.298
      -3.689
      -3.989
      -4.178
      -4.276
      -4.328
      -4.370
      -4.401
      -4.387
      -4.282
      -4.063
      -3.737
      -3.346
      -2.950
      -2.615
      -2.396
      -2.307
      -2.325
      -2.401
      -2.477
      -2.496
      -2.402
      -2.155
      -1.739
      -1.183
      -0.546
       0.110
       0.729
       1.260
       1.634
       1.780
       1.663
       1.315
       0.840
       0.370
       0.011
      -0.170
      -0.125
       0.196
       0.833
       1.768
       2.901
       4.069
       5.103
       5.893
       6.406
       6.675
       6.756
       6.697
       6.535
       6.304
       6.034
       5.736
       5.397
       4.978
       4.437
       3.747
       2.905
       1.946
       0.938
      -0.025
      -0.847
      -1.453
      -1.815
      -1.948
      -1.903
      -1.735
      -1.489
      -1.193
      -0.863
      -0.512
      -0.155
       0.196
       0.531
       0.853
       1.172
       1.516
       1.915
       2.390
       2.927
       3.460
       3.877
       4.052
       3.883
       3.329
       2.425
       1.269
       0.006
      -1.209
      -2.255
      -3.075
      -3.686
      -4.162
      -4.584
      -4.997
      -5.375
      -5.640
      -5.702
      -5.516
      -5.100
      -4.534
      -3.928
      -3.399
      -3.032
      -2.849
      -2.794
      -2.757
      -2.629
      -2.351
      -1.923
      -1.380
      -0.761
      -0.096
       0.568
       1.156
       1.582
       1.799
       1.829
       1.762
       1.699
       1.704
       1.778
       1.866
       1.886
       1.763
       1.459
       0.980
       0.372
      -0.297
      -0.956
      -1.543
      -1.996
      -2.253
      -2.270
      -2.055
      -1.698
      -1.348
      -1.147
      -1.161
      -1.354
      -1.621
      -1.857
      -2.000
      -2.034
      -1.969
      -1.814
      -1.583
      -1.293
      -0.966
      -0.633
      -0.330
      -0.099
       0.025
       0.025
      -0.091
      -0.281
      -0.479
      -0.608
      -0.615
      -0.489
      -0.267
       0.004
       0.290
       0.575
       0.837
       1.030
       1.103
       1.035
       0.862
       0.651
       0.461
       0.307
       0.160
      -0.015
      -0.227
      -0.456
      -0.673
      -0.875
      -1.084
      -1.322
      -1.580
      -1.801
      -1.900
      -1.802
      -1.489
      -1.004
      -0.429
       0.161
       0.713
       1.189
       1.556
       1.790
       1.906
       1.955
       1.994
       2.047
       2.089
       2.080
       2.017
       1.952
       1.965
       2.102
       2.348
       2.643
       2.922
       3.147
       3.298
       3.358
       3.306
       3.127
       2.834
       2.479
       2.142
       1.896
       1.772
       1.742
       1.737
       1.685
       1.544
       1.322
       1.069
       0.857
       0.742
       0.742
       0.840
       1.004
       1.206
       1.419
       1.617
       1.776
       1.868
       1.872
       1.780
       1.618
       1.445
       1.343
       1.375
       1.562
       1.870
       2.223
       2.540
       2.756
       2.830
       2.727
       2.398
       1.781
       0.839
      -0.407
      -1.856
      -3.345
      -4.686
      -5.713
      -6.319
      -6.493
      -6.302
      -5.866
      -5.321
      -4.795
      -4.396
      -4.188
      -4.167
      -4.262
      -4.362
      -4.378
      -4.292
      -4.158
      -4.051
      -4.007
      -4.013
      -4.044
      -4.108
      -4.243
      -4.472
      -4.753
      -4.985
      -5.060
      -4.921
      -4.586
      -4.124
      -3.615
      -3.112
      -2.633
      -2.170
      -1.715
      -1.262
      -0.803
      -0.325
       0.177
       0.683
       1.160
       1.594
       2.012
       2.466
       2.988
       3.560
       4.124
       4.609
       4.967
       5.166
       5.191
       5.034
       4.711
       4.271
       3.794
       3.368
       3.055
       2.877
       2.823
       2.860
       2.941
       3.001
       2.984
       2.863
       2.670
       2.471
       2.326
       2.252
       2.219
       2.161
       2.008
       1.705
       1.229
       0.623
      -0.012
      -0.546
      -0.898
      -1.084
      -1.217
      -1.429
      -1.782
      -2.217
      -2.590
      -2.750
      -2.613
      -2.198
      -1.599
      -0.941
      -0.328
       0.180
       0.566
       0.828
       0.978
       1.038
       1.052
       1.067
       1.119
       1.214
       1.333
       1.446
       1.524
       1.548
       1.524
       1.470
       1.401
       1.317
       1.200
       1.026
       0.769
       0.409
      -0.055
      -0.587
      -1.114
      -1.558
      -1.874
      -2.060
      -2.137
      -2.127
      -2.052
      -1.942
      -1.830
      -1.738
      -1.651
      -1.522
      -1.296
      -0.976
      -0.629
      -0.362
      -0.242
      -0.258
      -0.336
      -0.397
      -0.402
      -0.362
      -0.305
      -0.244
      -0.166
      -0.035
       0.171
       0.447
       0.758
       1.055
       1.298
       1.464
       1.537
       1.510
       1.383
       1.168
       0.879
       0.524
       0.089
      -0.450
      -1.108
      -1.849
      -2.593
      -3.238
      -3.708
      -3.978
      -4.065
      -4.009
      -3.857
      -3.649
      -3.404
      -3.118
      -2.762
      -2.309
      -1.762
      -1.164
      -0.586
      -0.090
       0.294
       0.578
       0.797
       0.991
       1.178
       1.350
       1.479
       1.549
       1.581
       1.643
       1.817
       2.161
       2.675
       3.305
       3.973
       4.623
       5.237
       5.817
       6.353
       6.806
       7.110
       7.205
       7.063
       6.699
       6.167
       5.521
       4.788
       3.964
       3.050
       2.091
       1.187
       0.457
      -0.019
      -0.233
      -0.250
      -0.172
      -0.089
      -0.038
       0.005
       0.099
       0.276
       0.507
       0.719
       0.846
       0.879
       0.875
       0.898
       0.971
       1.055
       1.086
       1.018
       0.838
       0.559
       0.205
      -0.195
      -0.611
      -1.015
      -1.397
      -1.760
      -2.112
      -2.439
      -2.701
      -2.842
      -2.823
      -2.643
      -2.347
      -2.007
      -1.701
      -1.480
      -1.364
      -1.349
      -1.420
      -1.556
      -1.726
      -1.897
      -2.037
      -2.135
      -2.211
      -2.283
      -2.332
      -2.290
      -2.089
      -1.714
      -1.234
      -0.758
      -0.361
      -0.055
       0.194
       0.411
       0.601
       0.782
       1.009
       1.341
       1.770
       2.183
       2.423
       2.385
       2.080
       1.600
       1.047
       0.471
      -0.124
      -0.758
      -1.451
      -2.228
      -3.106
      -4.071
      -5.044
      -5.883
      -6.434
      -6.598
      -6.379
      -5.868
      -5.199
      -4.490
      -3.810
      -3.172
      -2.554
      -1.918
      -1.246
      -0.548
       0.134
       0.747
       1.247
       1.618
       1.879
       2.070
       2.238
       2.403
       2.555
       2.658
       2.676
       2.593
       2.433
       2.253
       2.124
       2.099
       2.177
       2.296
       2.354
       2.254
       1.942
       1.436
       0.811
       0.167
      -0.416
      -0.904
      -1.298
      -1.601
      -1.800
      -1.873
      -1.795
      -1.553
      -1.151
      -0.612
       0.028
       0.738
       1.495
       2.277
       3.042
       3.733
       4.292
       4.680
       4.881
       4.884
       4.676
       4.249
       3.617
       2.829
       1.963
       1.113
       0.368
      -0.200
      -0.551
      -0.698
      -0.721
      -0.731
      -0.804
      -0.926
      -1.002
      -0.925
      -0.657
      -0.251
       0.194
       0.594
       0.910
       1.128
       1.243
       1.259
       1.196
       1.077
       0.897
       0.622
       0.228
      -0.257
      -0.753
      -1.192
      -1.570
      -1.940
      -2.337
      -2.729
      -3.037
      -3.213
      -3.292
      -3.373
      -3.542
      -3.813
      -4.119
      -4.360
      -4.453
      -4.370
      -4.146
      -3.857
      -3.590
      -3.408
      -3.306
      -3.218
      -3.060
      -2.795
      -2.459
      -2.122
      -1.833
      -1.597
      -1.401
      -1.245
      -1.149
      -1.114
      -1.102
      -1.039
      -0.859
      -0.552
      -0.169
       0.195
       0.446
       0.522
       0.413
       0.165
      -0.137
      -0.392
      -0.504
      -0.398
      -0.037
       0.559
       1.309
       2.083
       2.737
       3.156
       3.284
       3.134
       2.771
       2.272
       1.684
       1.028
       0.318
      -0.405
      -1.063
      -1.565
      -1.843
      -1.886
      -1.738
      -1.477
      -1.170
      -0.857
      -0.560
      -0.302
      -0.119
      -0.034
      -0.038
      -0.085
      -0.121
      -0.111
      -0.054
       0.034
       0.134
       0.223
       0.274
       0.264
       0.191
       0.079
      -0.038
      -0.147
      -0.260
      -0.398
      -0.546
      -0.640
      -0.596
      -0.366
       0.021
       0.467
       0.855
       1.102
       1.183
       1.114
       0.924
       0.625
       0.215
      -0.301
      -0.883
      -1.447
      -1.895
      -2.149
      -2.166
      -1.941
      -1.500
      -0.893
      -0.185
       0.559
       1.294
       2.002
       2.677
       3.309
       3.875
       4.330
       4.627
       4.740
       4.671
       4.448
       4.102
       3.657
       3.126
       2.523
       1.874
       1.226
       0.648
       0.221
      -0.003
      -0.025
       0.091
       0.252
       0.377
       0.425
       0.394
       0.306
       0.189
       0.073
      -0.001
       0.008
       0.123
       0.329
       0.577
       0.809
       0.978
       1.042
       0.959
       0.697
       0.268
      -0.244
      -0.701
      -0.984
      -1.068
      -1.034
      -1.005
      -1.058
      -1.189
      -1.349
      -1.518
      -1.719
      -1.988
      -2.323
      -2.685
      -3.034
      -3.374
      -3.733
      -4.123
      -4.501
      -4.785
      -4.895
      -4.779
      -4.413
      -3.782
      -2.887
      -1.775
      -0.557
       0.610
       1.586
       2.286
       2.697
       2.854
       2.835
       2.745
       2.702
       2.801
       3.079
       3.515
       4.033
       4.532
       4.903
       5.048
       4.908
       4.489
       3.865
       3.159
       2.494
       1.949
       1.527
       1.170
       0.809
       0.410
      -0.005
      -0.390
      -0.711
      -0.966
      -1.178
      -1.383
      -1.615
      -1.896
      -2.223
      -2.563
      -2.856
      -3.033
      -3.041
      -2.859
      -2.497
      -1.992
      -1.400
      -0.793
      -0.244
       0.196
       0.511
       0.731
       0.914
       1.123
       1.386
       1.678
       1.928
       2.059
       2.038
       1.884
       1.648
       1.375
       1.085
       0.786
       0.491
