Origin Time       2/8/2013 02:32:05	 
Lat.              33.5 N	
Long.             75.5 E	
Depth (Km)         28.0
Magnitude         5.4
 Region           JK-HP-Border                                                     
 Above details taken from IMD 
   
Station Code      CHM
Station Lat.       32.555
Station Long.      76.126
Station Height(m)  952.0
Site Class        A   Vs30 between 700 m/sec to 1400 m/sec * 
Record Time       02.08.2013 02:32:22.284
Sampling Rate     200. Hz
 Record Duration   88.540 Sec.
 Direction         Vert. (Up positive)
Max. Acceleration     -3.677 cm/sec**2
     
  * For reference see Site Classification link of website 
     
 Base Line Corrected and Low Pass Filtered (Cut Off at 35 Hz) Time History
 Acceleration data in cm/sec**2
    
[...]
       0.211
       0.300
       0.253
       0.077
      -0.173
      -0.418
      -0.592
      -0.662
      -0.616
      -0.449
      -0.160
       0.244
       0.727
       1.215
       1.608
       1.805
       1.739
       1.400
       0.851
       0.214
      -0.369
      -0.777
      -0.947
      -0.885
      -0.658
      -0.361
      -0.078
       0.140
       0.276
       0.328
       0.287
       0.152
      -0.054
      -0.269
      -0.421
      -0.473
      -0.440
      -0.367
      -0.285
      -0.194
      -0.070
       0.096
       0.282
       0.440
       0.520
       0.500
       0.408
       0.312
       0.277
       0.314
       0.371
       0.361
       0.232
      -0.007
      -0.277
      -0.478
      -0.540
      -0.471
      -0.349
      -0.262
      -0.249
      -0.282
      -0.311
      -0.316
      -0.315
      -0.319
      -0.311
      -0.256
      -0.158
      -0.070
      -0.063
      -0.166
      -0.342
      -0.513
      -0.596
      -0.537
      -0.329
      -0.015
       0.326
       0.606
       0.761
       0.764
       0.631
       0.407
       0.163
      -0.002
       0.006
       0.215
       0.548
       0.842
       0.939
       0.778
       0.424
       0.020
      -0.298
      -0.463
      -0.487
      -0.433
      -0.384
      -0.411
      -0.545
      -0.752
      -0.943
      -1.006
      -0.860
      -0.492
       0.022
       0.539
       0.891
       0.956
       0.703
       0.208
      -0.387
      -0.919
      -1.239
      -1.242
      -0.899
      -0.289
       0.409
       0.993
       1.327
       1.383
       1.209
       0.875
       0.454
       0.047
      -0.212
      -0.213
       0.038
       0.395
       0.655
       0.684
       0.492
       0.203
      -0.051
      -0.205
      -0.273
      -0.298
      -0.303
      -0.288
      -0.259
      -0.248
      -0.304
      -0.459
      -0.693
      -0.926
      -1.051
      -0.987
      -0.726
      -0.342
       0.040
       0.313
       0.442
       0.476
       0.499
       0.563
       0.650
       0.705
       0.687
       0.604
       0.478
       0.317
       0.114
      -0.124
      -0.356
      -0.514
      -0.543
      -0.425
      -0.192
       0.069
       0.233
       0.191
      -0.085
      -0.506
      -0.904
      -1.120
      -1.092
      -0.870
      -0.569
      -0.293
      -0.082
       0.075
       0.204
       0.311
       0.381
       0.402
       0.388
       0.369
       0.364
       0.362
       0.335
       0.255
       0.129
      -0.001
      -0.072
      -0.030
       0.150
       0.447
       0.795
       1.098
       1.256
       1.207
       0.932
       0.463
      -0.132
      -0.750
      -1.266
      -1.577
      -1.632
      -1.438
      -1.026
      -0.439
       0.250
       0.913
       1.386
       1.532
       1.312
       0.803
       0.161
      -0.456
      -0.940
      -1.248
      -1.368
      -1.302
      -1.051
      -0.636
      -0.123
       0.385
       0.772
       0.958
       0.936
       0.782
       0.619
       0.552
       0.617
       0.765
       0.889
       0.888
       0.710
       0.371
      -0.059
      -0.488
      -0.832
      -1.040
      -1.108
      -1.077
      -1.008
      -0.944
      -0.892
      -0.828
      -0.721
      -0.560
      -0.358
      -0.144
       0.050
       0.202
       0.305
       0.367
       0.409
       0.445
       0.484
       0.519
       0.549
       0.581
       0.625
       0.677
       0.698
       0.637
       0.480
       0.274
       0.114
       0.072
       0.147
       0.261
       0.319
       0.266
       0.106
      -0.122
      -0.369
      -0.593
      -0.750
      -0.793
      -0.698
      -0.489
      -0.251
      -0.096
      -0.120
      -0.351
      -0.728
      -1.112
      -1.339
      -1.296
      -0.957
      -0.387
       0.304
       0.993
       1.553
       1.865
       1.833
       1.439
       0.780
       0.059
      -0.505
      -0.780
      -0.773
      -0.600
      -0.396
      -0.239
      -0.133
      -0.048
       0.041
       0.133
       0.225
       0.326
       0.448
       0.567
       0.613
       0.505
       0.211
      -0.223
      -0.694
      -1.092
      -1.335
      -1.374
      -1.203
      -0.865
      -0.448
      -0.054
       0.245
       0.430
       0.527
       0.578
       0.617
       0.669
       0.753
       0.876
       1.015
       1.124
       1.152
       1.075
       0.910
       0.704
       0.497
       0.305
       0.115
      -0.083
      -0.280
      -0.455
      -0.599
      -0.725
      -0.846
      -0.956
      -1.018
      -0.988
      -0.853
      -0.648
      -0.436
      -0.271
      -0.165
      -0.105
      -0.074
      -0.074
      -0.099
      -0.113
      -0.064
       0.075
       0.274
       0.458
       0.555
       0.543
       0.449
       0.327
       0.222
       0.163
       0.159
       0.210
       0.304
       0.423
       0.538
       0.622
       0.649
       0.595
       0.450
       0.236
       0.004
      -0.195
      -0.333
      -0.408
      -0.424
      -0.371
      -0.238
      -0.044
       0.152
       0.267
       0.236
       0.052
      -0.224
      -0.495
      -0.675
      -0.719
      -0.636
      -0.475
      -0.300
      -0.166
      -0.105
      -0.122
      -0.214
      -0.370
      -0.562
      -0.729
      -0.797
      -0.731
      -0.565
      -0.377
      -0.235
      -0.163
      -0.147
      -0.166
      -0.210
      -0.271
      -0.334
      -0.363
      -0.308
      -0.124
       0.216
       0.700
       1.257
       1.764
       2.083
       2.112
       1.819
       1.232
       0.424
      -0.493
      -1.360
      -1.993
      -2.246
      -2.081
      -1.591
      -0.950
      -0.334
       0.140
       0.435
       0.586
       0.671
       0.766
       0.890
       0.999
       1.018
       0.917
       0.724
       0.502
       0.284
       0.067
      -0.149
      -0.324
      -0.390
      -0.322
      -0.178
      -0.079
      -0.123
      -0.317
      -0.581
      -0.810
      -0.933
      -0.936
      -0.844
      -0.687
      -0.482
      -0.239
       0.028
       0.291
       0.515
       0.672
       0.747
       0.749
       0.707
       0.659
       0.643
       0.675
       0.736
       0.782
       0.764
       0.655
       0.462
       0.206
      -0.095
      -0.428
      -0.761
      -1.037
      -1.198
      -1.217
      -1.123
      -0.963
      -0.762
      -0.508
      -0.180
       0.206
       0.596
       0.923
       1.155
       1.300
       1.375
       1.389
       1.333
       1.204
       1.009
       0.763
       0.474
       0.149
      -0.197
      -0.541
      -0.860
      -1.140
      -1.367
      -1.525
      -1.590
      -1.547
      -1.407
      -1.207
      -0.991
      -0.783
      -0.568
      -0.306
       0.019
       0.363
       0.632
       0.752
       0.733
       0.658
       0.618
       0.639
       0.683
       0.705
       0.701
       0.701
       0.717
       0.713
       0.631
       0.440
       0.167
      -0.127
      -0.394
      -0.629
      -0.855
      -1.085
      -1.290
      -1.405
      -1.366
      -1.151
      -0.786
      -0.325
       0.181
       0.677
       1.079
       1.281
       1.208
       0.877
       0.403
      -0.068
      -0.424
      -0.614
      -0.628
      -0.463
      -0.131
       0.308
       0.733
       0.998
       1.009
       0.772
       0.386
      -0.012
      -0.314
      -0.475
      -0.514
      -0.486
      -0.447
      -0.438
      -0.475
      -0.552
      -0.651
      -0.751
      -0.839
      -0.901
      -0.918
      -0.856
      -0.691
      -0.428
      -0.116
       0.175
       0.388
       0.504
       0.537
       0.503
       0.405
       0.233
      -0.005
      -0.267
      -0.475
      -0.563
      -0.516
      -0.379
      -0.228
      -0.114
      -0.045
      -0.002
       0.031
       0.067
       0.141
       0.308
       0.607
       1.009
       1.415
       1.701
       1.778
       1.626
       1.297
       0.870
       0.427
       0.038
      -0.242
      -0.374
      -0.358
      -0.250
      -0.141
      -0.108
      -0.179
      -0.316
      -0.445
      -0.490
      -0.405
      -0.176
       0.174
       0.590
       0.983
       1.250
       1.304
       1.113
       0.721
       0.244
      -0.174
      -0.417
      -0.451
      -0.331
      -0.158
      -0.018
       0.057
       0.069
       0.008
      -0.163
      -0.468
      -0.856
      -1.193
      -1.328
      -1.190
      -0.828
      -0.379
       0.013
       0.245
       0.291
       0.205
       0.098
       0.094
       0.258
       0.567
       0.928
       1.239
       1.442
       1.507
       1.402
       1.086
       0.550
      -0.139
      -0.828
      -1.340
      -1.550
      -1.440
      -1.097
      -0.663
      -0.261
       0.047
       0.245
       0.324
       0.259
       0.034
      -0.311
      -0.677
      -0.937
      -1.003
      -0.867
      -0.593
      -0.286
      -0.038
       0.098
       0.107
      -0.004
      -0.220
      -0.513
      -0.833
      -1.104
      -1.236
      -1.155
      -0.842
      -0.361
       0.149
       0.539
       0.727
       0.737
       0.677
       0.663
       0.751
       0.923
       1.129
       1.346
       1.584
       1.835
       2.025
       2.026
       1.735
       1.160
       0.434
      -0.248
      -0.725
      -0.924
      -0.865
      -0.621
      -0.301
      -0.028
       0.085
      -0.023
      -0.332
      -0.749
      -1.156
      -1.456
      -1.599
      -1.576
      -1.402
      -1.107
      -0.736
      -0.346
       0.002
       0.259
       0.408
       0.468
       0.478
       0.483
       0.513
       0.573
       0.657
       0.745
       0.811
       0.815
       0.711
       0.464
       0.080
      -0.379
      -0.805
      -1.077
      -1.104
      -0.867
      -0.430
       0.085
       0.544
       0.847
       0.953
       0.879
       0.678
       0.410
       0.133
      -0.115
      -0.315
      -0.475
      -0.630
      -0.826
      -1.080
      -1.353
      -1.545
      -1.547
      -1.310
      -0.877
      -0.363
       0.115
       0.489
       0.739
       0.852
       0.799
       0.552
       0.135
      -0.364
      -0.812
      -1.099
      -1.188
      -1.121
      -0.976
      -0.811
      -0.637
      -0.442
      -0.232
      -0.042
       0.089
       0.171
       0.259
       0.409
       0.619
       0.808
       0.859
       0.691
       0.323
      -0.134
      -0.531
      -0.753
      -0.753
      -0.545
      -0.179
       0.278
       0.740
       1.103
       1.279
       1.223
       0.948
       0.519
       0.040
      -0.359
      -0.548
      -0.459
      -0.129
       0.306
       0.696
       0.962
       1.124
       1.229
       1.282
       1.222
       0.985
       0.576
       0.101
      -0.293
      -0.507
      -0.550
      -0.516
      -0.505
      -0.538
      -0.549
      -0.449
      -0.216
       0.069
       0.270
       0.281
       0.090
      -0.236
      -0.601
      -0.936
      -1.193
      -1.323
      -1.266
      -0.979
      -0.488
       0.114
       0.690
       1.122
       1.344
       1.352
       1.196
       0.966
       0.751
       0.605
       0.528
       0.477
       0.385
       0.198
      -0.108
      -0.515
      -0.955
      -1.329
      -1.542
      -1.539
      -1.339
      -1.009
      -0.628
      -0.240
       0.145
       0.520
       0.854
       1.098
       1.213
       1.199
       1.106
       1.000
       0.924
       0.879
       0.837
       0.781
       0.726
       0.711
       0.769
       0.887
       1.000
       1.012
       0.852
       0.518
       0.084
      -0.331
      -0.626
      -0.753
      -0.720
      -0.574
      -0.372
      -0.170
      -0.009
       0.089
       0.129
       0.135
       0.136
       0.150
       0.175
       0.187
       0.167
       0.116
       0.059
       0.016
      -0.017
      -0.074
      -0.187
      -0.351
      -0.524
      -0.661
      -0.753
      -0.841
      -0.980
      -1.175
      -1.359
      -1.429
      -1.323
      -1.063
      -0.726
      -0.374
      -0.009
       0.402
       0.864
       1.317
       1.653
       1.779
       1.670
       1.388
       1.051
       0.783
       0.675
       0.764
       1.029
       1.390
       1.709
       1.816
       1.574
       0.933
      -0.036
      -1.170
      -2.261
      -3.119
      -3.609
      -3.677
      -3.351
      -2.737
      -2.006
      -1.361
      -0.972
      -0.897
      -1.054
      -1.285
      -1.451
      -1.486
      -1.377
      -1.128
      -0.763
      -0.349
      -0.002
       0.170
       0.136
      -0.020
      -0.142
      -0.095
       0.141
       0.476
       0.773
       0.944
       0.972
       0.876
       0.672
       0.363
      -0.026
      -0.436
      -0.773
      -0.948
      -0.924
      -0.738
      -0.480
      -0.260
      -0.170
      -0.261
      -0.517
      -0.841
      -1.083
      -1.124
      -0.952
      -0.661
      -0.369
      -0.134
       0.070
       0.284
       0.495
       0.620
       0.574
       0.349
       0.038
      -0.218
      -0.314
      -0.226
       0.001
       0.306
       0.645
       0.988
       1.311
       1.590
       1.816
       1.978
       2.058
       2.021
       1.855
       1.596
       1.315
       1.063
       0.832
       0.576
       0.278
      -0.004
      -0.157
      -0.085
       0.209
       0.613
       0.953
       1.080
       0.926
       0.507
      -0.101
      -0.792
      -1.444
      -1.940
      -2.201
      -2.203
      -1.971
      -1.553
      -1.020
      -0.455
       0.041
       0.383
       0.536
       0.532
       0.461
       0.421
       0.473
       0.599
       0.710
       0.704
       0.529
       0.212
      -0.158
      -0.496
      -0.759
      -0.940
      -1.028
      -0.994
      -0.821
      -0.533
      -0.189
       0.149
       0.457
       0.738
       0.987
       1.176
       1.264
       1.232
       1.102
       0.929
       0.773
       0.669
       0.604
       0.525
       0.376
       0.125
      -0.214
      -0.583
      -0.902
      -1.123
      -1.259
      -1.376
      -1.535
      -1.733
      -1.891
      -1.911
      -1.743
      -1.424
      -1.051
      -0.713
      -0.447
      -0.230
      -0.023
       0.190
       0.381
       0.505
       0.539
       0.503
       0.432
       0.347
       0.252
       0.164
       0.122
       0.156
       0.238
       0.292
       0.253
       0.123
      -0.030
      -0.144
      -0.212
      -0.275
      -0.368
      -0.477
      -0.547
      -0.530
      -0.418
      -0.240
      -0.040
       0.145
       0.305
       0.464
       0.682
       1.012
       1.453
       1.929
       2.326
       2.552
       2.573
       2.418
       2.145
       1.815
       1.479
       1.157
       0.843
       0.516
       0.155
      -0.247
      -0.687
      -1.151
      -1.610
      -2.005
      -2.249
      -2.245
      -1.937
      -1.348
      -0.598
       0.130
       0.664
       0.901
       0.836
       0.540
       0.121
      -0.313
      -0.679
      -0.935
      -1.082
      -1.144
      -1.152
      -1.124
      -1.078
      -1.036
      -1.038
      -1.114
      -1.253
      -1.391
      -1.425
      -1.270
      -0.897
      -0.341
       0.331
       1.039
       1.701
       2.223
       2.517
       2.538
       2.321
       1.970
       1.607
       1.314
       1.109
       0.969
       0.859
       0.741
       0.569
       0.302
      -0.073
      -0.520
      -0.960
      -1.297
      -1.458
      -1.419
      -1.220
      -0.950
      -0.715
      -0.583
      -0.549
      -0.527
      -0.395
      -0.067
       0.451
       1.057
       1.610
       1.999
       2.193
       2.227
       2.161
       2.026
       1.818
       1.538
       1.241
       1.031
       0.997
       1.151
       1.398
       1.587
       1.586
       1.344
       0.906
       0.380
      -0.126
      -0.552
      -0.896
      -1.188
      -1.459
      -1.714
      -1.930
      -2.070
      -2.113
      -2.076
      -2.000
      -1.923
      -1.846
      -1.729
      -1.518
      -1.182
      -0.742
      -0.257
       0.213
       0.642
       1.035
       1.395
       1.691
       1.863
       1.861
       1.695
       1.448
       1.225
       1.087
       1.013
       0.920
       0.728
       0.405
      -0.027
      -0.532
      -1.085
      -1.663
      -2.219
      -2.664
      -2.916
      -2.948
      -2.816
      -2.632
      -2.507
      -2.489
      -2.549
      -2.601
      -2.552
      -2.359
      -2.034
      -1.618
      -1.127
      -0.540
       0.169
       0.977
       1.790
       2.481
       2.954
       3.182
       3.197
       3.043
       2.738
       2.293
       1.747
       1.191
       0.737
       0.447
       0.297
       0.206
       0.115
       0.026
      -0.023
      -0.015
       0.019
       0.038
       0.026
       0.009
       0.016
       0.050
       0.088
       0.100
       0.063
      -0.036
      -0.203
      -0.419
      -0.634
      -0.782
      -0.824
      -0.784
      -0.738
      -0.763
      -0.882
      -1.052
      -1.192
      -1.229
      -1.111
      -0.810
      -0.325
       0.290
       0.921
       1.432
       1.736
       1.834
       1.793
       1.689
       1.564
       1.435
       1.321
       1.244
       1.214
       1.209
       1.179
       1.075
       0.884
       0.632
       0.375
       0.168
       0.038
      -0.040
      -0.133
      -0.312
      -0.599
      -0.946
      -1.268
      -1.512
      -1.677
      -1.782
      -1.816
      -1.730
      -1.491
      -1.124
      -0.711
      -0.348
      -0.110
      -0.039
      -0.155
      -0.440
      -0.818
      -1.159
