Origin Time       2/8/2013 02:32:05	  UTC
Lat.              33.5 N	
Long.             75.5 E	
Depth (Km)         28.0
Magnitude         5.4
 Region           JK-HP-Border                                                     
 Above details taken from IMD 
    
Station Code      CHM
Station Lat.       32.555  N
Station Long.      76.126  E
Station Height(m)  952.0
Site Class        A   Vs30 between 700 m/sec to 1400 m/sec * 
Record Time       02.08.2013 02:32:22.284 UTC
Sampling Rate     200. Hz
 Record Duration   88.540 Sec.
 Direction         N-S (N positive)
Max. Acceleration      5.454 cm/sec**2
     
  * For reference see Site Classification link of website 
     
 Base Line Corrected and Low Pass Filtered (Cut Off at 35 Hz) Time History
 Acceleration data in cm/sec**2
    
[...]
      -2.565
      -2.445
      -2.178
      -1.791
      -1.347
      -0.928
      -0.606
      -0.399
      -0.261
      -0.103
       0.151
       0.517
       0.937
       1.330
       1.657
       1.949
       2.270
       2.653
       3.062
       3.421
       3.666
       3.782
       3.792
       3.727
       3.596
       3.402
       3.154
       2.878
       2.607
       2.363
       2.144
       1.929
       1.684
       1.371
       0.957
       0.431
      -0.188
      -0.865
      -1.563
      -2.267
      -2.975
      -3.677
      -4.327
      -4.843
      -5.136
      -5.150
      -4.890
      -4.415
      -3.812
      -3.163
      -2.525
      -1.936
      -1.427
      -1.021
      -0.734
      -0.549
      -0.420
      -0.291
      -0.121
       0.095
       0.329
       0.551
       0.745
       0.913
       1.058
       1.177
       1.252
       1.269
       1.225
       1.129
       0.999
       0.845
       0.669
       0.468
       0.257
       0.073
      -0.028
      -0.001
       0.165
       0.442
       0.781
       1.145
       1.521
       1.913
       2.323
       2.730
       3.087
       3.334
       3.423
       3.346
       3.144
       2.889
       2.645
       2.436
       2.238
       2.002
       1.687
       1.272
       0.762
       0.165
      -0.513
      -1.268
      -2.079
      -2.896
      -3.649
      -4.269
      -4.705
      -4.938
      -4.967
      -4.800
      -4.457
      -3.973
      -3.402
      -2.812
      -2.264
      -1.800
      -1.427
      -1.118
      -0.817
      -0.461
      -0.007
       0.545
       1.150
       1.736
       2.230
       2.590
       2.801
       2.875
       2.823
       2.650
       2.365
       1.997
       1.595
       1.210
       0.873
       0.581
       0.312
       0.051
      -0.189
      -0.363
      -0.421
      -0.341
      -0.158
       0.051
       0.205
       0.272
       0.278
       0.285
       0.338
       0.437
       0.543
       0.603
       0.580
       0.465
       0.273
       0.030
      -0.229
      -0.475
      -0.679
      -0.820
      -0.886
      -0.875
      -0.798
      -0.677
      -0.534
      -0.390
      -0.252
      -0.111
       0.046
       0.229
       0.435
       0.650
       0.857
       1.035
       1.162
       1.218
       1.189
       1.074
       0.894
       0.688
       0.494
       0.335
       0.202
       0.055
      -0.157
      -0.468
      -0.866
      -1.293
      -1.670
      -1.932
      -2.059
      -2.072
      -2.016
      -1.928
      -1.813
      -1.650
      -1.404
      -1.055
      -0.614
      -0.118
       0.386
       0.851
       1.243
       1.544
       1.771
       1.967
       2.177
       2.417
       2.653
       2.823
       2.875
       2.785
       2.552
       2.165
       1.591
       0.802
      -0.186
      -1.289
      -2.369
      -3.288
      -3.962
      -4.382
      -4.597
      -4.667
      -4.635
      -4.512
      -4.288
      -3.944
      -3.471
      -2.872
      -2.159
      -1.357
      -0.501
       0.352
       1.134
       1.789
       2.295
       2.673
       2.962
       3.199
       3.403
       3.577
       3.716
       3.812
       3.845
       3.778
       3.562
       3.167
       2.599
       1.909
       1.176
       0.476
      -0.140
      -0.649
      -1.047
      -1.346
      -1.570
      -1.756
      -1.933
      -2.106
      -2.249
      -2.310
      -2.238
      -2.004
      -1.620
      -1.137
      -0.624
      -0.153
       0.223
       0.474
       0.595
       0.598
       0.523
       0.418
       0.328
       0.262
       0.191
       0.062
      -0.167
      -0.499
      -0.894
      -1.280
      -1.587
      -1.765
      -1.793
      -1.674
      -1.433
      -1.116
      -0.788
      -0.521
      -0.369
      -0.334
      -0.358
      -0.340
      -0.186
       0.143
       0.612
       1.141
       1.647
       2.081
       2.431
       2.704
       2.903
       3.032
       3.084
       3.045
       2.887
       2.575
       2.093
       1.460
       0.723
      -0.062
      -0.844
      -1.573
      -2.195
      -2.661
      -2.948
      -3.076
      -3.098
      -3.067
      -2.994
      -2.847
      -2.565
      -2.104
      -1.470
      -0.718
       0.065
       0.800
       1.435
       1.940
       2.297
       2.504
       2.580
       2.570
       2.530
       2.503
       2.495
       2.485
       2.447
       2.369
       2.248
       2.078
       1.843
       1.532
       1.149
       0.717
       0.254
      -0.232
      -0.741
      -1.259
      -1.749
      -2.161
      -2.445
      -2.568
      -2.517
      -2.309
      -1.978
      -1.570
      -1.111
      -0.609
      -0.068
       0.485
       0.986
       1.355
       1.545
       1.561
       1.457
       1.295
       1.115
       0.923
       0.704
       0.450
       0.171
      -0.108
      -0.365
      -0.606
      -0.854
      -1.125
      -1.399
      -1.615
      -1.710
      -1.652
      -1.458
      -1.180
      -0.870
      -0.566
      -0.290
      -0.066
       0.082
       0.148
       0.153
       0.140
       0.154
       0.217
       0.320
       0.443
       0.572
       0.717
       0.895
       1.105
       1.309
       1.445
       1.455
       1.313
       1.029
       0.640
       0.203
      -0.212
      -0.542
      -0.758
      -0.879
      -0.968
      -1.091
      -1.270
      -1.480
      -1.667
      -1.792
      -1.844
      -1.838
      -1.784
      -1.681
      -1.522
      -1.298
      -1.008
      -0.648
      -0.220
       0.262
       0.759
       1.209
       1.540
       1.694
       1.638
       1.364
       0.885
       0.234
      -0.527
      -1.308
      -2.003
      -2.518
      -2.796
      -2.834
      -2.675
      -2.381
      -2.016
      -1.631
      -1.269
      -0.961
      -0.724
      -0.546
      -0.394
      -0.226
      -0.009
       0.267
       0.589
       0.929
       1.258
       1.549
       1.783
       1.956
       2.078
       2.165
       2.225
       2.246
       2.211
       2.110
       1.944
       1.733
       1.506
       1.289
       1.095
       0.923
       0.758
       0.586
       0.400
       0.204
       0.006
      -0.190
      -0.390
      -0.601
      -0.827
      -1.058
      -1.276
      -1.462
      -1.606
      -1.712
      -1.780
      -1.793
      -1.710
      -1.491
      -1.129
      -0.674
      -0.214
       0.157
       0.379
       0.431
       0.316
       0.057
      -0.307
      -0.702
      -1.035
      -1.228
      -1.252
      -1.134
      -0.935
      -0.716
      -0.502
      -0.287
      -0.045
       0.241
       0.570
       0.912
       1.223
       1.460
       1.600
       1.654
       1.664
       1.673
       1.702
       1.732
       1.720
       1.631
       1.471
       1.282
       1.113
       0.982
       0.867
       0.722
       0.513
       0.240
      -0.068
      -0.372
      -0.644
      -0.875
      -1.071
      -1.231
      -1.341
      -1.374
      -1.309
      -1.150
      -0.928
      -0.691
      -0.486
      -0.350
      -0.295
      -0.315
      -0.376
      -0.426
      -0.416
      -0.322
      -0.160
       0.027
       0.195
       0.320
       0.406
       0.478
       0.567
       0.692
       0.848
       1.014
       1.154
       1.236
       1.253
       1.218
       1.151
       1.068
       0.967
       0.850
       0.735
       0.666
       0.683
       0.798
       0.972
       1.124
       1.162
       1.029
       0.722
       0.293
      -0.176
      -0.610
      -0.958
      -1.203
      -1.342
      -1.384
      -1.337
      -1.223
      -1.075
      -0.933
      -0.823
      -0.744
      -0.674
      -0.586
      -0.467
      -0.313
      -0.125
       0.098
       0.344
       0.580
       0.757
       0.831
       0.795
       0.684
       0.543
       0.406
       0.277
       0.147
       0.002
      -0.160
      -0.340
      -0.532
      -0.724
      -0.889
      -0.987
      -0.982
      -0.852
      -0.608
      -0.284
       0.078
       0.441
       0.776
       1.065
       1.289
       1.427
       1.463
       1.396
       1.245
       1.049
       0.858
       0.719
       0.654
       0.648
       0.656
       0.616
       0.482
       0.241
      -0.076
      -0.413
      -0.711
      -0.934
      -1.078
      -1.157
      -1.182
      -1.150
      -1.049
      -0.877
      -0.655
      -0.422
      -0.219
      -0.071
       0.020
       0.065
       0.074
       0.049
      -0.003
      -0.067
      -0.117
      -0.132
      -0.101
      -0.030
       0.062
       0.151
       0.214
       0.232
       0.184
       0.063
      -0.122
      -0.342
      -0.563
      -0.759
      -0.926
      -1.077
      -1.223
      -1.358
      -1.466
      -1.527
      -1.528
      -1.464
      -1.322
      -1.073
      -0.697
      -0.204
       0.348
       0.871
       1.289
       1.568
       1.722
       1.791
       1.814
       1.808
       1.768
       1.670
       1.494
       1.238
       0.924
       0.591
       0.268
      -0.032
      -0.313
      -0.584
      -0.851
      -1.118
      -1.384
      -1.641
      -1.875
      -2.069
      -2.209
      -2.288
      -2.301
      -2.237
      -2.071
      -1.788
      -1.395
      -0.934
      -0.457
      -0.002
       0.421
       0.818
       1.184
       1.500
       1.741
       1.902
       1.999
       2.059
       2.091
       2.082
       2.002
       1.829
       1.556
       1.189
       0.741
       0.237
      -0.279
      -0.748
      -1.118
      -1.363
      -1.488
      -1.513
      -1.449
      -1.295
      -1.051
      -0.741
      -0.413
      -0.119
       0.111
       0.288
       0.444
       0.600
       0.754
       0.884
       0.973
       1.033
       1.090
       1.168
       1.272
       1.379
       1.450
       1.438
       1.306
       1.036
       0.645
       0.181
      -0.294
      -0.732
      -1.108
      -1.421
      -1.687
      -1.910
      -2.080
      -2.163
      -2.123
      -1.941
      -1.629
      -1.236
      -0.826
      -0.448
      -0.116
       0.199
       0.545
       0.950
       1.398
       1.836
       2.205
       2.470
       2.626
       2.687
       2.658
       2.533
       2.307
       1.988
       1.607
       1.204
       0.814
       0.453
       0.116
      -0.229
      -0.615
      -1.052
      -1.516
      -1.959
      -2.335
      -2.624
      -2.828
      -2.956
      -3.009
      -2.972
      -2.826
      -2.559
      -2.181
      -1.717
      -1.201
      -0.677
      -0.186
       0.231
       0.551
       0.780
       0.940
       1.056
       1.137
       1.168
       1.130
       1.012
       0.822
       0.577
       0.296
       0.001
      -0.270
      -0.454
      -0.476
      -0.292
       0.087
       0.580
       1.077
       1.482
       1.740
       1.846
       1.834
       1.752
       1.648
       1.556
       1.486
       1.437
       1.401
       1.375
       1.358
       1.340
       1.296
       1.199
       1.034
       0.811
       0.561
       0.319
       0.106
      -0.085
      -0.275
      -0.482
      -0.705
      -0.928
      -1.128
      -1.288
      -1.395
      -1.442
      -1.429
      -1.365
      -1.266
      -1.151
      -1.033
      -0.921
      -0.819
      -0.743
      -0.713
      -0.744
      -0.838
      -0.970
      -1.098
      -1.184
      -1.206
      -1.168
      -1.103
      -1.060
      -1.084
      -1.186
      -1.332
      -1.456
      -1.493
      -1.418
      -1.249
      -1.030
      -0.800
      -0.573
      -0.343
      -0.106
       0.123
       0.320
       0.480
       0.631
       0.814
       1.049
       1.317
       1.573
       1.779
       1.931
       2.042
       2.119
       2.148
       2.105
       1.985
       1.809
       1.616
       1.434
       1.268
       1.107
       0.943
       0.787
       0.655
       0.558
       0.487
       0.429
       0.378
       0.348
       0.346
       0.361
       0.362
       0.322
       0.236
       0.122
       0.003
      -0.115
      -0.245
      -0.414
      -0.649
      -0.959
      -1.327
      -1.704
      -2.033
      -2.267
      -2.389
      -2.401
      -2.319
      -2.169
      -1.991
      -1.844
      -1.784
      -1.835
      -1.963
      -2.082
      -2.093
      -1.926
      -1.565
      -1.042
      -0.409
       0.294
       1.044
       1.825
       2.613
       3.366
       4.040
       4.605
       5.044
       5.338
       5.454
       5.352
       5.009
       4.440
       3.709
       2.901
       2.094
       1.340
       0.665
       0.081
      -0.410
      -0.820
      -1.183
      -1.537
      -1.907
      -2.289
      -2.652
      -2.953
      -3.152
      -3.220
      -3.140
      -2.906
      -2.527
      -2.032
      -1.467
      -0.895
      -0.377
       0.041
       0.329
       0.478
       0.495
       0.401
       0.225
       0.000
      -0.244
      -0.485
      -0.714
      -0.927
      -1.119
      -1.282
      -1.409
      -1.502
      -1.570
      -1.625
      -1.671
      -1.692
      -1.672
      -1.601
      -1.498
      -1.400
      -1.340
      -1.322
      -1.315
      -1.274
      -1.162
      -0.964
      -0.677
      -0.304
       0.142
       0.631
       1.108
       1.513
       1.803
       1.974
       2.050
       2.063
       2.028
       1.933
       1.762
       1.508
       1.184
       0.808
       0.393
      -0.051
      -0.501
      -0.918
      -1.256
      -1.479
      -1.573
      -1.547
      -1.419
      -1.219
      -0.986
      -0.764
      -0.573
      -0.399
      -0.194
       0.086
       0.449
       0.857
       1.249
       1.574
       1.802
       1.919
       1.911
       1.774
       1.527
       1.225
       0.939
       0.726
       0.593
       0.501
       0.392
       0.230
       0.017
      -0.203
      -0.372
      -0.449
      -0.426
      -0.336
      -0.235
      -0.170
      -0.156
      -0.171
      -0.170
      -0.119
      -0.009
       0.144
       0.324
       0.531
       0.780
       1.069
       1.369
       1.626
       1.791
       1.852
       1.836
       1.788
       1.732
       1.654
       1.514
       1.281
       0.959
       0.582
       0.188
      -0.202
      -0.583
      -0.947
      -1.269
      -1.515
      -1.648
      -1.654
      -1.546
      -1.358
      -1.135
      -0.921
      -0.753
      -0.656
      -0.633
      -0.665
      -0.711
      -0.730
      -0.695
      -0.607
      -0.494
      -0.401
      -0.366
      -0.409
      -0.529
      -0.704
      -0.899
      -1.078
      -1.200
      -1.234
      -1.164
      -1.002
      -0.792
      -0.593
      -0.455
      -0.384
      -0.344
      -0.275
      -0.125
       0.129
       0.478
       0.894
       1.343
       1.779
       2.152
       2.410
       2.510
       2.426
       2.147
       1.670
       1.017
       0.250
      -0.529
      -1.202
      -1.677
      -1.922
      -1.976
      -1.927
      -1.868
      -1.848
      -1.870
      -1.896
      -1.882
      -1.789
      -1.594
      -1.295
      -0.904
      -0.447
       0.050
       0.556
       1.043
       1.477
       1.824
       2.053
       2.149
       2.119
       1.986
       1.778
       1.514
       1.201
       0.842
       0.452
       0.063
      -0.276
      -0.516
      -0.631
      -0.630
      -0.549
      -0.435
      -0.324
      -0.233
      -0.162
      -0.100
      -0.025
       0.088
       0.253
       0.453
       0.639
       0.754
       0.774
       0.731
       0.695
       0.722
       0.824
       0.968
       1.100
       1.180
       1.183
       1.098
       0.920
       0.654
       0.323
      -0.049
      -0.435
      -0.824
      -1.208
      -1.582
      -1.937
      -2.257
      -2.529
      -2.738
      -2.860
      -2.867
      -2.738
      -2.471
      -2.091
      -1.640
      -1.154
      -0.657
      -0.160
       0.327
       0.782
       1.172
       1.462
       1.626
       1.659
       1.580
       1.432
       1.276
       1.168
       1.134
       1.159
       1.194
       1.191
       1.128
       1.019
       0.901
       0.808
       0.743
       0.688
       0.616
       0.514
       0.388
       0.249
       0.097
      -0.078
      -0.284
      -0.517
      -0.761
      -0.992
      -1.187
      -1.329
      -1.408
      -1.431
      -1.421
      -1.406
      -1.405
      -1.415
      -1.422
      -1.405
      -1.343
      -1.221
      -1.034
      -0.789
      -0.508
      -0.222
       0.036
       0.245
       0.398
       0.500
       0.559
       0.576
       0.546
       0.466
       0.343
       0.204
       0.089
       0.029
       0.036
       0.097
       0.183
       0.272
       0.357
       0.449
       0.565
       0.710
       0.876
       1.042
       1.193
       1.315
       1.405
       1.463
       1.488
       1.480
       1.430
       1.323
       1.142
       0.876
       0.526
       0.126
      -0.264
      -0.562
      -0.700
      -0.645
      -0.416
      -0.072
       0.309
       0.657
       0.923
       1.087
       1.146
       1.111
       1.000
       0.841
       0.665
       0.500
       0.348
       0.179
      -0.058
      -0.410
      -0.884
      -1.436
      -1.980
      -2.425
      -2.714
      -2.838
      -2.829
      -2.736
      -2.597
      -2.435
      -2.250
      -2.035
      -1.776
      -1.469
      -1.124
      -0.768
      -0.437
      -0.163
       0.031
       0.134
       0.142
       0.061
      -0.097
      -0.304
      -0.525
      -0.722
      -0.850
      -0.853
      -0.672
      -0.276
       0.308
       0.993
       1.667
       2.239
       2.659
       2.901
       2.950
       2.806
       2.500
       2.110
       1.739
       1.466
       1.307
       1.217
       1.128
       0.996
       0.823
       0.648
