Origin Time       2/8/2013 02:32:05	 
Lat.              33.5 N	
Long.             75.5 E	
Depth (Km)         28.0
Magnitude         5.4
 Region           JK-HP-Border                                                     
 Above details taken from IMD 
     
Station Code      CHM
Station Lat.       32.555  N
Station Long.      76.126  E
Station Height(m)  952.0
Site Class        A   Vs30 between 700 m/sec to 1400 m/sec * 
Record Time       02.08.2013 02:32:22.284
Sampling Rate     200. Hz
 Record Duration   88.540 Sec.
 Direction         E-W (E positive)
Max. Acceleration      4.533 cm/sec**2
     
  * For reference see Site Classification link of website 
     
 Base Line Corrected and Low Pass Filtered (Cut Off at 35 Hz) Time History
 Acceleration data in cm/sec**2
    
[...]
       0.340
       0.329
       0.263
       0.171
       0.095
       0.068
       0.095
       0.153
       0.204
       0.217
       0.180
       0.105
       0.025
      -0.019
       0.009
       0.114
       0.261
       0.385
       0.422
       0.346
       0.183
      -0.012
      -0.193
      -0.346
      -0.474
      -0.575
      -0.634
      -0.638
      -0.583
      -0.472
      -0.313
      -0.122
       0.068
       0.217
       0.298
       0.321
       0.325
       0.341
       0.369
       0.383
       0.360
       0.308
       0.256
       0.221
       0.185
       0.114
      -0.007
      -0.152
      -0.274
      -0.346
      -0.386
      -0.436
      -0.517
      -0.609
      -0.664
      -0.643
      -0.543
      -0.384
      -0.191
       0.011
       0.193
       0.319
       0.361
       0.321
       0.230
       0.126
       0.023
      -0.089
      -0.222
      -0.365
      -0.494
      -0.584
      -0.632
      -0.640
      -0.602
      -0.501
      -0.332
      -0.126
       0.056
       0.150
       0.130
       0.027
      -0.088
      -0.138
      -0.078
       0.103
       0.385
       0.732
       1.090
       1.395
       1.580
       1.602
       1.465
       1.210
       0.890
       0.545
       0.198
      -0.123
      -0.376
      -0.521
      -0.543
      -0.469
      -0.358
      -0.258
      -0.180
      -0.104
      -0.010
       0.096
       0.183
       0.216
       0.185
       0.117
       0.063
       0.059
       0.104
       0.152
       0.142
       0.045
      -0.112
      -0.268
      -0.373
      -0.428
      -0.481
      -0.576
      -0.712
      -0.838
      -0.885
      -0.822
      -0.667
      -0.470
      -0.269
      -0.062
       0.175
       0.449
       0.728
       0.946
       1.038
       0.975
       0.781
       0.521
       0.265
       0.057
      -0.094
      -0.204
      -0.284
      -0.327
      -0.316
      -0.249
      -0.159
      -0.106
      -0.145
      -0.281
      -0.470
      -0.646
      -0.769
      -0.840
      -0.885
      -0.916
      -0.921
      -0.872
      -0.756
      -0.592
      -0.417
      -0.264
      -0.138
      -0.023
       0.102
       0.227
       0.320
       0.339
       0.271
       0.135
      -0.031
      -0.193
      -0.324
      -0.402
      -0.405
      -0.329
      -0.196
      -0.042
       0.103
       0.229
       0.337
       0.412
       0.418
       0.331
       0.179
       0.046
       0.026
       0.160
       0.410
       0.686
       0.908
       1.051
       1.135
       1.190
       1.210
       1.151
       0.969
       0.666
       0.301
      -0.031
      -0.260
      -0.371
      -0.406
      -0.426
      -0.478
      -0.578
      -0.722
      -0.894
      -1.070
      -1.210
      -1.252
      -1.135
      -0.829
      -0.357
       0.195
       0.708
       1.079
       1.267
       1.291
       1.205
       1.057
       0.887
       0.723
       0.586
       0.483
       0.406
       0.339
       0.268
       0.185
       0.094
       0.004
      -0.070
      -0.111
      -0.111
      -0.077
      -0.036
      -0.018
      -0.042
      -0.108
      -0.211
      -0.341
      -0.486
      -0.618
      -0.695
      -0.680
      -0.557
      -0.338
      -0.060
       0.236
       0.505
       0.700
       0.781
       0.724
       0.534
       0.236
      -0.130
      -0.521
      -0.885
      -1.162
      -1.293
      -1.254
      -1.076
      -0.836
      -0.625
      -0.491
      -0.431
      -0.403
      -0.358
      -0.265
      -0.113
       0.088
       0.311
       0.513
       0.644
       0.665
       0.576
       0.414
       0.235
       0.081
      -0.031
      -0.104
      -0.150
      -0.189
      -0.248
      -0.354
      -0.520
      -0.729
      -0.930
      -1.057
      -1.047
      -0.865
      -0.510
      -0.030
       0.485
       0.919
       1.166
       1.181
       0.997
       0.704
       0.408
       0.176
       0.027
      -0.050
      -0.073
      -0.053
      -0.001
       0.055
       0.079
       0.039
      -0.076
      -0.269
      -0.538
      -0.873
      -1.233
      -1.540
      -1.706
      -1.677
      -1.468
      -1.153
      -0.829
      -0.565
      -0.384
      -0.258
      -0.135
       0.033
       0.260
       0.506
       0.695
       0.760
       0.684
       0.511
       0.311
       0.147
       0.041
      -0.017
      -0.045
      -0.050
      -0.030
       0.006
       0.029
       0.002
      -0.097
      -0.251
      -0.414
      -0.531
      -0.572
      -0.534
      -0.434
      -0.284
      -0.090
       0.149
       0.418
       0.677
       0.862
       0.917
       0.825
       0.620
       0.375
       0.167
       0.050
       0.049
       0.154
       0.328
       0.520
       0.677
       0.762
       0.758
       0.670
       0.502
       0.255
      -0.069
      -0.453
      -0.859
      -1.227
      -1.494
      -1.601
      -1.507
      -1.199
      -0.701
      -0.076
       0.581
       1.167
       1.595
       1.813
       1.807
       1.613
       1.294
       0.930
       0.596
       0.350
       0.221
       0.200
       0.244
       0.304
       0.351
       0.376
       0.375
       0.333
       0.236
       0.085
      -0.084
      -0.219
      -0.275
      -0.237
      -0.120
       0.038
       0.192
       0.299
       0.330
       0.282
       0.187
       0.099
       0.075
       0.145
       0.317
       0.591
       0.957
       1.382
       1.793
       2.095
       2.221
       2.166
       1.975
       1.696
       1.349
       0.926
       0.435
      -0.072
      -0.514
      -0.830
      -1.009
      -1.074
      -1.045
      -0.916
      -0.675
      -0.341
       0.023
       0.331
       0.507
       0.511
       0.349
       0.073
      -0.242
      -0.518
      -0.702
      -0.781
      -0.775
      -0.709
      -0.601
      -0.457
      -0.289
      -0.132
      -0.041
      -0.055
      -0.179
      -0.369
      -0.568
      -0.738
      -0.870
      -0.975
      -1.064
      -1.137
      -1.187
      -1.205
      -1.188
      -1.140
      -1.072
      -0.993
      -0.899
      -0.763
      -0.544
      -0.218
       0.199
       0.641
       1.019
       1.259
       1.326
       1.230
       0.999
       0.661
       0.246
      -0.199
      -0.592
      -0.848
      -0.922
      -0.834
      -0.655
      -0.464
      -0.304
      -0.177
      -0.074
      -0.003
       0.013
      -0.037
      -0.129
      -0.207
      -0.215
      -0.119
       0.084
       0.381
       0.750
       1.163
       1.595
       2.022
       2.411
       2.710
       2.851
       2.766
       2.422
       1.832
       1.066
       0.230
      -0.561
      -1.223
      -1.708
      -1.997
      -2.082
      -1.971
      -1.706
      -1.370
      -1.064
      -0.870
      -0.824
      -0.909
      -1.082
      -1.293
      -1.500
      -1.660
      -1.723
      -1.637
      -1.375
      -0.964
      -0.482
      -0.034
       0.293
       0.456
       0.462
       0.348
       0.162
      -0.051
      -0.253
      -0.406
      -0.478
      -0.445
      -0.300
      -0.058
       0.247
       0.559
       0.820
       0.998
       1.105
       1.189
       1.294
       1.433
       1.583
       1.707
       1.780
       1.802
       1.775
       1.683
       1.478
       1.104
       0.526
      -0.246
      -1.155
      -2.107
      -2.996
      -3.721
      -4.207
      -4.423
      -4.384
      -4.133
      -3.722
      -3.183
      -2.535
      -1.797
      -1.001
      -0.203
       0.533
       1.155
       1.642
       1.998
       2.230
       2.341
       2.330
       2.217
       2.046
       1.870
       1.730
       1.637
       1.571
       1.498
       1.372
       1.156
       0.840
       0.448
       0.035
      -0.342
      -0.650
      -0.887
      -1.068
      -1.199
      -1.258
      -1.207
      -1.007
      -0.651
      -0.172
       0.372
       0.914
       1.403
       1.822
       2.188
       2.525
       2.838
       3.099
       3.254
       3.253
       3.068
       2.702
       2.200
       1.628
       1.053
       0.510
      -0.007
      -0.533
      -1.095
      -1.680
      -2.236
      -2.693
      -2.994
      -3.117
      -3.079
      -2.921
      -2.688
      -2.417
      -2.136
      -1.870
      -1.640
      -1.458
      -1.325
      -1.223
      -1.120
      -0.985
      -0.810
      -0.627
      -0.492
      -0.457
      -0.529
      -0.665
      -0.794
      -0.856
      -0.831
      -0.733
      -0.599
      -0.463
      -0.340
      -0.228
      -0.111
       0.027
       0.186
       0.350
       0.500
       0.630
       0.770
       0.967
       1.261
       1.649
       2.077
       2.467
       2.749
       2.888
       2.887
       2.769
       2.561
       2.284
       1.956
       1.601
       1.257
       0.959
       0.717
       0.507
       0.286
       0.018
      -0.316
      -0.705
      -1.111
      -1.464
      -1.676
      -1.667
      -1.405
      -0.934
      -0.361
       0.185
       0.602
       0.844
       0.909
       0.803
       0.510
       0.005
      -0.708
      -1.553
      -2.388
      -3.052
      -3.430
      -3.482
      -3.255
      -2.851
      -2.393
      -1.985
      -1.677
      -1.459
      -1.283
      -1.101
      -0.884
      -0.623
      -0.312
       0.053
       0.464
       0.891
       1.297
       1.662
       2.005
       2.377
       2.805
       3.257
       3.632
       3.819
       3.749
       3.427
       2.907
       2.255
       1.535
       0.806
       0.130
      -0.435
      -0.857
      -1.147
      -1.352
      -1.535
      -1.735
      -1.944
      -2.115
      -2.184
      -2.101
      -1.849
      -1.447
      -0.944
      -0.413
       0.066
       0.430
       0.652
       0.741
       0.731
       0.653
       0.528
       0.374
       0.216
       0.080
      -0.018
      -0.088
      -0.163
      -0.276
      -0.431
      -0.596
      -0.715
      -0.751
      -0.713
      -0.639
      -0.555
      -0.442
      -0.246
       0.066
       0.451
       0.797
       0.995
       1.015
       0.926
       0.848
       0.870
       1.012
       1.232
       1.482
       1.726
       1.944
       2.112
       2.198
       2.177
       2.047
       1.829
       1.549
       1.226
       0.876
       0.517
       0.164
      -0.172
      -0.498
      -0.832
      -1.186
      -1.561
      -1.939
      -2.286
      -2.558
      -2.703
      -2.679
      -2.470
      -2.104
      -1.652
      -1.220
      -0.915
      -0.804
      -0.890
      -1.109
      -1.368
      -1.582
      -1.706
      -1.733
      -1.675
      -1.536
      -1.299
      -0.943
      -0.476
       0.044
       0.523
       0.879
       1.085
       1.171
       1.188
       1.169
       1.118
       1.025
       0.896
       0.760
       0.663
       0.639
       0.690
       0.778
       0.847
       0.857
       0.815
       0.771
       0.793
       0.923
       1.163
       1.465
       1.760
       1.978
       2.078
       2.057
       1.946
       1.802
       1.672
       1.581
       1.529
       1.501
       1.492
       1.509
       1.554
       1.599
       1.589
       1.461
       1.189
       0.801
       0.364
      -0.056
      -0.427
      -0.752
      -1.050
      -1.327
      -1.566
      -1.745
      -1.862
      -1.944
      -2.044
      -2.207
      -2.454
      -2.768
      -3.103
      -3.405
      -3.621
      -3.718
      -3.683
      -3.519
      -3.240
      -2.861
      -2.389
      -1.835
      -1.212
      -0.553
       0.084
       0.617
       0.963
       1.086
       1.031
       0.921
       0.900
       1.056
       1.375
       1.758
       2.094
       2.320
       2.449
       2.537
       2.632
       2.741
       2.834
       2.865
       2.791
       2.593
       2.273
       1.867
       1.427
       1.009
       0.644
       0.331
       0.057
      -0.181
      -0.376
      -0.521
      -0.630
      -0.748
      -0.921
      -1.170
      -1.482
      -1.825
      -2.170
      -2.503
      -2.821
      -3.119
      -3.389
      -3.615
      -3.767
      -3.801
      -3.676
      -3.375
      -2.936
      -2.446
      -2.015
      -1.707
      -1.501
      -1.301
      -1.002
      -0.562
      -0.011
       0.584
       1.175
       1.743
       2.279
       2.756
       3.141
       3.418
       3.608
       3.762
       3.931
       4.135
       4.347
       4.505
       4.533
       4.374
       4.004
       3.445
       2.763
       2.055
       1.415
       0.896
       0.484
       0.124
      -0.237
      -0.600
      -0.922
      -1.153
      -1.279
      -1.332
      -1.360
      -1.397
      -1.435
      -1.440
      -1.383
      -1.258
      -1.083
      -0.891
      -0.714
      -0.586
      -0.533
      -0.562
      -0.650
      -0.757
      -0.845
      -0.887
      -0.852
      -0.698
      -0.395
       0.041
       0.540
       0.998
       1.325
       1.464
       1.390
       1.113
       0.678
       0.168
      -0.309
      -0.659
      -0.839
      -0.865
      -0.787
      -0.646
      -0.460
      -0.242
      -0.016
       0.183
       0.320
       0.371
       0.318
       0.144
      -0.160
      -0.587
      -1.103
      -1.648
      -2.149
      -2.534
      -2.745
      -2.761
      -2.593
      -2.277
      -1.849
      -1.335
      -0.761
      -0.165
       0.402
       0.888
       1.243
       1.435
       1.459
       1.346
       1.162
       0.977
       0.843
       0.780
       0.779
       0.821
       0.885
       0.959
       1.035
       1.102
       1.141
       1.133
       1.074
       0.978
       0.870
       0.772
       0.685
       0.590
       0.450
       0.226
      -0.106
      -0.528
      -0.979
      -1.364
      -1.598
      -1.632
      -1.470
      -1.156
      -0.758
      -0.341
       0.039
       0.342
       0.546
       0.649
       0.663
       0.603
       0.485
       0.323
       0.138
      -0.030
      -0.132
      -0.126
      -0.005
       0.192
       0.400
       0.564
       0.675
       0.763
       0.856
       0.958
       1.045
       1.086
       1.057
       0.938
       0.718
       0.402
       0.030
      -0.331
      -0.614
      -0.784
      -0.860
      -0.893
      -0.931
      -0.986
      -1.033
      -1.045
      -1.011
      -0.949
      -0.890
      -0.853
      -0.839
      -0.835
      -0.820
      -0.769
      -0.658
      -0.471
      -0.222
       0.035
       0.221
       0.273
       0.170
      -0.060
      -0.361
      -0.670
      -0.926
      -1.082
      -1.114
      -1.039
      -0.898
      -0.735
      -0.572
      -0.402
      -0.193
       0.079
       0.404
       0.738
       1.026
       1.231
       1.359
       1.441
       1.508
       1.565
       1.586
       1.542
       1.416
       1.214
       0.952
       0.647
       0.314
      -0.033
      -0.383
      -0.723
      -1.044
      -1.333
      -1.583
      -1.780
      -1.914
      -1.971
      -1.939
      -1.808
      -1.582
      -1.280
      -0.937
      -0.587
      -0.246
       0.097
       0.464
       0.858
       1.240
       1.545
       1.724
       1.780
       1.758
       1.712
       1.668
       1.622
       1.550
       1.420
       1.202
       0.874
       0.450
      -0.009
      -0.411
      -0.685
      -0.805
      -0.791
      -0.680
      -0.508
      -0.298
      -0.073
       0.143
       0.323
       0.443
       0.486
       0.449
       0.348
       0.227
       0.149
       0.174
       0.328
       0.588
       0.893
       1.171
       1.363
       1.440
       1.400
       1.258
       1.035
       0.745
       0.398
       0.000
      -0.435
      -0.884
      -1.311
      -1.683
      -1.966
      -2.133
      -2.170
      -2.096
      -1.955
      -1.805
      -1.676
      -1.553
      -1.384
      -1.118
      -0.741
      -0.296
       0.140
       0.483
       0.676
       0.703
       0.588
       0.375
       0.114
      -0.145
      -0.362
      -0.500
      -0.526
      -0.411
      -0.142
       0.268
       0.764
       1.254
       1.646
       1.880
       1.953
       1.910
       1.821
       1.753
       1.739
       1.769
       1.791
       1.747
       1.606
       1.374
       1.084
       0.764
       0.421
       0.057
      -0.312
      -0.646
      -0.896
      -1.030
      -1.047
      -0.986
      -0.911
      -0.890
      -0.956
      -1.080
      -1.191
      -1.222
      -1.161
      -1.054
      -0.956
      -0.884
      -0.802
      -0.653
      -0.409
      -0.095
       0.226
       0.485
       0.646
       0.709
       0.701
       0.650
       0.580
       0.499
       0.402
       0.274
       0.101
      -0.115
      -0.355
      -0.580
      -0.748
      -0.827
      -0.808
      -0.715
      -0.596
      -0.510
      -0.496
      -0.550
      -0.626
      -0.653
      -0.582
      -0.414
      -0.198
       0.003
       0.158
       0.267
       0.345
       0.386
       0.355
       0.212
      -0.050
      -0.388
      -0.727
      -0.996
      -1.164
      -1.244
      -1.279
      -1.312
      -1.361
      -1.400
      -1.376
      -1.244
      -1.005
      -0.713
      -0.442
      -0.241
      -0.107
      -0.010
       0.064
       0.089
       0.028
      -0.122
      -0.315
      -0.478
      -0.564
      -0.569
      -0.513
      -0.405
      -0.232
       0.016
       0.306
       0.568
       0.720
       0.726
       0.617
       0.469
       0.347
       0.276
       0.245
       0.239
       0.257
       0.307
       0.384
       0.468
       0.556
       0.673
       0.857
       1.125
       1.439
       1.726
       1.918
       1.985
       1.931
       1.781
       1.555
       1.272
       0.950
       0.608
       0.271
      -0.036
      -0.282
