Origin Time       20/10/2013 19:45:05 UTC
Lat.              35.8 N	
Long.             77.5 E	
Depth (Km)         80.0
Magnitude         5.5
 Region           India-China-Border-Region                                        
 Above details taken from IMD 
    
Station Code      VCD
Station Lat.       28.589  N
Station Long.      77.168  E
Station Height(m)  272.0
Site Class        C   Vs30 between 200 m/sec to 375 m/sec *  
Record Time       20.10.2013 19:47:35.564 UTC
Sampling Rate     200. Hz
 Record Duration   82.500 Sec.
 Direction         N-S (N positive)
Max. Acceleration     -1.273 cm/sec**2
     
  * For reference see Site Classification link of website 
     
 Base Line Corrected and Low Pass Filtered (Cut Off at 35 Hz) Time History
 Acceleration data in cm/sec**2
    
[...]
       0.054
       0.048
       0.039
       0.042
       0.060
       0.081
       0.085
       0.065
       0.022
      -0.033
      -0.081
      -0.105
      -0.094
      -0.049
       0.012
       0.061
       0.069
       0.031
      -0.035
      -0.090
      -0.102
      -0.064
       0.009
       0.088
       0.148
       0.171
       0.156
       0.111
       0.052
      -0.010
      -0.068
      -0.116
      -0.148
      -0.152
      -0.125
      -0.076
      -0.027
       0.000
      -0.003
      -0.030
      -0.061
      -0.082
      -0.085
      -0.075
      -0.063
      -0.054
      -0.044
      -0.030
      -0.010
       0.014
       0.036
       0.053
       0.063
       0.064
       0.063
       0.067
       0.075
       0.077
       0.061
       0.020
      -0.038
      -0.095
      -0.130
      -0.124
      -0.075
      -0.001
       0.069
       0.111
       0.116
       0.094
       0.058
       0.017
      -0.028
      -0.072
      -0.099
      -0.094
      -0.052
       0.005
       0.042
       0.035
      -0.009
      -0.059
      -0.085
      -0.081
      -0.065
      -0.060
      -0.072
      -0.089
      -0.094
      -0.079
      -0.055
      -0.038
      -0.039
      -0.054
      -0.064
      -0.053
      -0.020
       0.020
       0.053
       0.069
       0.073
       0.072
       0.066
       0.053
       0.029
      -0.002
      -0.027
      -0.034
      -0.017
       0.018
       0.058
       0.092
       0.113
       0.116
       0.105
       0.080
       0.044
       0.005
      -0.028
      -0.048
      -0.059
      -0.070
      -0.083
      -0.091
      -0.086
      -0.065
      -0.030
       0.009
       0.044
       0.072
       0.085
       0.076
       0.040
      -0.015
      -0.069
      -0.100
      -0.103
      -0.094
      -0.096
      -0.121
      -0.155
      -0.167
      -0.140
      -0.083
      -0.030
      -0.010
      -0.024
      -0.052
      -0.072
      -0.077
      -0.071
      -0.060
      -0.044
      -0.019
       0.019
       0.067
       0.112
       0.141
       0.152
       0.146
       0.131
       0.114
       0.107
       0.119
       0.148
       0.173
       0.164
       0.111
       0.035
      -0.018
      -0.016
       0.033
       0.081
       0.083
       0.027
      -0.057
      -0.122
      -0.137
      -0.102
      -0.041
       0.016
       0.044
       0.031
      -0.019
      -0.088
      -0.148
      -0.170
      -0.143
      -0.083
      -0.036
      -0.042
      -0.109
      -0.199
      -0.256
      -0.244
      -0.167
      -0.063
       0.030
       0.088
       0.105
       0.086
       0.042
      -0.010
      -0.048
      -0.058
      -0.034
       0.010
       0.056
       0.090
       0.114
       0.133
       0.141
       0.128
       0.088
       0.027
      -0.036
      -0.089
      -0.123
      -0.139
      -0.132
      -0.099
      -0.040
       0.036
       0.114
       0.171
       0.188
       0.159
       0.094
       0.018
      -0.046
      -0.088
      -0.106
      -0.103
      -0.077
      -0.029
       0.035
       0.098
       0.141
       0.153
       0.134
       0.091
       0.034
      -0.032
      -0.101
      -0.166
      -0.215
      -0.234
      -0.214
      -0.160
      -0.087
      -0.021
       0.018
       0.019
      -0.009
      -0.044
      -0.070
      -0.080
      -0.085
      -0.090
      -0.096
      -0.094
      -0.078
      -0.050
      -0.015
       0.033
       0.103
       0.192
       0.274
       0.305
       0.259
       0.145
       0.009
      -0.097
      -0.147
      -0.147
      -0.122
      -0.092
      -0.063
      -0.035
      -0.013
      -0.008
      -0.024
      -0.056
      -0.084
      -0.097
      -0.092
      -0.075
      -0.052
      -0.024
       0.014
       0.061
       0.108
       0.144
       0.163
       0.176
       0.192
       0.207
       0.201
       0.151
       0.054
      -0.063
      -0.161
      -0.207
      -0.194
      -0.140
      -0.070
      -0.003
       0.051
       0.083
       0.082
       0.042
      -0.016
      -0.054
      -0.043
       0.013
       0.080
       0.115
       0.091
       0.010
      -0.104
      -0.215
      -0.280
      -0.266
      -0.172
      -0.032
       0.096
       0.164
       0.158
       0.097
       0.021
      -0.041
      -0.072
      -0.071
      -0.045
      -0.005
       0.032
       0.048
       0.036
       0.000
      -0.044
      -0.074
      -0.075
      -0.051
      -0.014
       0.016
       0.031
       0.031
       0.024
       0.014
       0.006
       0.004
       0.013
       0.038
       0.074
       0.109
       0.132
       0.137
       0.117
       0.068
      -0.017
      -0.134
      -0.254
      -0.330
      -0.325
      -0.239
      -0.110
       0.011
       0.088
       0.120
       0.124
       0.115
       0.105
       0.096
       0.096
       0.106
       0.119
       0.123
       0.108
       0.078
       0.051
       0.039
       0.045
       0.059
       0.069
       0.070
       0.064
       0.050
       0.023
      -0.025
      -0.095
      -0.168
      -0.218
      -0.225
      -0.191
      -0.138
      -0.090
      -0.058
      -0.040
      -0.032
      -0.036
      -0.065
      -0.119
      -0.174
      -0.190
      -0.138
      -0.028
       0.091
       0.169
       0.190
       0.174
       0.155
       0.145
       0.131
       0.095
       0.038
      -0.025
      -0.080
      -0.126
      -0.165
      -0.189
      -0.177
      -0.115
      -0.019
       0.069
       0.107
       0.087
       0.036
      -0.004
      -0.014
       0.005
       0.035
       0.068
       0.099
       0.125
       0.131
       0.100
       0.037
      -0.024
      -0.034
       0.026
       0.133
       0.232
       0.273
       0.238
       0.151
       0.054
      -0.016
      -0.051
      -0.063
      -0.064
      -0.054
      -0.023
       0.023
       0.057
       0.043
      -0.031
      -0.138
      -0.231
      -0.274
      -0.273
      -0.266
      -0.287
      -0.338
      -0.389
      -0.397
      -0.339
      -0.224
      -0.091
       0.020
       0.094
       0.137
       0.167
       0.190
       0.205
       0.206
       0.197
       0.192
       0.209
       0.259
       0.329
       0.389
       0.396
       0.325
       0.192
       0.049
      -0.036
      -0.021
       0.078
       0.201
       0.275
       0.258
       0.153
       0.002
      -0.141
      -0.231
      -0.248
      -0.202
      -0.124
      -0.046
       0.005
       0.019
      -0.009
      -0.085
      -0.207
      -0.347
      -0.455
      -0.477
      -0.396
      -0.245
      -0.088
       0.020
       0.063
       0.066
       0.063
       0.076
       0.099
       0.114
       0.107
       0.078
       0.035
      -0.016
      -0.072
      -0.127
      -0.172
      -0.193
      -0.182
      -0.138
      -0.073
      -0.001
       0.063
       0.113
       0.147
       0.166
       0.166
       0.146
       0.114
       0.085
       0.076
       0.091
       0.119
       0.140
       0.135
       0.101
       0.051
       0.006
      -0.012
       0.008
       0.062
       0.129
       0.177
       0.178
       0.128
       0.048
      -0.033
      -0.088
      -0.110
      -0.103
      -0.079
      -0.056
      -0.044
      -0.042
      -0.043
      -0.039
      -0.034
      -0.035
      -0.047
      -0.065
      -0.079
      -0.075
      -0.043
       0.012
       0.070
       0.096
       0.070
      -0.008
      -0.111
      -0.206
      -0.267
      -0.275
      -0.215
      -0.092
       0.064
       0.192
       0.240
       0.186
       0.060
      -0.076
      -0.164
      -0.174
      -0.114
      -0.014
       0.084
       0.146
       0.152
       0.104
       0.027
      -0.046
      -0.087
      -0.086
      -0.051
       0.004
       0.071
       0.145
       0.218
       0.265
       0.258
       0.194
       0.107
       0.058
       0.087
       0.179
       0.266
       0.280
       0.195
       0.044
      -0.112
      -0.227
      -0.287
      -0.300
      -0.279
      -0.231
      -0.159
      -0.069
       0.025
       0.102
       0.140
       0.129
       0.075
      -0.002
      -0.076
      -0.120
      -0.123
      -0.089
      -0.040
       0.003
       0.030
       0.044
       0.057
       0.078
       0.107
       0.133
       0.146
       0.136
       0.093
       0.016
      -0.080
      -0.163
      -0.198
      -0.172
      -0.101
      -0.019
       0.051
       0.106
       0.152
       0.181
       0.175
       0.113
      -0.003
      -0.154
      -0.307
      -0.436
      -0.524
      -0.562
      -0.534
      -0.429
      -0.252
      -0.034
       0.168
       0.295
       0.312
       0.222
       0.075
      -0.059
      -0.125
      -0.110
      -0.054
      -0.018
      -0.046
      -0.136
      -0.241
      -0.298
      -0.254
      -0.093
       0.165
       0.466
       0.729
       0.877
       0.869
       0.723
       0.514
       0.337
       0.263
       0.295
       0.369
       0.385
       0.271
       0.026
      -0.278
      -0.547
      -0.709
      -0.739
      -0.654
      -0.493
      -0.308
      -0.148
      -0.056
      -0.053
      -0.130
      -0.247
      -0.344
      -0.370
      -0.306
      -0.176
      -0.030
       0.084
       0.140
       0.138
       0.092
       0.021
      -0.043
      -0.070
      -0.048
       0.007
       0.052
       0.061
       0.046
       0.052
       0.120
       0.251
       0.396
       0.492
       0.497
       0.403
       0.231
       0.019
      -0.183
      -0.326
      -0.374
      -0.326
      -0.206
      -0.052
       0.108
       0.257
       0.381
       0.469
       0.518
       0.540
       0.555
       0.567
       0.553
       0.466
       0.278
       0.004
      -0.299
      -0.562
      -0.742
      -0.831
      -0.845
      -0.798
      -0.703
      -0.580
      -0.456
      -0.358
      -0.296
      -0.257
      -0.214
      -0.149
      -0.056
       0.055
       0.173
       0.291
       0.409
       0.525
       0.624
       0.687
       0.694
       0.644
       0.553
       0.438
       0.312
       0.181
       0.050
      -0.076
      -0.194
      -0.301
      -0.392
      -0.453
      -0.462
      -0.407
      -0.296
      -0.146
       0.024
       0.193
       0.334
       0.409
       0.386
       0.264
       0.081
      -0.101
      -0.231
      -0.291
      -0.300
      -0.289
      -0.289
      -0.313
      -0.355
      -0.397
      -0.406
      -0.358
      -0.248
      -0.103
       0.032
       0.118
       0.133
       0.077
      -0.030
      -0.148
      -0.222
      -0.206
      -0.094
       0.059
       0.157
       0.130
      -0.012
      -0.179
      -0.255
      -0.167
       0.076
       0.396
       0.697
       0.899
       0.962
       0.890
       0.716
       0.490
       0.267
       0.095
      -0.005
      -0.042
      -0.055
      -0.088
      -0.166
      -0.283
      -0.407
      -0.499
      -0.533
      -0.514
      -0.468
      -0.419
      -0.378
      -0.337
      -0.282
      -0.210
      -0.128
      -0.049
       0.016
       0.062
       0.086
       0.090
       0.089
       0.102
       0.139
       0.188
       0.222
       0.218
       0.162
       0.058
      -0.080
      -0.232
      -0.368
      -0.454
      -0.465
      -0.383
      -0.205
       0.048
       0.333
       0.585
       0.737
       0.752
       0.640
       0.449
       0.235
       0.034
      -0.134
      -0.250
      -0.293
      -0.250
      -0.138
       0.004
       0.127
       0.192
       0.183
       0.123
       0.064
       0.061
       0.133
       0.238
       0.294
       0.233
       0.046
      -0.213
      -0.454
      -0.588
      -0.556
      -0.349
      -0.023
       0.305
       0.495
       0.450
       0.176
      -0.212
      -0.546
      -0.683
      -0.582
      -0.314
      -0.016
       0.180
       0.205
       0.079
      -0.112
      -0.251
      -0.248
      -0.075
       0.210
       0.492
       0.643
       0.584
       0.319
      -0.064
      -0.426
      -0.635
      -0.617
      -0.394
      -0.069
       0.214
       0.341
       0.277
       0.084
      -0.117
      -0.212
      -0.156
       0.006
       0.180
       0.286
       0.313
       0.311
       0.351
       0.469
       0.636
       0.782
       0.836
       0.762
       0.558
       0.245
      -0.148
      -0.572
      -0.954
      -1.210
      -1.273
      -1.124
      -0.801
      -0.387
       0.025
       0.343
       0.505
       0.483
       0.299
       0.019
      -0.267
      -0.482
      -0.583
      -0.564
      -0.443
      -0.251
      -0.034
       0.160
       0.284
       0.313
       0.255
       0.154
       0.065
       0.027
       0.035
       0.043
      -0.015
      -0.179
      -0.425
      -0.661
      -0.767
      -0.658
      -0.338
       0.104
       0.540
       0.864
       1.027
       1.031
       0.918
       0.748
       0.586
       0.476
       0.422
       0.385
       0.310
       0.172
      -0.010
      -0.174
      -0.260
      -0.245
      -0.166
      -0.098
      -0.107
      -0.211
      -0.367
      -0.500
      -0.541
      -0.458
      -0.262
      -0.009
       0.220
       0.342
       0.319
       0.177
       0.000
      -0.117
      -0.121
      -0.025
       0.113
       0.232
       0.294
       0.283
       0.199
       0.054
      -0.125
      -0.291
      -0.389
      -0.386
      -0.299
      -0.192
      -0.146
      -0.205
      -0.345
      -0.486
      -0.540
      -0.453
      -0.230
       0.068
       0.349
       0.521
       0.533
       0.390
       0.152
      -0.099
      -0.285
      -0.356
      -0.292
      -0.105
       0.158
       0.422
       0.609
       0.683
       0.651
       0.557
       0.447
       0.356
       0.297
       0.253
       0.181
       0.031
      -0.206
      -0.477
      -0.683
      -0.730
      -0.584
      -0.297
       0.027
       0.285
       0.426
       0.460
       0.428
       0.360
       0.253
       0.092
      -0.121
      -0.348
      -0.538
      -0.658
      -0.713
      -0.726
      -0.713
      -0.669
      -0.572
      -0.407
      -0.172
       0.109
       0.392
       0.621
       0.738
       0.703
       0.510
       0.204
      -0.132
      -0.408
      -0.555
      -0.551
      -0.417
      -0.204
       0.024
       0.205
       0.292
       0.281
       0.223
       0.195
       0.249
       0.367
       0.468
       0.463
       0.316
       0.068
      -0.182
      -0.328
      -0.314
      -0.157
       0.059
       0.231
       0.288
       0.222
       0.084
      -0.038
      -0.062
       0.047
       0.254
       0.460
       0.550
       0.447
       0.161
      -0.217
      -0.552
      -0.724
      -0.678
      -0.446
      -0.134
       0.126
       0.235
       0.169
      -0.020
      -0.249
      -0.445
      -0.577
      -0.635
      -0.614
      -0.509
      -0.330
      -0.115
       0.088
       0.235
       0.313
       0.335
       0.327
       0.317
       0.324
       0.359
       0.416
       0.470
       0.482
       0.421
       0.297
       0.158
       0.072
       0.075
       0.150
       0.239
       0.281
       0.247
       0.146
       0.018
      -0.098
      -0.165
      -0.156
      -0.060
       0.100
       0.256
       0.317
       0.219
      -0.025
      -0.330
      -0.583
      -0.716
      -0.728
      -0.666
      -0.563
      -0.415
      -0.207
       0.033
       0.230
       0.312
       0.270
       0.171
       0.088
       0.050
       0.023
      -0.032
      -0.106
      -0.147
      -0.113
      -0.018
       0.069
       0.085
       0.014
      -0.104
      -0.207
      -0.247
      -0.207
      -0.097
       0.045
       0.171
       0.234
       0.204
       0.080
      -0.112
      -0.318
      -0.475
      -0.523
      -0.424
      -0.183
       0.139
       0.434
       0.593
       0.562
       0.377
       0.145
      -0.007
       0.000
       0.174
       0.453
       0.732
       0.905
       0.889
       0.664
       0.273
      -0.177
      -0.554
      -0.746
      -0.703
      -0.459
      -0.117
       0.183
       0.317
       0.229
      -0.045
      -0.391
      -0.667
      -0.762
      -0.647
      -0.386
      -0.100
       0.093
       0.136
       0.050
      -0.087
      -0.186
      -0.189
      -0.089
       0.073
       0.238
       0.359
       0.421
       0.439
       0.438
       0.429
       0.399
       0.322
       0.181
      -0.005
      -0.191
      -0.322
      -0.367
      -0.334
      -0.261
      -0.202
      -0.192
      -0.240
      -0.328
      -0.423
      -0.493
      -0.512
      -0.463
      -0.335
      -0.124
       0.159
       0.485
       0.798
       1.024
       1.091
       0.957
       0.643
       0.236
      -0.133
      -0.352
      -0.368
      -0.208
       0.041
       0.274
       0.405
       0.406
       0.305
       0.168
       0.059
       0.013
       0.023
       0.053
       0.057
       0.005
      -0.110
      -0.272
      -0.446
      -0.585
      -0.638
      -0.570
      -0.391
      -0.164
       0.030
       0.133
       0.148
       0.121
       0.101
       0.106
       0.118
       0.108
       0.056
      -0.042
      -0.175
      -0.318
      -0.444
      -0.528
      -0.562
      -0.562
      -0.554
      -0.566
      -0.605
      -0.652
      -0.668
      -0.598
      -0.401
      -0.072
       0.336
       0.735
       1.034
       1.171
       1.128
       0.927
       0.633
       0.338
       0.130
       0.067
       0.156
       0.356
       0.595
       0.787
       0.856
       0.767
       0.542
       0.249
      -0.030
      -0.245
      -0.380
      -0.440
      -0.423
      -0.326
      -0.174
      -0.030
