Origin Time       20/10/2013 19:45:05
Lat.              35.8 N	
Long.             77.5 E	
Depth (Km)         80.0
Magnitude         5.5
 Region           India-China-Border-Region                                        
 Above details taken from IMD 
   
Station Code      VCD
Station Lat.       28.589
Station Long.      77.168
Station Height(m)  272.0
Site Class        C   Vs30 between 200 m/sec to 375 m/sec *  
Record Time       20.10.2013 19:47:35.564
Sampling Rate     200. Hz
 Record Duration   82.500 Sec.
 Direction         Vert. (Up positive)
Max. Acceleration      0.754 cm/sec**2
     
  * For reference see Site Classification link of website 
     
 Base Line Corrected and Low Pass Filtered (Cut Off at 35 Hz) Time History
 Acceleration data in cm/sec**2
    
[...]
      -0.112
      -0.150
      -0.170
      -0.161
      -0.124
      -0.071
      -0.019
       0.020
       0.049
       0.075
       0.105
       0.140
       0.165
       0.167
       0.137
       0.082
       0.026
      -0.006
       0.006
       0.061
       0.143
       0.220
       0.263
       0.250
       0.176
       0.058
      -0.077
      -0.197
      -0.276
      -0.305
      -0.291
      -0.250
      -0.194
      -0.131
      -0.064
       0.002
       0.058
       0.096
       0.113
       0.114
       0.109
       0.101
       0.089
       0.065
       0.031
      -0.002
      -0.013
       0.013
       0.074
       0.145
       0.190
       0.179
       0.110
       0.013
      -0.070
      -0.108
      -0.094
      -0.051
      -0.012
      -0.002
      -0.025
      -0.064
      -0.097
      -0.111
      -0.109
      -0.108
      -0.121
      -0.143
      -0.160
      -0.157
      -0.132
      -0.105
      -0.097
      -0.116
      -0.145
      -0.151
      -0.107
      -0.011
       0.111
       0.216
       0.278
       0.291
       0.270
       0.231
       0.183
       0.124
       0.055
      -0.019
      -0.085
      -0.128
      -0.142
      -0.131
      -0.108
      -0.085
      -0.073
      -0.070
      -0.069
      -0.062
      -0.049
      -0.043
      -0.055
      -0.083
      -0.100
      -0.077
      -0.001
       0.105
       0.195
       0.230
       0.198
       0.121
       0.034
      -0.039
      -0.090
      -0.117
      -0.124
      -0.106
      -0.063
       0.002
       0.073
       0.131
       0.160
       0.155
       0.128
       0.100
       0.090
       0.106
       0.137
       0.166
       0.174
       0.152
       0.106
       0.044
      -0.029
      -0.110
      -0.195
      -0.269
      -0.314
      -0.316
      -0.274
      -0.204
      -0.130
      -0.075
      -0.051
      -0.056
      -0.074
      -0.087
      -0.079
      -0.046
       0.008
       0.070
       0.125
       0.154
       0.145
       0.099
       0.039
      -0.007
      -0.024
      -0.018
      -0.007
      -0.012
      -0.037
      -0.073
      -0.100
      -0.104
      -0.081
      -0.043
      -0.011
      -0.005
      -0.026
      -0.056
      -0.066
      -0.037
       0.030
       0.110
       0.168
       0.179
       0.140
       0.070
       0.007
      -0.019
       0.007
       0.071
       0.137
       0.171
       0.153
       0.092
       0.018
      -0.035
      -0.047
      -0.021
       0.025
       0.065
       0.077
       0.051
      -0.005
      -0.073
      -0.127
      -0.148
      -0.132
      -0.091
      -0.051
      -0.029
      -0.031
      -0.048
      -0.065
      -0.072
      -0.065
      -0.046
      -0.015
       0.026
       0.073
       0.121
       0.167
       0.203
       0.220
       0.206
       0.154
       0.070
      -0.024
      -0.104
      -0.155
      -0.183
      -0.204
      -0.234
      -0.271
      -0.296
      -0.288
      -0.237
      -0.155
      -0.073
      -0.017
      -0.003
      -0.023
      -0.050
      -0.055
      -0.020
       0.056
       0.152
       0.235
       0.274
       0.252
       0.176
       0.067
      -0.044
      -0.131
      -0.179
      -0.183
      -0.147
      -0.084
      -0.010
       0.059
       0.109
       0.130
       0.117
       0.073
       0.015
      -0.036
      -0.066
      -0.071
      -0.062
      -0.048
      -0.034
      -0.023
      -0.015
      -0.006
       0.013
       0.045
       0.080
       0.100
       0.088
       0.051
       0.013
       0.008
       0.055
       0.145
       0.244
       0.305
       0.291
       0.191
       0.026
      -0.159
      -0.313
      -0.396
      -0.398
      -0.339
      -0.260
      -0.195
      -0.162
      -0.153
      -0.149
      -0.127
      -0.077
       0.002
       0.099
       0.198
       0.280
       0.329
       0.334
       0.300
       0.246
       0.194
       0.159
       0.148
       0.156
       0.165
       0.148
       0.084
      -0.028
      -0.157
      -0.253
      -0.274
      -0.217
      -0.116
      -0.026
       0.013
      -0.003
      -0.043
      -0.069
      -0.056
      -0.010
       0.044
       0.076
       0.073
       0.037
      -0.017
      -0.071
      -0.111
      -0.126
      -0.112
      -0.072
      -0.020
       0.019
       0.025
      -0.005
      -0.049
      -0.072
      -0.052
       0.009
       0.084
       0.144
       0.163
       0.132
       0.057
      -0.041
      -0.132
      -0.188
      -0.201
      -0.184
      -0.155
      -0.128
      -0.097
      -0.051
       0.015
       0.094
       0.177
       0.259
       0.337
       0.405
       0.443
       0.433
       0.363
       0.242
       0.087
      -0.075
      -0.218
      -0.326
      -0.395
      -0.430
      -0.445
      -0.455
      -0.462
      -0.464
      -0.448
      -0.406
      -0.334
      -0.236
      -0.120
       0.002
       0.116
       0.206
       0.264
       0.293
       0.306
       0.321
       0.340
       0.355
       0.344
       0.291
       0.198
       0.083
      -0.024
      -0.101
      -0.142
      -0.151
      -0.137
      -0.109
      -0.070
      -0.025
       0.026
       0.082
       0.140
       0.192
       0.223
       0.218
       0.177
       0.111
       0.039
      -0.021
      -0.059
      -0.075
      -0.077
      -0.075
      -0.085
      -0.115
      -0.160
      -0.203
      -0.218
      -0.196
      -0.150
      -0.103
      -0.075
      -0.063
      -0.047
      -0.013
       0.044
       0.110
       0.168
       0.204
       0.212
       0.192
       0.144
       0.079
       0.011
      -0.049
      -0.092
      -0.122
      -0.140
      -0.145
      -0.134
      -0.101
      -0.047
       0.027
       0.117
       0.217
       0.310
       0.369
       0.360
       0.269
       0.113
      -0.066
      -0.218
      -0.313
      -0.348
      -0.331
      -0.265
      -0.153
      -0.006
       0.139
       0.233
       0.239
       0.157
       0.027
      -0.098
      -0.180
      -0.212
      -0.208
      -0.188
      -0.158
      -0.117
      -0.060
       0.016
       0.106
       0.199
       0.276
       0.314
       0.294
       0.208
       0.068
      -0.094
      -0.237
      -0.327
      -0.345
      -0.290
      -0.175
      -0.025
       0.128
       0.250
       0.312
       0.299
       0.220
       0.102
      -0.023
      -0.135
      -0.223
      -0.282
      -0.302
      -0.273
      -0.196
      -0.092
       0.006
       0.070
       0.097
       0.107
       0.129
       0.180
       0.255
       0.323
       0.343
       0.287
       0.155
      -0.018
      -0.183
      -0.287
      -0.305
      -0.239
      -0.122
      -0.005
       0.065
       0.061
      -0.014
      -0.123
      -0.217
      -0.260
      -0.247
      -0.201
      -0.156
      -0.137
      -0.142
      -0.143
      -0.098
       0.019
       0.202
       0.409
       0.579
       0.654
       0.604
       0.431
       0.170
      -0.117
      -0.357
      -0.489
      -0.481
      -0.349
      -0.154
       0.023
       0.118
       0.116
       0.053
      -0.006
      -0.010
       0.052
       0.148
       0.228
       0.262
       0.252
       0.225
       0.212
       0.225
       0.249
       0.253
       0.208
       0.102
      -0.047
      -0.202
      -0.327
      -0.403
      -0.437
      -0.438
      -0.409
      -0.342
      -0.229
      -0.082
       0.070
       0.187
       0.240
       0.222
       0.159
       0.094
       0.071
       0.102
       0.163
       0.207
       0.190
       0.098
      -0.049
      -0.211
      -0.341
      -0.403
      -0.380
      -0.283
      -0.145
      -0.009
       0.089
       0.127
       0.096
       0.007
      -0.117
      -0.235
      -0.310
      -0.317
      -0.247
      -0.112
       0.062
       0.240
       0.380
       0.448
       0.428
       0.326
       0.171
       0.001
      -0.145
      -0.236
      -0.259
      -0.221
      -0.141
      -0.049
       0.031
       0.086
       0.113
       0.114
       0.090
       0.042
      -0.020
      -0.077
      -0.099
      -0.063
       0.026
       0.133
       0.204
       0.201
       0.123
       0.010
      -0.086
      -0.128
      -0.102
      -0.027
       0.066
       0.140
       0.172
       0.158
       0.110
       0.052
       0.001
      -0.033
      -0.056
      -0.080
      -0.120
      -0.183
      -0.263
      -0.342
      -0.396
      -0.402
      -0.349
      -0.242
      -0.105
       0.031
       0.139
       0.215
       0.280
       0.360
       0.462
       0.560
       0.608
       0.572
       0.443
       0.243
       0.012
      -0.204
      -0.366
      -0.451
      -0.459
      -0.403
      -0.305
      -0.183
      -0.051
       0.073
       0.165
       0.197
       0.151
       0.034
      -0.117
      -0.258
      -0.347
      -0.369
      -0.324
      -0.230
      -0.106
       0.031
       0.166
       0.281
       0.360
       0.386
       0.354
       0.281
       0.199
       0.142
       0.121
       0.118
       0.102
       0.052
      -0.029
      -0.116
      -0.182
      -0.212
      -0.207
      -0.179
      -0.145
      -0.116
      -0.095
      -0.083
      -0.078
      -0.082
      -0.096
      -0.114
      -0.125
      -0.106
      -0.042
       0.073
       0.223
       0.381
       0.518
       0.609
       0.638
       0.596
       0.481
       0.301
       0.074
      -0.170
      -0.393
      -0.562
      -0.655
      -0.670
      -0.627
      -0.550
      -0.460
      -0.368
      -0.274
      -0.171
      -0.052
       0.092
       0.259
       0.429
       0.563
       0.622
       0.592
       0.493
       0.363
       0.239
       0.135
       0.048
      -0.029
      -0.100
      -0.163
      -0.222
      -0.284
      -0.356
      -0.431
      -0.495
      -0.532
      -0.531
      -0.484
      -0.381
      -0.219
      -0.011
       0.211
       0.396
       0.498
       0.502
       0.433
       0.344
       0.283
       0.265
       0.272
       0.267
       0.222
       0.131
       0.014
      -0.092
      -0.151
      -0.141
      -0.071
       0.024
       0.102
       0.138
       0.136
       0.121
       0.126
       0.163
       0.223
       0.278
       0.291
       0.239
       0.120
      -0.041
      -0.205
      -0.336
      -0.412
      -0.425
      -0.381
      -0.292
      -0.179
      -0.069
       0.015
       0.059
       0.065
       0.043
       0.007
      -0.032
      -0.063
      -0.076
      -0.061
      -0.018
       0.045
       0.118
       0.191
       0.249
       0.269
       0.223
       0.095
      -0.095
      -0.288
      -0.410
      -0.417
      -0.315
      -0.155
      -0.001
       0.097
       0.115
       0.053
      -0.067
      -0.204
      -0.301
      -0.311
      -0.219
      -0.050
       0.134
       0.268
       0.317
       0.288
       0.220
       0.162
       0.150
       0.197
       0.283
       0.370
       0.414
       0.386
       0.290
       0.155
       0.028
      -0.053
      -0.076
      -0.057
      -0.029
      -0.023
      -0.057
      -0.126
      -0.208
      -0.272
      -0.283
      -0.220
      -0.086
       0.084
       0.227
       0.286
       0.231
       0.087
      -0.083
      -0.209
      -0.248
      -0.192
      -0.069
       0.077
       0.204
       0.277
       0.288
       0.246
       0.175
       0.099
       0.037
      -0.008
      -0.039
      -0.064
      -0.090
      -0.114
      -0.127
      -0.118
      -0.081
      -0.032
       0.004
      -0.002
      -0.064
      -0.174
      -0.309
      -0.428
      -0.486
      -0.441
      -0.277
      -0.017
       0.277
       0.519
       0.639
       0.610
       0.458
       0.242
       0.036
      -0.103
      -0.140
      -0.078
       0.051
       0.193
       0.288
       0.297
       0.214
       0.072
      -0.076
      -0.183
      -0.226
      -0.203
      -0.130
      -0.032
       0.057
       0.106
       0.096
       0.032
      -0.062
      -0.148
      -0.192
      -0.178
      -0.111
      -0.008
       0.113
       0.239
       0.356
       0.450
       0.501
       0.485
       0.389
       0.221
       0.010
      -0.198
      -0.355
      -0.427
      -0.407
      -0.324
      -0.224
      -0.156
      -0.148
      -0.201
      -0.290
      -0.374
      -0.408
      -0.364
      -0.235
      -0.043
       0.182
       0.406
       0.598
       0.725
       0.754
       0.665
       0.461
       0.179
      -0.115
      -0.350
      -0.473
      -0.471
      -0.364
      -0.204
      -0.055
       0.032
       0.035
      -0.030
      -0.119
      -0.175
      -0.154
      -0.050
       0.103
       0.246
       0.322
       0.300
       0.190
       0.036
      -0.099
      -0.164
      -0.135
      -0.029
       0.107
       0.216
       0.261
       0.239
       0.174
       0.095
       0.021
      -0.043
      -0.099
      -0.153
      -0.206
      -0.255
      -0.282
      -0.268
      -0.196
      -0.071
       0.079
       0.204
       0.262
       0.234
       0.134
       0.001
      -0.121
      -0.191
      -0.182
      -0.087
       0.071
       0.250
       0.395
       0.455
       0.407
       0.263
       0.077
      -0.080
      -0.151
      -0.131
      -0.067
      -0.030
      -0.067
      -0.167
      -0.271
      -0.311
      -0.251
      -0.105
       0.081
       0.248
       0.344
       0.340
       0.233
       0.052
      -0.153
      -0.317
      -0.386
      -0.332
      -0.177
       0.020
       0.193
       0.295
       0.320
       0.295
       0.252
       0.210
       0.164
       0.104
       0.024
      -0.071
      -0.171
      -0.263
      -0.330
      -0.347
      -0.288
      -0.145
       0.060
       0.273
       0.427
       0.468
       0.381
       0.194
      -0.029
      -0.215
      -0.307
      -0.281
      -0.157
       0.016
       0.181
       0.292
       0.335
       0.318
       0.264
       0.193
       0.121
       0.056
       0.000
      -0.050
      -0.102
      -0.164
      -0.237
      -0.312
      -0.370
      -0.390
      -0.356
      -0.266
      -0.138
       0.000
       0.120
       0.199
       0.220
       0.182
       0.097
      -0.009
      -0.109
      -0.182
      -0.216
      -0.207
      -0.154
      -0.054
       0.085
       0.238
       0.368
       0.441
       0.443
       0.377
       0.253
       0.086
      -0.105
      -0.284
      -0.405
      -0.422
      -0.319
      -0.118
       0.125
       0.345
       0.491
       0.547
       0.518
       0.421
       0.277
       0.105
      -0.067
      -0.205
      -0.276
      -0.263
      -0.181
      -0.073
       0.011
       0.037
      -0.009
      -0.120
      -0.276
      -0.438
      -0.553
      -0.559
      -0.421
      -0.150
       0.184
       0.478
       0.637
       0.611
       0.417
       0.140
      -0.111
      -0.250
      -0.256
      -0.172
      -0.073
      -0.015
      -0.010
      -0.035
      -0.057
      -0.055
      -0.025
       0.020
       0.058
       0.065
       0.031
      -0.037
      -0.103
      -0.127
      -0.089
      -0.008
       0.072
       0.109
       0.091
       0.044
       0.010
       0.026
       0.106
       0.240
       0.401
       0.546
       0.625
       0.593
       0.433
       0.172
      -0.128
      -0.389
      -0.548
      -0.573
      -0.477
      -0.305
      -0.122
       0.009
       0.046
      -0.019
      -0.157
      -0.313
      -0.424
      -0.447
      -0.369
      -0.212
      -0.019
       0.168
       0.314
       0.405
       0.435
       0.407
       0.327
       0.213
       0.095
       0.003
      -0.041
      -0.044
      -0.034
      -0.039
      -0.069
      -0.118
      -0.169
      -0.209
      -0.227
      -0.218
      -0.183
      -0.124
      -0.045
       0.046
       0.135
       0.203
       0.237
       0.240
       0.230
       0.226
       0.233
       0.238
       0.221
       0.174
       0.104
       0.031
      -0.029
      -0.071
      -0.100
      -0.120
      -0.142
      -0.175
      -0.224
      -0.283
      -0.330
      -0.338
      -0.284
      -0.162
       0.013
       0.214
       0.405
       0.542
       0.584
       0.512
       0.347
       0.145
      -0.028
      -0.134
      -0.170
      -0.160
      -0.123
      -0.068
       0.000
       0.066
       0.099
       0.073
      -0.012
      -0.126
      -0.223
      -0.269
      -0.261
      -0.223
      -0.185
      -0.167
      -0.167
      -0.167
      -0.145
      -0.088
      -0.003
       0.091
       0.173
       0.240
       0.306
       0.374
       0.417
       0.384
       0.245
       0.035
      -0.154
      -0.225
      -0.143
       0.040
       0.223
       0.324
       0.324
       0.256
       0.175
       0.107
       0.046
      -0.039
      -0.167
      -0.330
      -0.480
      -0.557
      -0.518
      -0.376
      -0.196
      -0.062
      -0.026
      -0.079
      -0.169
      -0.233
      -0.238
      -0.182
      -0.090
       0.012
       0.102
       0.173
       0.227
       0.272
       0.309
       0.332
       0.334
       0.324
       0.321
       0.341
       0.372
       0.373
       0.303
       0.153
      -0.031
      -0.178
      -0.234
      -0.205
      -0.140
      -0.099
      -0.108
      -0.150
      -0.186
      -0.186
      -0.144
      -0.074
       0.005
       0.069
       0.102
       0.096
       0.064
       0.036
       0.042
       0.087
       0.150
       0.192
       0.177
       0.094
      -0.042
      -0.197
      -0.326
      -0.402
      -0.423
      -0.420
      -0.421
      -0.432
      -0.418
      -0.333
      -0.160
       0.062
       0.260
       0.372
       0.385
       0.335
       0.272
       0.233
       0.222
       0.230
