Origin Time       20/10/2013 19:45:05
Lat.              35.8 N	
Long.             77.5 E	
Depth (Km)         80.0
Magnitude         5.5
 Region           India-China-Border-Region                                        
 Above details taken from IMD 
     
Station Code      VCD
Station Lat.       28.589  N
Station Long.      77.168  E
Station Height(m)  272.0
Site Class        C   Vs30 between 200 m/sec to 375 m/sec *  
Record Time       20.10.2013 19:47:35.564
Sampling Rate     200. Hz
 Record Duration   82.500 Sec.
 Direction         E-W (E positive)
Max. Acceleration     -1.693 cm/sec**2
     
  * For reference see Site Classification link of website 
     
 Base Line Corrected and Low Pass Filtered (Cut Off at 35 Hz) Time History
 Acceleration data in cm/sec**2
    
[...]
      -0.055
       0.014
       0.037
       0.013
      -0.024
      -0.032
       0.012
       0.095
       0.186
       0.255
       0.279
       0.244
       0.143
      -0.008
      -0.171
      -0.300
      -0.352
      -0.314
      -0.203
      -0.062
       0.068
       0.157
       0.195
       0.182
       0.121
       0.024
      -0.075
      -0.130
      -0.101
       0.007
       0.147
       0.247
       0.253
       0.148
      -0.038
      -0.247
      -0.408
      -0.464
      -0.393
      -0.223
      -0.019
       0.147
       0.236
       0.253
       0.238
       0.223
       0.221
       0.219
       0.191
       0.113
      -0.022
      -0.195
      -0.358
      -0.458
      -0.458
      -0.356
      -0.184
       0.013
       0.187
       0.302
       0.341
       0.308
       0.226
       0.128
       0.046
       0.009
       0.031
       0.104
       0.178
       0.186
       0.079
      -0.127
      -0.356
      -0.510
      -0.530
      -0.418
      -0.226
      -0.021
       0.140
       0.227
       0.241
       0.212
       0.180
       0.176
       0.211
       0.276
       0.346
       0.394
       0.397
       0.342
       0.226
       0.059
      -0.142
      -0.352
      -0.546
      -0.699
      -0.786
      -0.787
      -0.696
      -0.532
      -0.327
      -0.119
       0.069
       0.228
       0.367
       0.494
       0.600
       0.646
       0.595
       0.447
       0.257
       0.105
       0.043
       0.060
       0.091
       0.063
      -0.056
      -0.243
      -0.440
      -0.581
      -0.627
      -0.570
      -0.434
      -0.258
      -0.079
       0.079
       0.211
       0.320
       0.411
       0.476
       0.494
       0.449
       0.346
       0.216
       0.104
       0.038
       0.020
       0.028
       0.029
      -0.005
      -0.087
      -0.209
      -0.345
      -0.461
      -0.518
      -0.486
      -0.350
      -0.129
       0.120
       0.323
       0.410
       0.352
       0.178
      -0.041
      -0.221
      -0.303
      -0.272
      -0.163
      -0.033
       0.067
       0.121
       0.136
       0.130
       0.106
       0.063
       0.014
      -0.009
       0.029
       0.133
       0.262
       0.353
       0.351
       0.252
       0.095
      -0.060
      -0.175
      -0.253
      -0.325
      -0.413
      -0.508
      -0.573
      -0.576
      -0.504
      -0.373
      -0.209
      -0.046
       0.090
       0.181
       0.227
       0.237
       0.222
       0.195
       0.174
       0.177
       0.207
       0.245
       0.251
       0.200
       0.100
      -0.004
      -0.061
      -0.051
       0.000
       0.044
       0.048
       0.010
      -0.045
      -0.086
      -0.095
      -0.066
      -0.004
       0.080
       0.168
       0.234
       0.254
       0.218
       0.138
       0.047
      -0.026
      -0.071
      -0.108
      -0.165
      -0.255
      -0.368
      -0.474
      -0.539
      -0.534
      -0.453
      -0.316
      -0.158
      -0.013
       0.104
       0.197
       0.279
       0.350
       0.397
       0.401
       0.360
       0.289
       0.204
       0.104
      -0.016
      -0.148
      -0.254
      -0.277
      -0.179
       0.026
       0.274
       0.486
       0.604
       0.606
       0.499
       0.298
       0.027
      -0.261
      -0.497
      -0.613
      -0.582
      -0.438
      -0.248
      -0.077
       0.040
       0.098
       0.106
       0.073
       0.010
      -0.060
      -0.117
      -0.152
      -0.180
      -0.221
      -0.278
      -0.327
      -0.339
      -0.299
      -0.217
      -0.114
      -0.005
       0.108
       0.222
       0.330
       0.415
       0.455
       0.434
       0.356
       0.241
       0.124
       0.036
      -0.004
       0.003
       0.041
       0.086
       0.112
       0.101
       0.047
      -0.031
      -0.098
      -0.122
      -0.092
      -0.024
       0.045
       0.082
       0.072
       0.021
      -0.055
      -0.130
      -0.184
      -0.206
      -0.201
      -0.183
      -0.170
      -0.175
      -0.205
      -0.254
      -0.299
      -0.303
      -0.242
      -0.132
      -0.023
       0.034
       0.031
       0.008
       0.032
       0.145
       0.342
       0.567
       0.740
       0.789
       0.679
       0.428
       0.103
      -0.211
      -0.443
      -0.564
      -0.588
      -0.548
      -0.477
      -0.397
      -0.312
      -0.216
      -0.097
       0.044
       0.187
       0.292
       0.319
       0.247
       0.095
      -0.078
      -0.196
      -0.195
      -0.056
       0.179
       0.427
       0.593
       0.615
       0.485
       0.256
       0.018
      -0.144
      -0.185
      -0.113
       0.009
       0.100
       0.105
       0.027
      -0.077
      -0.136
      -0.114
      -0.024
       0.087
       0.162
       0.162
       0.079
      -0.066
      -0.235
      -0.391
      -0.502
      -0.544
      -0.496
      -0.346
      -0.116
       0.131
       0.309
       0.348
       0.233
       0.013
      -0.218
      -0.369
      -0.383
      -0.264
      -0.073
       0.107
       0.211
       0.227
       0.188
       0.137
       0.096
       0.062
       0.027
      -0.008
      -0.037
      -0.060
      -0.082
      -0.106
      -0.129
      -0.138
      -0.120
      -0.065
       0.033
       0.169
       0.324
       0.464
       0.549
       0.542
       0.419
       0.182
      -0.134
      -0.458
      -0.698
      -0.779
      -0.679
      -0.441
      -0.144
       0.138
       0.366
       0.530
       0.626
       0.645
       0.573
       0.407
       0.171
      -0.080
      -0.274
      -0.366
      -0.361
      -0.306
      -0.250
      -0.216
      -0.208
      -0.221
      -0.249
      -0.279
      -0.291
      -0.268
      -0.207
      -0.121
      -0.026
       0.077
       0.201
       0.361
       0.554
       0.747
       0.879
       0.881
       0.712
       0.377
      -0.070
      -0.552
      -0.981
      -1.269
      -1.341
      -1.161
      -0.765
      -0.256
       0.229
       0.584
       0.763
       0.780
       0.689
       0.551
       0.417
       0.316
       0.252
       0.216
       0.193
       0.173
       0.143
       0.096
       0.029
      -0.044
      -0.099
      -0.118
      -0.107
      -0.089
      -0.089
      -0.110
      -0.146
      -0.193
      -0.260
      -0.350
      -0.447
      -0.515
      -0.515
      -0.432
      -0.293
      -0.151
      -0.053
      -0.018
      -0.029
      -0.055
      -0.068
      -0.051
       0.005
       0.102
       0.230
       0.366
       0.478
       0.532
       0.511
       0.419
       0.288
       0.163
       0.085
       0.060
       0.054
       0.004
      -0.146
      -0.407
      -0.723
      -0.992
      -1.105
      -1.000
      -0.689
      -0.247
       0.217
       0.602
       0.845
       0.928
       0.870
       0.719
       0.536
       0.376
       0.273
       0.227
       0.210
       0.188
       0.144
       0.097
       0.091
       0.162
       0.307
       0.459
       0.519
       0.402
       0.093
      -0.338
      -0.772
      -1.097
      -1.245
      -1.200
      -0.987
      -0.655
      -0.273
       0.073
       0.296
       0.347
       0.246
       0.078
      -0.053
      -0.085
      -0.029
       0.056
       0.113
       0.115
       0.064
      -0.031
      -0.158
      -0.293
      -0.398
      -0.425
      -0.339
      -0.131
       0.168
       0.485
       0.734
       0.837
       0.754
       0.501
       0.150
      -0.183
      -0.390
      -0.418
      -0.297
      -0.113
       0.052
       0.163
       0.243
       0.329
       0.439
       0.547
       0.599
       0.537
       0.339
       0.040
      -0.272
      -0.486
      -0.513
      -0.327
       0.017
       0.398
       0.675
       0.738
       0.566
       0.230
      -0.141
      -0.422
      -0.549
      -0.524
      -0.399
      -0.244
      -0.127
      -0.100
      -0.182
      -0.340
      -0.502
      -0.582
      -0.517
      -0.311
      -0.046
       0.148
       0.163
      -0.021
      -0.313
      -0.565
      -0.656
      -0.560
      -0.341
      -0.102
       0.082
       0.190
       0.250
       0.307
       0.394
       0.510
       0.614
       0.653
       0.588
       0.422
       0.208
       0.016
      -0.090
      -0.087
       0.004
       0.131
       0.230
       0.244
       0.131
      -0.114
      -0.439
      -0.742
      -0.910
      -0.864
      -0.603
      -0.200
       0.219
       0.538
       0.690
       0.687
       0.599
       0.512
       0.476
       0.479
       0.461
       0.356
       0.136
      -0.169
      -0.480
      -0.705
      -0.782
      -0.701
      -0.502
      -0.251
      -0.009
       0.173
       0.266
       0.262
       0.185
       0.085
       0.011
      -0.016
      -0.010
       0.002
       0.000
      -0.022
      -0.061
      -0.110
      -0.149
      -0.149
      -0.094
       0.007
       0.109
       0.160
       0.128
       0.026
      -0.088
      -0.148
      -0.115
       0.003
       0.160
       0.298
       0.380
       0.394
       0.342
       0.241
       0.118
       0.008
      -0.055
      -0.059
      -0.012
       0.058
       0.120
       0.148
       0.114
      -0.009
      -0.230
      -0.518
      -0.792
      -0.952
      -0.916
      -0.665
      -0.244
       0.245
       0.674
       0.931
       0.973
       0.838
       0.617
       0.386
       0.161
      -0.079
      -0.346
      -0.600
      -0.767
      -0.789
      -0.656
      -0.412
      -0.131
       0.103
       0.216
       0.171
       0.002
      -0.190
      -0.282
      -0.198
       0.046
       0.365
       0.647
       0.807
       0.804
       0.646
       0.378
       0.082
      -0.149
      -0.259
      -0.258
      -0.221
      -0.237
      -0.352
      -0.534
      -0.703
      -0.771
      -0.683
      -0.433
      -0.060
       0.353
       0.709
       0.921
       0.950
       0.817
       0.589
       0.344
       0.143
       0.008
      -0.069
      -0.117
      -0.163
      -0.221
      -0.295
      -0.381
      -0.473
      -0.555
      -0.588
      -0.525
      -0.346
      -0.087
       0.163
       0.309
       0.311
       0.195
       0.018
      -0.169
      -0.343
      -0.478
      -0.532
      -0.453
      -0.216
       0.140
       0.519
       0.803
       0.899
       0.782
       0.495
       0.137
      -0.177
      -0.361
      -0.390
      -0.315
      -0.231
      -0.213
      -0.270
      -0.344
      -0.355
      -0.265
      -0.102
       0.070
       0.202
       0.292
       0.367
       0.439
       0.491
       0.498
       0.465
       0.430
       0.434
       0.470
       0.480
       0.391
       0.175
      -0.121
      -0.396
      -0.550
      -0.537
      -0.375
      -0.142
       0.059
       0.135
       0.038
      -0.200
      -0.476
      -0.659
      -0.649
      -0.433
      -0.090
       0.241
       0.430
       0.405
       0.186
      -0.128
      -0.407
      -0.546
      -0.523
      -0.404
      -0.298
      -0.289
      -0.383
      -0.506
      -0.550
      -0.439
      -0.171
       0.187
       0.527
       0.746
       0.783
       0.643
       0.392
       0.137
      -0.017
      -0.002
       0.184
       0.478
       0.762
       0.909
       0.829
       0.516
       0.066
      -0.357
      -0.596
      -0.587
      -0.384
      -0.123
       0.068
       0.129
       0.079
      -0.018
      -0.094
      -0.100
      -0.026
       0.092
       0.183
       0.178
       0.061
      -0.122
      -0.284
      -0.354
      -0.309
      -0.182
      -0.033
       0.076
       0.103
       0.032
      -0.124
      -0.328
      -0.532
      -0.689
      -0.758
      -0.710
      -0.539
      -0.268
       0.041
       0.302
       0.442
       0.443
       0.352
       0.250
       0.196
       0.192
       0.193
       0.150
       0.040
      -0.121
      -0.289
      -0.406
      -0.420
      -0.307
      -0.086
       0.186
       0.442
       0.635
       0.751
       0.804
       0.812
       0.781
       0.704
       0.565
       0.356
       0.080
      -0.238
      -0.546
      -0.771
      -0.841
      -0.710
      -0.400
      -0.009
       0.311
       0.426
       0.293
      -0.008
      -0.313
      -0.457
      -0.356
      -0.041
       0.363
       0.683
       0.764
       0.522
      -0.015
      -0.703
      -1.330
      -1.693
      -1.676
      -1.294
      -0.691
      -0.077
       0.364
       0.546
       0.506
       0.356
       0.216
       0.159
       0.203
       0.325
       0.473
       0.580
       0.587
       0.481
       0.302
       0.122
       0.001
      -0.044
      -0.033
       0.005
       0.046
       0.075
       0.083
       0.077
       0.081
       0.129
       0.228
       0.339
       0.390
       0.331
       0.169
      -0.032
      -0.192
      -0.258
      -0.231
      -0.146
      -0.057
      -0.015
      -0.053
      -0.171
      -0.326
      -0.447
      -0.474
      -0.402
      -0.286
      -0.198
      -0.164
      -0.145
      -0.084
       0.035
       0.165
       0.234
       0.201
       0.075
      -0.093
      -0.243
      -0.322
      -0.302
      -0.187
      -0.015
       0.158
       0.275
       0.304
       0.251
       0.154
       0.059
      -0.002
      -0.019
      -0.005
       0.025
       0.058
       0.076
       0.058
      -0.008
      -0.101
      -0.162
      -0.130
       0.005
       0.189
       0.330
       0.370
       0.312
       0.209
       0.111
       0.045
       0.018
       0.035
       0.091
       0.146
       0.132
      -0.002
      -0.234
      -0.461
      -0.560
      -0.468
      -0.218
       0.096
       0.385
       0.600
       0.721
       0.730
       0.602
       0.344
       0.016
      -0.279
      -0.448
      -0.447
      -0.301
      -0.084
       0.099
       0.150
       0.022
      -0.249
      -0.558
      -0.784
      -0.852
      -0.771
      -0.604
      -0.419
      -0.245
      -0.078
       0.090
       0.252
       0.386
       0.480
       0.535
       0.565
       0.575
       0.559
       0.501
       0.381
       0.188
      -0.065
      -0.329
      -0.524
      -0.577
      -0.471
      -0.270
      -0.077
       0.027
       0.032
      -0.017
      -0.063
      -0.071
      -0.044
       0.003
       0.045
       0.068
       0.063
       0.043
       0.032
       0.051
       0.093
       0.124
       0.109
       0.049
      -0.016
      -0.041
      -0.023
      -0.010
      -0.057
      -0.157
      -0.237
      -0.219
      -0.102
       0.031
       0.084
       0.027
      -0.080
      -0.138
      -0.080
       0.097
       0.336
       0.554
       0.666
       0.611
       0.388
       0.070
      -0.217
      -0.358
      -0.316
      -0.147
       0.040
       0.155
       0.172
       0.114
       0.011
      -0.129
      -0.301
      -0.482
      -0.620
      -0.659
      -0.566
      -0.349
      -0.057
       0.231
       0.430
       0.477
       0.357
       0.111
      -0.179
      -0.413
      -0.516
      -0.460
      -0.270
      -0.019
       0.199
       0.307
       0.273
       0.130
      -0.034
      -0.123
      -0.084
       0.072
       0.284
       0.484
       0.628
       0.702
       0.704
       0.628
       0.470
       0.249
       0.007
      -0.198
      -0.329
      -0.380
      -0.371
      -0.331
      -0.279
      -0.230
      -0.194
      -0.177
      -0.180
      -0.203
      -0.246
      -0.299
      -0.331
      -0.292
      -0.149
       0.078
       0.308
       0.444
       0.425
       0.261
       0.018
      -0.225
      -0.401
      -0.476
      -0.441
      -0.314
      -0.134
       0.042
       0.156
       0.174
       0.096
      -0.034
      -0.148
      -0.185
      -0.119
       0.026
       0.193
       0.333
       0.419
       0.450
       0.433
       0.375
       0.279
       0.146
      -0.013
      -0.176
      -0.301
      -0.349
      -0.311
      -0.226
      -0.155
      -0.129
      -0.115
      -0.050
       0.098
       0.297
       0.464
       0.526
       0.448
       0.243
      -0.047
      -0.347
      -0.567
      -0.626
      -0.496
      -0.235
       0.043
       0.218
       0.220
       0.057
      -0.190
      -0.402
      -0.480
      -0.393
      -0.191
       0.033
       0.205
       0.307
       0.361
       0.388
       0.382
       0.322
       0.202
       0.041
      -0.136
      -0.305
      -0.451
      -0.548
      -0.563
      -0.467
      -0.254
       0.045
       0.375
       0.666
       0.849
       0.876
       0.735
       0.457
       0.100
      -0.261
      -0.552
      -0.709
      -0.698
      -0.531
      -0.267
       0.008
       0.218
       0.320
       0.304
       0.191
       0.027
      -0.121
      -0.191
      -0.155
      -0.041
       0.083
       0.157
       0.164
       0.126
       0.074
       0.023
      -0.026
      -0.060
      -0.063
      -0.024
       0.024
       0.022
      -0.082
      -0.272
      -0.454
      -0.516
      -0.405
      -0.168
       0.083
       0.252
       0.316
       0.315
       0.299
       0.295
       0.293
       0.277
       0.235
       0.166
       0.065
      -0.069
      -0.221
      -0.349
      -0.400
      -0.338
      -0.168
       0.060
       0.275
       0.410
       0.426
       0.318
       0.118
      -0.123
      -0.353
      -0.530
      -0.632
      -0.650
      -0.585
      -0.443
      -0.245
      -0.031
       0.146
       0.252
       0.289
       0.283
       0.247
       0.177
       0.067
      -0.046
      -0.090
      -0.007
       0.188
       0.407
       0.541
       0.524
       0.352
       0.067
      -0.261
      -0.555
      -0.748
      -0.798
