Origin Time       27/06/2008 11:40:16
Lat.              11.0 N 
Long.             91.6 E 
Depth (Km)         10.0
Magnitude         6.7
 Region           Andaman                                                          
 Above details taken from IMD 
   
Station Code      POR
Station Lat.       11.664
Station Long.      92.742
Station Height(m)    5.0
Site Class        B   Vs30 between 375 m/sec to 700 m/sec *  
Record Time       27.06.2008 11:40:24.494
Sampling Rate     200. Hz
 Record Duration   63.410 Sec.
 Direction         Vert. (Up positive)
Max. Acceleration    -22.505 cm/sec**2
     
  * For reference see Site Classification link of website 
     
 Base Line Corrected and Low Pass Filtered (Cut Off at 35 Hz) Time History
 Acceleration data in cm/sec**2
    
[...]
       5.460
       5.951
       6.235
       6.301
       6.244
       6.225
       6.408
       6.883
       7.638
       8.565
       9.501
      10.280
      10.801
      11.059
      11.134
      11.131
      11.111
      11.065
      10.919
      10.585
      10.022
       9.268
       8.402
       7.484
       6.523
       5.494
       4.383
       3.226
       2.104
       1.109
       0.296
      -0.328
      -0.786
      -1.131
      -1.466
      -1.904
      -2.489
      -3.171
      -3.841
      -4.405
      -4.810
      -5.029
      -5.046
      -4.864
      -4.520
      -4.073
      -3.577
      -3.060
      -2.538
      -2.032
      -1.569
      -1.177
      -0.874
      -0.677
      -0.586
      -0.586
      -0.658
      -0.801
      -1.045
      -1.453
      -2.082
      -2.947
      -3.990
      -5.078
      -6.050
      -6.783
      -7.254
      -7.531
      -7.702
      -7.795
      -7.769
      -7.564
      -7.175
      -6.681
      -6.213
      -5.876
      -5.677
      -5.516
      -5.260
      -4.836
      -4.267
      -3.627
      -2.971
      -2.312
      -1.650
      -1.003
      -0.405
       0.115
       0.550
       0.925
       1.287
       1.679
       2.113
       2.567
       2.997
       3.354
       3.617
       3.793
       3.904
       3.956
       3.950
       3.908
       3.880
       3.908
       4.000
       4.145
       4.331
       4.544
       4.750
       4.910
       5.003
       5.042
       5.053
       5.067
       5.100
       5.151
       5.205
       5.261
       5.335
       5.448
       5.605
       5.785
       5.946
       6.025
       5.976
       5.799
       5.561
       5.353
       5.233
       5.192
       5.176
       5.128
       5.014
       4.838
       4.631
       4.418
       4.201
       3.955
       3.651
       3.281
       2.848
       2.356
       1.789
       1.125
       0.342
      -0.568
      -1.594
      -2.688
      -3.764
      -4.723
      -5.515
      -6.171
      -6.775
      -7.394
      -8.036
      -8.666
      -9.261
      -9.831
     -10.393
     -10.942
     -11.458
     -11.931
     -12.362
     -12.737
     -12.996
     -13.057
     -12.864
     -12.420
     -11.782
     -11.014
     -10.157
      -9.242
      -8.300
      -7.370
      -6.465
      -5.554
      -4.591
      -3.556
      -2.480
      -1.409
      -0.359
       0.696
       1.795
       2.947
       4.112
       5.224
       6.224
       7.086
       7.814
       8.443
       9.030
       9.643
      10.321
      11.049
      11.758
      12.367
      12.817
      13.081
      13.150
      13.027
      12.724
      12.273
      11.720
      11.108
      10.478
       9.860
       9.257
       8.652
       8.014
       7.345
       6.701
       6.181
       5.863
       5.760
       5.827
       6.002
       6.249
       6.553
       6.906
       7.294
       7.714
       8.181
       8.716
       9.315
       9.948
      10.583
      11.210
      11.831
      12.424
      12.940
      13.334
      13.598
      13.766
      13.869
      13.899
      13.807
      13.548
      13.120
      12.566
      11.939
      11.273
      10.574
       9.842
       9.083
       8.307
       7.519
       6.714
       5.873
       4.960
       3.934
       2.790
       1.582
       0.402
      -0.692
      -1.722
      -2.765
      -3.893
      -5.116
      -6.388
      -7.630
      -8.774
      -9.768
     -10.569
     -11.146
     -11.506
     -11.701
     -11.826
     -11.965
     -12.165
     -12.409
     -12.625
     -12.720
     -12.640
     -12.426
     -12.199
     -12.087
     -12.141
     -12.305
     -12.447
     -12.430
     -12.184
     -11.744
     -11.223
     -10.732
     -10.322
      -9.970
      -9.612
      -9.177
      -8.598
      -7.834
      -6.882
      -5.796
      -4.686
      -3.696
      -2.965
      -2.562
      -2.457
      -2.557
      -2.768
      -3.042
      -3.389
      -3.838
      -4.384
      -4.974
      -5.548
      -6.104
      -6.709
      -7.420
      -8.219
      -9.025
      -9.770
     -10.448
     -11.086
     -11.702
     -12.286
     -12.815
     -13.275
     -13.663
     -13.986
     -14.244
     -14.422
     -14.506
     -14.498
     -14.422
     -14.310
     -14.189
     -14.073
     -13.957
     -13.810
     -13.607
     -13.346
     -13.056
     -12.767
     -12.484
     -12.177
     -11.785
     -11.252
     -10.568
      -9.773
      -8.932
      -8.093
      -7.269
      -6.455
      -5.642
      -4.834
      -4.041
      -3.282
      -2.572
      -1.915
      -1.308
      -0.742
      -0.195
       0.367
       0.971
       1.604
       2.222
       2.798
       3.348
       3.905
       4.458
       4.936
       5.242
       5.315
       5.153
       4.809
       4.350
       3.822
       3.228
       2.550
       1.784
       0.961
       0.140
      -0.623
      -1.306
      -1.923
      -2.514
      -3.128
      -3.800
      -4.544
      -5.337
      -6.119
      -6.806
      -7.333
      -7.684
      -7.896
      -8.022
      -8.088
      -8.089
      -8.000
      -7.799
      -7.465
      -6.994
      -6.415
      -5.786
      -5.160
      -4.554
      -3.936
      -3.254
      -2.462
      -1.545
      -0.525
       0.544
       1.584
       2.516
       3.303
       3.988
       4.684
       5.506
       6.479
       7.535
       8.558
       9.458
      10.192
      10.761
      11.181
      11.459
      11.574
      11.497
      11.218
      10.764
      10.203
       9.617
       9.064
       8.571
       8.139
       7.776
       7.492
       7.285
       7.115
       6.925
       6.677
       6.366
       6.006
       5.613
       5.210
       4.846
       4.586
       4.477
       4.532
       4.724
       5.013
       5.366
       5.754
       6.139
       6.475
       6.723
       6.869
       6.939
       6.991
       7.088
       7.273
       7.545
       7.867
       8.192
       8.497
       8.800
       9.146
       9.569
      10.056
      10.550
      10.991
      11.363
      11.713
      12.102
      12.546
      12.978
      13.281
      13.356
      13.184
      12.825
      12.365
      11.860
      11.310
      10.692
      10.003
       9.270
       8.529
       7.799
       7.062
       6.284
       5.440
       4.536
       3.590
       2.609
       1.583
       0.503
      -0.616
      -1.729
      -2.795
      -3.814
      -4.837
      -5.930
      -7.122
      -8.384
      -9.660
     -10.912
     -12.142
     -13.369
     -14.587
     -15.759
     -16.851
     -17.836
     -18.686
     -19.368
     -19.868
     -20.204
     -20.410
     -20.507
     -20.483
     -20.302
     -19.931
     -19.373
     -18.676
     -17.906
     -17.124
     -16.375
     -15.676
     -15.017
     -14.375
     -13.726
     -13.055
     -12.350
     -11.619
     -10.908
     -10.294
      -9.836
      -9.513
      -9.224
      -8.859
      -8.383
      -7.848
      -7.325
      -6.842
      -6.374
      -5.878
      -5.333
      -4.737
      -4.070
      -3.274
      -2.301
      -1.191
      -0.067
       0.950
       1.844
       2.688
       3.551
       4.437
       5.297
       6.095
       6.845
       7.609
       8.465
       9.453
      10.534
      11.598
      12.513
      13.191
      13.644
      13.971
      14.290
      14.676
      15.142
      15.648
      16.131
      16.534
      16.842
      17.085
      17.317
      17.590
      17.935
      18.340
      18.742
      19.050
      19.186
      19.136
      18.953
      18.720
      18.493
      18.281
      18.076
      17.894
      17.776
      17.742
      17.757
      17.749
      17.664
      17.522
      17.391
      17.319
      17.281
      17.202
      17.014
      16.694
      16.254
      15.708
      15.074
      14.390
      13.699
      13.010
      12.286
      11.492
      10.629
       9.727
       8.805
       7.865
       6.912
       5.968
       5.037
       4.083
       3.046
       1.904
       0.705
      -0.474
      -1.586
      -2.646
      -3.706
      -4.805
      -5.947
      -7.116
      -8.306
      -9.530
     -10.790
     -12.034
     -13.165
     -14.114
     -14.896
     -15.579
     -16.202
     -16.739
     -17.136
     -17.376
     -17.482
     -17.480
     -17.362
     -17.091
     -16.624
     -15.937
     -15.055
     -14.053
     -13.026
     -12.040
     -11.103
     -10.166
      -9.167
      -8.077
      -6.932
      -5.816
      -4.807
      -3.919
      -3.110
      -2.332
      -1.576
      -0.860
      -0.196
       0.400
       0.904
       1.287
       1.534
       1.635
       1.583
       1.402
       1.159
       0.932
       0.759
       0.633
       0.538
       0.492
       0.528
       0.651
       0.808
       0.930
       1.006
       1.101
       1.265
       1.446
       1.516
       1.397
       1.147
       0.904
       0.774
       0.760
       0.790
       0.774
       0.640
       0.362
      -0.044
      -0.530
      -1.041
      -1.534
      -1.975
      -2.334
      -2.596
      -2.784
      -2.967
      -3.211
      -3.520
      -3.826
      -4.057
      -4.219
      -4.411
      -4.736
      -5.234
      -5.874
      -6.618
      -7.448
      -8.340
      -9.223
      -9.997
     -10.600
     -11.047
     -11.410
     -11.761
     -12.145
     -12.550
     -12.903
     -13.111
     -13.159
     -13.174
     -13.356
     -13.822
     -14.520
     -15.282
     -15.943
     -16.420
     -16.712
     -16.860
     -16.895
     -16.814
     -16.597
     -16.234
     -15.743
     -15.163
     -14.553
     -13.959
     -13.355
     -12.642
     -11.717
     -10.566
      -9.272
      -7.933
      -6.613
      -5.350
      -4.192
      -3.187
      -2.352
      -1.665
      -1.073
      -0.507
       0.087
       0.682
       1.155
       1.368
       1.287
       1.013
       0.701
       0.455
       0.297
       0.204
       0.152
       0.134
       0.132
       0.104
      -0.002
      -0.232
      -0.607
      -1.109
      -1.666
      -2.179
      -2.571
      -2.814
      -2.931
      -2.953
      -2.905
      -2.793
      -2.615
      -2.354
      -1.992
      -1.517
      -0.922
      -0.187
       0.710
       1.749
       2.836
       3.849
       4.735
       5.546
       6.352
       7.157
       7.911
       8.589
       9.225
       9.857
      10.461
      10.960
      11.286
      11.430
      11.435
      11.352
      11.220
      11.066
      10.894
      10.682
      10.386
       9.959
       9.357
       8.560
       7.610
       6.632
       5.773
       5.093
       4.487
       3.757
       2.774
       1.601
       0.446
      -0.486
      -1.107
      -1.435
      -1.520
      -1.395
      -1.079
      -0.605
      -0.032
       0.577
       1.194
       1.854
       2.639
       3.613
       4.740
       5.881
       6.862
       7.575
       8.027
       8.316
       8.569
       8.891
       9.339
       9.905
      10.527
      11.098
      11.531
      11.822
      12.066
      12.379
      12.810
      13.314
      13.816
      14.285
      14.742
      15.219
      15.709
      16.160
      16.508
      16.714
      16.791
      16.783
      16.713
      16.562
      16.306
      15.967
      15.588
      15.179
      14.699
      14.099
      13.371
      12.557
      11.733
      10.994
      10.426
      10.067
       9.890
       9.840
       9.881
      10.021
      10.272
      10.578
      10.806
      10.828
      10.640
      10.359
      10.095
       9.834
       9.460
       8.878
       8.086
       7.137
       6.070
       4.897
       3.648
       2.421
       1.386
       0.687
       0.324
       0.138
      -0.065
      -0.373
      -0.739
      -1.086
      -1.391
      -1.683
      -1.983
      -2.282
      -2.559
      -2.833
      -3.175
      -3.645
      -4.230
      -4.871
      -5.539
      -6.261
      -7.045
      -7.820
      -8.479
      -8.969
      -9.318
      -9.574
      -9.740
      -9.787
      -9.707
      -9.524
      -9.271
      -8.960
      -8.599
      -8.211
      -7.845
      -7.551
      -7.358
      -7.253
      -7.209
      -7.213
      -7.275
      -7.418
      -7.672
      -8.075
      -8.650
      -9.383
     -10.215
     -11.075
     -11.909
     -12.693
     -13.432
     -14.156
     -14.897
     -15.660
     -16.418
     -17.130
     -17.770
     -18.341
     -18.871
     -19.383
     -19.882
     -20.362
     -20.833
     -21.313
     -21.783
     -22.167
     -22.387
     -22.455
     -22.470
     -22.505
     -22.493
     -22.254
     -21.637
     -20.644
     -19.437
     -18.213
     -17.072
     -15.971
     -14.797
     -13.470
     -11.989
     -10.407
      -8.792
      -7.214
      -5.750
      -4.458
      -3.352
      -2.391
      -1.504
      -0.616
       0.328
       1.341
       2.369
       3.323
       4.152
       4.899
       5.671
       6.554
       7.553
       8.599
       9.603
      10.504
      11.255
      11.798
      12.065
      12.032
      11.769
      11.425
      11.160
      11.071
      11.157
      11.319
      11.406
      11.292
      10.952
      10.476
      10.007
       9.640
       9.378
       9.172
       8.998
       8.892
       8.910
       9.074
       9.366
       9.765
      10.245
      10.743
      11.191
      11.592
      12.036
      12.584
      13.156
      13.564
      13.652
      13.415
      13.011
      12.669
      12.527
      12.561
      12.684
      12.908
      13.332
      13.965
      14.633
      15.112
      15.322
      15.372
      15.420
      15.528
      15.640
      15.685
      15.649
      15.527
      15.248
      14.681
      13.773
      12.662
      11.608
      10.765
      10.034
       9.166
       8.027
       6.740
       5.544
       4.553
       3.688
       2.829
       1.973
       1.233
       0.700
       0.344
       0.050
      -0.284
      -0.685
      -1.127
      -1.577
      -2.034
      -2.531
      -3.134
      -3.906
      -4.864
      -5.947
      -7.046
      -8.078
      -9.018
      -9.879
     -10.653
     -11.316
     -11.886
     -12.455
     -13.105
     -13.792
     -14.366
     -14.731
     -14.953
     -15.165
     -15.385
     -15.479
     -15.325
     -14.983
     -14.642
     -14.388
     -14.104
     -13.625
     -12.947
     -12.250
     -11.702
     -11.321
     -11.004
     -10.677
     -10.374
     -10.175
     -10.091
     -10.031
      -9.898
      -9.705
      -9.560
      -9.550
      -9.632
      -9.653
      -9.495
      -9.199
      -8.924
      -8.765
      -8.645
      -8.417
      -8.050
      -7.669
      -7.428
      -7.360
      -7.372
      -7.342
      -7.216
      -7.015
      -6.786
      -6.574
      -6.442
      -6.465
      -6.658
      -6.912
      -7.034
      -6.867
      -6.395
      -5.735
      -5.054
      -4.479
      -4.074
      -3.853
      -3.789
      -3.808
      -3.795
      -3.643
      -3.312
      -2.854
      -2.368
      -1.935
      -1.575
      -1.272
      -1.007
      -0.766
      -0.526
      -0.261
       0.040
       0.352
       0.630
       0.832
       0.940
       0.960
       0.922
       0.864
       0.823
       0.850
       1.003
       1.294
       1.641
       1.905
       2.009
       2.014
       2.071
       2.287
       2.664
       3.121
       3.585
       4.057
       4.592
       5.221
       5.916
       6.630
       7.354
       8.148
       9.101
      10.235
      11.426
      12.473
      13.259
      13.827
      14.285
      14.688
      15.045
      15.382
      15.722
      16.034
      16.268
      16.419
      16.515
      16.539
      16.397
      16.010
      15.437
      14.874
      14.480
      14.218
      13.901
      13.385
      12.700
      12.013
      11.513
      11.291
      11.287
      11.317
      11.227
      11.006
      10.756
      10.548
      10.328
       9.980
       9.466
       8.883
       8.352
       7.889
       7.400
       6.817
       6.173
       5.553
       4.999
       4.501
       4.073
       3.788
       3.716
       3.844
       4.063
       4.266
       4.430
       4.604
       4.854
       5.221
       5.706
       6.277
       6.890
       7.506
       8.101
       8.645
       9.094
       9.400
       9.537
       9.516
       9.392
       9.235
       9.072
       8.846
       8.454
       7.830
       6.999
       6.062
       5.128
       4.259
       3.480
       2.792
       2.160
       1.489
       0.671
      -0.317
      -1.382
      -2.399
      -3.312
      -4.157
      -4.988
      -5.808
      -6.579
      -7.263
      -7.848
      -8.337
      -8.753
      -9.178
      -9.716
     -10.389
     -11.076
     -11.605
     -11.916
     -12.126
     -12.415
     -12.840
     -13.274
     -13.561
     -13.711
     -13.886
     -14.207
     -14.603
     -14.897
     -15.002
     -15.012
     -15.086
     -15.280
     -15.508
     -15.648
     -15.659
     -15.588
     -15.470
     -15.299
     -15.108
     -14.997
     -15.026
     -15.121
     -15.128
     -14.954
     -14.637
     -14.277
     -13.916
     -13.501
     -12.957
     -12.289
     -11.597
     -10.996
     -10.538
     -10.200
      -9.918
      -9.615
      -9.238
      -8.791
      -8.319
      -7.865
      -7.420
      -6.913
      -6.266
      -5.465
      -4.606
      -3.847
      -3.298
      -2.930
      -2.605
      -2.207
      -1.740
      -1.298
      -0.969
      -0.770
      -0.672
      -0.666
      -0.786
      -1.041
      -1.349
      -1.552
      -1.530
      -1.284
      -0.915
      -0.533
      -0.194
       0.096
       0.341
       0.528
       0.656
       0.763
       0.902
       1.094
       1.308
       1.508
       1.697
       1.911
       2.160
       2.392
       2.530
       2.533
       2.425
       2.273
       2.138
       2.045
       1.971
       1.864
       1.704
       1.539
       1.459
