Origin Time       20/10/2013 19:45:05 UTC
Lat.              35.8 N	
Long.             77.5 E	
Depth (Km)         80.0
Magnitude         5.5
 Region           India-China-Border-Region                                        
 Above details taken from IMD 
    
Station Code      IGN
Station Lat.       28.492  N
Station Long.      77.203  E
Station Height(m)  263.0
Site Class        A   Vs30 between 700 m/sec to 1400 m/sec * 
Record Time       20.10.2013 19:47:37.134 UTC
Sampling Rate     200. Hz
 Record Duration   81.030 Sec.
 Direction         N-S (N positive)
Max. Acceleration      2.173 cm/sec**2
     
  * For reference see Site Classification link of website 
     
 Base Line Corrected and Low Pass Filtered (Cut Off at 35 Hz) Time History
 Acceleration data in cm/sec**2
    
[...]
       0.039
       0.086
       0.097
       0.055
      -0.027
      -0.113
      -0.168
      -0.170
      -0.116
      -0.020
       0.094
       0.192
       0.240
       0.221
       0.147
       0.056
      -0.007
      -0.019
       0.014
       0.053
       0.055
       0.002
      -0.081
      -0.148
      -0.162
      -0.119
      -0.037
       0.063
       0.162
       0.242
       0.284
       0.279
       0.243
       0.211
       0.213
       0.253
       0.312
       0.363
       0.397
       0.413
       0.415
       0.399
       0.358
       0.290
       0.200
       0.095
      -0.009
      -0.093
      -0.152
      -0.203
      -0.270
      -0.367
      -0.481
      -0.577
      -0.622
      -0.597
      -0.508
      -0.372
      -0.216
      -0.065
       0.063
       0.148
       0.174
       0.134
       0.039
      -0.076
      -0.163
      -0.187
      -0.140
      -0.044
       0.066
       0.161
       0.228
       0.264
       0.269
       0.244
       0.197
       0.144
       0.100
       0.075
       0.065
       0.061
       0.052
       0.028
      -0.013
      -0.068
      -0.131
      -0.198
      -0.272
      -0.350
      -0.419
      -0.455
      -0.443
      -0.392
      -0.332
      -0.292
      -0.276
      -0.263
      -0.223
      -0.137
      -0.004
       0.166
       0.352
       0.529
       0.664
       0.730
       0.717
       0.639
       0.521
       0.394
       0.290
       0.240
       0.261
       0.336
       0.419
       0.462
       0.448
       0.389
       0.304
       0.200
       0.076
      -0.060
      -0.189
      -0.295
      -0.378
      -0.455
      -0.537
      -0.621
      -0.688
      -0.714
      -0.680
      -0.579
      -0.422
      -0.237
      -0.059
       0.083
       0.176
       0.224
       0.236
       0.219
       0.170
       0.089
      -0.007
      -0.090
      -0.133
      -0.129
      -0.091
      -0.036
       0.016
       0.052
       0.057
       0.020
      -0.055
      -0.147
      -0.228
      -0.282
      -0.312
      -0.333
      -0.356
      -0.365
      -0.332
      -0.232
      -0.070
       0.127
       0.322
       0.494
       0.634
       0.726
       0.754
       0.711
       0.618
       0.517
       0.445
       0.417
       0.417
       0.417
       0.394
       0.344
       0.276
       0.202
       0.118
       0.007
      -0.145
      -0.329
      -0.510
      -0.642
      -0.695
      -0.666
      -0.583
      -0.476
      -0.360
      -0.242
      -0.134
      -0.060
      -0.039
      -0.067
      -0.112
      -0.139
      -0.137
      -0.118
      -0.100
      -0.080
      -0.037
       0.046
       0.161
       0.281
       0.372
       0.416
       0.417
       0.392
       0.361
       0.341
       0.338
       0.351
       0.370
       0.382
       0.371
       0.326
       0.242
       0.123
      -0.024
      -0.182
      -0.333
      -0.462
      -0.564
      -0.649
      -0.726
      -0.796
      -0.840
      -0.832
      -0.757
      -0.631
      -0.492
      -0.370
      -0.267
      -0.162
      -0.042
       0.080
       0.174
       0.226
       0.253
       0.290
       0.365
       0.482
       0.616
       0.727
       0.782
       0.761
       0.669
       0.516
       0.314
       0.069
      -0.204
      -0.464
      -0.652
      -0.732
      -0.714
      -0.648
      -0.586
      -0.545
      -0.513
      -0.467
      -0.390
      -0.282
      -0.151
      -0.012
       0.116
       0.219
       0.299
       0.375
       0.475
       0.617
       0.792
       0.968
       1.104
       1.167
       1.145
       1.040
       0.867
       0.652
       0.425
       0.207
       0.007
      -0.174
      -0.334
      -0.469
      -0.579
      -0.663
      -0.714
      -0.720
      -0.676
      -0.588
      -0.473
      -0.349
      -0.226
      -0.118
      -0.042
      -0.017
      -0.045
      -0.111
      -0.194
      -0.281
      -0.362
      -0.422
      -0.442
      -0.408
      -0.321
      -0.205
      -0.091
       0.002
       0.078
       0.155
       0.241
       0.323
       0.368
       0.349
       0.251
       0.086
      -0.114
      -0.303
      -0.444
      -0.522
      -0.547
      -0.539
      -0.511
      -0.458
      -0.367
      -0.234
      -0.072
       0.084
       0.201
       0.259
       0.262
       0.235
       0.220
       0.252
       0.342
       0.476
       0.623
       0.765
       0.894
       1.000
       1.060
       1.051
       0.968
       0.832
       0.675
       0.511
       0.339
       0.151
      -0.052
      -0.255
      -0.440
      -0.593
      -0.705
      -0.768
      -0.769
      -0.709
      -0.614
      -0.530
      -0.499
      -0.533
      -0.610
      -0.689
      -0.725
      -0.687
      -0.567
      -0.378
      -0.158
       0.050
       0.217
       0.340
       0.440
       0.539
       0.636
       0.704
       0.711
       0.647
       0.536
       0.417
       0.322
       0.263
       0.241
       0.245
       0.257
       0.249
       0.198
       0.101
      -0.022
      -0.143
      -0.245
      -0.329
      -0.408
      -0.490
      -0.564
      -0.617
      -0.641
      -0.643
      -0.640
      -0.631
      -0.595
      -0.501
      -0.344
      -0.152
       0.035
       0.191
       0.314
       0.413
       0.484
       0.523
       0.538
       0.553
       0.588
       0.645
       0.709
       0.758
       0.773
       0.736
       0.631
       0.462
       0.241
      -0.014
      -0.283
      -0.537
      -0.728
      -0.814
      -0.780
      -0.658
      -0.502
      -0.355
      -0.233
      -0.124
      -0.012
       0.108
       0.228
       0.323
       0.364
       0.326
       0.209
       0.043
      -0.117
      -0.223
      -0.252
      -0.208
      -0.114
      -0.005
       0.079
       0.105
       0.065
      -0.021
      -0.127
      -0.237
      -0.348
      -0.455
      -0.530
      -0.529
      -0.418
      -0.189
       0.126
       0.461
       0.730
       0.849
       0.775
       0.535
       0.213
      -0.092
      -0.310
      -0.425
      -0.462
      -0.452
      -0.411
      -0.340
      -0.234
      -0.091
       0.077
       0.240
       0.345
       0.339
       0.208
      -0.002
      -0.206
      -0.322
      -0.312
      -0.184
       0.022
       0.254
       0.460
       0.613
       0.714
       0.777
       0.803
       0.766
       0.632
       0.404
       0.132
      -0.115
      -0.298
      -0.432
      -0.563
      -0.722
      -0.902
      -1.061
      -1.150
      -1.132
      -0.999
      -0.781
      -0.543
      -0.357
      -0.272
      -0.272
      -0.286
      -0.233
      -0.080
       0.140
       0.365
       0.554
       0.708
       0.851
       0.987
       1.092
       1.125
       1.068
       0.942
       0.796
       0.680
       0.615
       0.583
       0.539
       0.436
       0.253
       0.017
      -0.203
      -0.331
      -0.335
      -0.253
      -0.159
      -0.124
      -0.171
      -0.280
      -0.415
      -0.547
      -0.665
      -0.763
      -0.823
      -0.819
      -0.742
      -0.607
      -0.452
      -0.313
      -0.208
      -0.129
      -0.053
       0.035
       0.135
       0.220
       0.257
       0.229
       0.148
       0.054
      -0.003
       0.009
       0.099
       0.248
       0.417
       0.561
       0.643
       0.637
       0.533
       0.330
       0.046
      -0.267
      -0.534
      -0.687
      -0.695
      -0.576
      -0.379
      -0.158
       0.048
       0.212
       0.316
       0.343
       0.286
       0.157
       0.000
      -0.132
      -0.199
      -0.187
      -0.109
       0.016
       0.166
       0.329
       0.495
       0.649
       0.758
       0.784
       0.688
       0.455
       0.116
      -0.252
      -0.546
      -0.694
      -0.690
      -0.585
      -0.438
      -0.280
      -0.110
       0.069
       0.240
       0.365
       0.418
       0.391
       0.293
       0.145
      -0.024
      -0.177
      -0.282
      -0.335
      -0.358
      -0.377
      -0.400
      -0.413
      -0.401
      -0.363
      -0.317
      -0.276
      -0.237
      -0.173
      -0.058
       0.113
       0.306
       0.461
       0.519
       0.468
       0.359
       0.277
       0.273
       0.322
       0.354
       0.313
       0.202
       0.060
      -0.088
      -0.257
      -0.466
      -0.710
      -0.934
      -1.063
      -1.031
      -0.814
      -0.446
      -0.010
       0.392
       0.690
       0.870
       0.966
       1.011
       1.014
       0.968
       0.889
       0.817
       0.783
       0.773
       0.730
       0.599
       0.372
       0.092
      -0.178
      -0.387
      -0.511
      -0.547
      -0.496
      -0.374
      -0.210
      -0.049
       0.060
       0.081
       0.003
      -0.154
      -0.348
      -0.531
      -0.665
      -0.730
      -0.718
      -0.628
      -0.480
      -0.313
      -0.173
      -0.105
      -0.136
      -0.268
      -0.468
      -0.671
      -0.805
      -0.829
      -0.739
      -0.561
      -0.330
      -0.083
       0.141
       0.305
       0.391
       0.402
       0.362
       0.300
       0.244
       0.213
       0.214
       0.251
       0.325
       0.435
       0.573
       0.714
       0.825
       0.882
       0.875
       0.812
       0.693
       0.509
       0.254
      -0.053
      -0.366
      -0.630
      -0.808
      -0.897
      -0.910
      -0.856
      -0.727
      -0.505
      -0.182
       0.210
       0.609
       0.933
       1.118
       1.137
       1.007
       0.777
       0.516
       0.290
       0.144
       0.084
       0.078
       0.074
       0.034
      -0.047
      -0.149
      -0.261
      -0.392
      -0.551
      -0.727
      -0.887
      -0.989
      -1.009
      -0.942
      -0.804
      -0.623
      -0.431
      -0.255
      -0.107
       0.013
       0.109
       0.181
       0.223
       0.225
       0.192
       0.147
       0.124
       0.155
       0.247
       0.375
       0.489
       0.544
       0.517
       0.404
       0.224
       0.009
      -0.183
      -0.283
      -0.238
      -0.051
       0.208
       0.432
       0.532
       0.488
       0.346
       0.171
      -0.003
      -0.177
      -0.357
      -0.521
      -0.625
      -0.628
      -0.522
      -0.335
      -0.124
       0.044
       0.127
       0.138
       0.136
       0.194
       0.341
       0.527
       0.650
       0.625
       0.453
       0.217
       0.029
      -0.043
      -0.008
       0.069
       0.119
       0.111
       0.062
       0.013
      -0.006
       0.010
       0.040
       0.047
       0.003
      -0.099
      -0.222
      -0.306
      -0.295
      -0.176
       0.017
       0.222
       0.383
       0.470
       0.478
       0.413
       0.277
       0.073
      -0.185
      -0.463
      -0.712
      -0.876
      -0.914
      -0.819
      -0.624
      -0.402
      -0.226
      -0.135
      -0.113
      -0.102
      -0.049
       0.065
       0.221
       0.395
       0.577
       0.761
       0.916
       0.982
       0.903
       0.679
       0.372
       0.063
      -0.188
      -0.366
      -0.482
      -0.538
      -0.516
      -0.393
      -0.183
       0.055
       0.239
       0.312
       0.261
       0.126
      -0.030
      -0.140
      -0.165
      -0.106
       0.001
       0.105
       0.168
       0.180
       0.151
       0.097
       0.041
       0.010
       0.027
       0.097
       0.200
       0.305
       0.381
       0.404
       0.360
       0.240
       0.038
      -0.244
      -0.591
      -0.947
      -1.224
      -1.329
      -1.228
      -0.973
      -0.667
      -0.402
      -0.213
      -0.098
      -0.062
      -0.123
      -0.282
      -0.491
      -0.663
      -0.721
      -0.641
      -0.460
      -0.240
      -0.037
       0.126
       0.251
       0.354
       0.451
       0.546
       0.640
       0.730
       0.805
       0.840
       0.797
       0.661
       0.469
       0.302
       0.237
       0.293
       0.416
       0.524
       0.573
       0.581
       0.607
       0.692
       0.835
       0.981
       1.050
       0.961
       0.672
       0.210
      -0.312
      -0.731
      -0.915
      -0.833
      -0.576
      -0.301
      -0.131
      -0.105
      -0.190
      -0.344
      -0.551
      -0.807
      -1.089
      -1.340
      -1.488
      -1.467
      -1.234
      -0.773
      -0.108
       0.679
       1.443
       1.997
       2.173
       1.907
       1.282
       0.504
      -0.177
      -0.576
      -0.628
      -0.394
      -0.012
       0.352
       0.553
       0.512
       0.233
      -0.202
      -0.674
      -1.073
      -1.333
      -1.435
      -1.390
      -1.229
      -0.998
      -0.750
      -0.536
      -0.385
      -0.288
      -0.197
      -0.052
       0.183
       0.495
       0.833
       1.128
       1.306
       1.303
       1.080
       0.656
       0.128
      -0.355
      -0.642
      -0.652
      -0.404
      -0.009
       0.385
       0.641
       0.682
       0.514
       0.216
      -0.096
      -0.317
      -0.392
      -0.327
      -0.170
       0.023
       0.228
       0.443
       0.664
       0.866
       1.001
       1.031
       0.941
       0.748
       0.483
       0.186
      -0.106
      -0.351
      -0.513
      -0.575
      -0.557
      -0.497
      -0.430
      -0.370
      -0.317
      -0.283
      -0.297
      -0.372
      -0.476
      -0.523
      -0.425
      -0.163
       0.183
       0.477
       0.609
       0.553
       0.355
       0.089
      -0.183
      -0.418
      -0.581
      -0.646
      -0.618
      -0.532
      -0.443
      -0.394
      -0.405
      -0.464
      -0.534
      -0.553
      -0.463
      -0.238
       0.093
       0.454
       0.762
       0.962
       1.030
       0.965
       0.777
       0.498
       0.191
      -0.060
      -0.189
      -0.179
      -0.068
       0.082
       0.225
       0.336
       0.391
       0.356
       0.203
      -0.054
      -0.353
      -0.615
      -0.807
      -0.944
      -1.052
      -1.114
      -1.078
      -0.915
      -0.662
      -0.402
      -0.195
      -0.036
       0.127
       0.340
       0.591
       0.819
       0.948
       0.930
       0.776
       0.547
       0.326
       0.183
       0.149
       0.212
       0.336
       0.486
       0.636
       0.760
       0.822
       0.784
       0.625
       0.351
      -0.003
      -0.386
      -0.738
      -0.998
      -1.118
      -1.086
      -0.927
      -0.690
      -0.420
      -0.150
       0.103
       0.328
       0.517
       0.661
       0.752
       0.772
       0.714
       0.590
       0.427
       0.252
       0.072
      -0.122
      -0.327
      -0.523
      -0.682
      -0.785
      -0.828
      -0.824
      -0.782
      -0.698
      -0.555
      -0.359
      -0.162
      -0.046
      -0.051
      -0.132
      -0.186
      -0.128
       0.049
       0.286
       0.512
       0.682
       0.783
       0.812
       0.762
       0.633
       0.444
       0.244
       0.100
       0.059
       0.118
       0.215
       0.270
       0.241
       0.155
       0.068
       0.009
      -0.051
      -0.156
      -0.317
      -0.504
      -0.682
      -0.824
      -0.899
      -0.860
      -0.678
      -0.378
      -0.057
       0.168
       0.242
       0.212
       0.190
       0.271
       0.461
       0.668
       0.768
       0.692
       0.470
       0.205
       0.002
      -0.103
      -0.152
      -0.217
      -0.328
      -0.441
      -0.476
      -0.402
      -0.269
      -0.178
      -0.194
      -0.300
      -0.425
      -0.505
      -0.528
      -0.509
      -0.453
      -0.348
      -0.192
       0.001
       0.201
       0.387
       0.547
       0.672
       0.752
       0.783
       0.776
       0.759
       0.747
       0.728
       0.669
       0.541
       0.346
       0.110
      -0.143
      -0.394
      -0.614
      -0.754
      -0.780
      -0.701
      -0.575
      -0.461
      -0.381
      -0.319
      -0.249
      -0.178
      -0.141
      -0.181
      -0.308
      -0.482
      -0.618
      -0.630
      -0.476
      -0.194
       0.117
       0.355
       0.471
       0.492
       0.483
       0.495
       0.525
       0.525
       0.436
       0.228
      -0.072
      -0.379
      -0.574
      -0.553
      -0.289
       0.136
       0.554
       0.807
       0.843
       0.721
       0.536
       0.328
       0.078
      -0.224
      -0.513
      -0.679
      -0.643
      -0.427
      -0.132
       0.125
       0.270
       0.285
       0.181
      -0.012
      -0.249
      -0.465
      -0.577
      -0.522
      -0.291
       0.046
       0.369
       0.571
       0.603
       0.483
       0.271
       0.030
      -0.179
      -0.309
      -0.339
      -0.294
      -0.234
      -0.212
      -0.232
      -0.249
      -0.216
      -0.125
      -0.010
       0.090
       0.161
       0.212
       0.248
       0.247
       0.187
       0.074
      -0.034
      -0.064
       0.020
       0.181
       0.341
       0.435
       0.459
       0.448
       0.423
       0.366
       0.250
       0.078
      -0.112
      -0.272
      -0.383
      -0.449
      -0.485
      -0.495
      -0.475
      -0.419
      -0.325
      -0.203
      -0.064
       0.086
       0.236
       0.363
       0.438
       0.438
       0.357
       0.216
       0.055
      -0.085
      -0.172
      -0.195
      -0.152
      -0.038
       0.136
       0.323
       0.440
       0.407
       0.204
      -0.117
      -0.457
      -0.722
      -0.849
      -0.817
      -0.634
      -0.352
      -0.064
       0.130
       0.176
       0.097
      -0.036
      -0.159
      -0.258
      -0.343
      -0.414
      -0.426
      -0.323
      -0.100
       0.165
       0.352
       0.386
       0.288
       0.140
