Origin Time       20/10/2013 19:45:05
Lat.              35.8 N	
Long.             77.5 E	
Depth (Km)         80.0
Magnitude         5.5
 Region           India-China-Border-Region                                        
 Above details taken from IMD 
   
Station Code      IGN
Station Lat.       28.492
Station Long.      77.203
Station Height(m)  263.0
Site Class        A   Vs30 between 700 m/sec to 1400 m/sec * 
Record Time       20.10.2013 19:47:37.134
Sampling Rate     200. Hz
 Record Duration   81.030 Sec.
 Direction         Vert. (Up positive)
Max. Acceleration      0.931 cm/sec**2
     
  * For reference see Site Classification link of website 
     
 Base Line Corrected and Low Pass Filtered (Cut Off at 35 Hz) Time History
 Acceleration data in cm/sec**2
    
[...]
       0.042
       0.047
       0.016
       0.002
       0.027
       0.062
       0.064
       0.022
      -0.028
      -0.032
       0.027
       0.112
       0.156
       0.118
       0.012
      -0.095
      -0.131
      -0.079
       0.011
       0.061
       0.042
      -0.011
      -0.035
      -0.002
       0.063
       0.107
       0.098
       0.039
      -0.038
      -0.093
      -0.107
      -0.086
      -0.055
      -0.039
      -0.041
      -0.045
      -0.039
      -0.034
      -0.047
      -0.070
      -0.064
      -0.006
       0.076
       0.126
       0.121
       0.094
       0.095
       0.136
       0.173
       0.160
       0.094
       0.020
      -0.016
      -0.009
       0.009
       0.005
      -0.026
      -0.062
      -0.081
      -0.085
      -0.090
      -0.109
      -0.131
      -0.138
      -0.117
      -0.078
      -0.043
      -0.039
      -0.068
      -0.114
      -0.145
      -0.139
      -0.096
      -0.040
       0.001
       0.013
      -0.001
      -0.036
      -0.091
      -0.156
      -0.203
      -0.204
      -0.155
      -0.077
      -0.001
       0.046
       0.053
       0.029
       0.000
      -0.009
       0.010
       0.037
       0.048
       0.041
       0.030
       0.025
       0.021
       0.003
      -0.028
      -0.049
      -0.037
       0.003
       0.034
       0.026
      -0.011
      -0.026
       0.024
       0.125
       0.206
       0.193
       0.083
      -0.046
      -0.096
      -0.040
       0.053
       0.085
       0.020
      -0.088
      -0.156
      -0.142
      -0.070
       0.002
       0.034
       0.027
       0.017
       0.034
       0.072
       0.090
       0.052
      -0.039
      -0.136
      -0.186
      -0.179
      -0.145
      -0.125
      -0.120
      -0.099
      -0.038
       0.057
       0.147
       0.199
       0.201
       0.169
       0.134
       0.129
       0.174
       0.256
       0.331
       0.353
       0.305
       0.213
       0.116
       0.037
      -0.026
      -0.076
      -0.100
      -0.082
      -0.024
       0.042
       0.078
       0.073
       0.052
       0.049
       0.067
       0.072
       0.027
      -0.068
      -0.171
      -0.224
      -0.197
      -0.101
       0.019
       0.104
       0.124
       0.094
       0.058
       0.055
       0.089
       0.134
       0.166
       0.170
       0.138
       0.076
       0.010
      -0.024
      -0.023
      -0.015
      -0.034
      -0.079
      -0.114
      -0.105
      -0.061
      -0.022
      -0.025
      -0.065
      -0.102
      -0.103
      -0.060
       0.006
       0.067
       0.105
       0.119
       0.123
       0.133
       0.151
       0.169
       0.174
       0.159
       0.123
       0.074
       0.027
      -0.007
      -0.025
      -0.038
      -0.051
      -0.055
      -0.035
       0.010
       0.061
       0.095
       0.098
       0.070
       0.018
      -0.044
      -0.101
      -0.144
      -0.176
      -0.201
      -0.212
      -0.195
      -0.147
      -0.093
      -0.066
      -0.074
      -0.089
      -0.072
      -0.017
       0.044
       0.075
       0.061
       0.017
      -0.034
      -0.071
      -0.083
      -0.071
      -0.052
      -0.044
      -0.048
      -0.043
      -0.006
       0.065
       0.145
       0.189
       0.167
       0.086
      -0.004
      -0.047
      -0.017
       0.053
       0.101
       0.084
       0.014
      -0.065
      -0.126
      -0.174
      -0.221
      -0.253
      -0.244
      -0.181
      -0.090
      -0.008
       0.055
       0.115
       0.179
       0.225
       0.222
       0.171
       0.108
       0.076
       0.084
       0.107
       0.111
       0.079
       0.022
      -0.030
      -0.052
      -0.038
      -0.004
       0.022
       0.007
      -0.058
      -0.142
      -0.190
      -0.168
      -0.092
      -0.017
       0.010
      -0.008
      -0.027
      -0.008
       0.050
       0.114
       0.155
       0.165
       0.157
       0.142
       0.126
       0.106
       0.077
       0.038
       0.006
       0.009
       0.055
       0.111
       0.117
       0.044
      -0.081
      -0.188
      -0.220
      -0.178
      -0.112
      -0.072
      -0.064
      -0.065
      -0.057
      -0.046
      -0.043
      -0.044
      -0.040
      -0.032
      -0.025
      -0.016
      -0.004
      -0.002
      -0.031
      -0.093
      -0.156
      -0.172
      -0.119
      -0.025
       0.055
       0.088
       0.090
       0.108
       0.163
       0.222
       0.238
       0.204
       0.162
       0.157
       0.184
       0.200
       0.166
       0.084
      -0.014
      -0.096
      -0.152
      -0.188
      -0.212
      -0.224
      -0.225
      -0.215
      -0.204
      -0.197
      -0.193
      -0.185
      -0.164
      -0.126
      -0.076
      -0.026
       0.017
       0.056
       0.101
       0.147
       0.164
       0.129
       0.040
      -0.074
      -0.173
      -0.218
      -0.184
      -0.077
       0.073
       0.215
       0.303
       0.311
       0.246
       0.142
       0.042
      -0.024
      -0.047
      -0.036
      -0.004
       0.038
       0.074
       0.085
       0.061
       0.017
      -0.019
      -0.032
      -0.039
      -0.065
      -0.114
      -0.157
      -0.141
      -0.034
       0.130
       0.269
       0.305
       0.238
       0.144
       0.117
       0.192
       0.316
       0.393
       0.360
       0.232
       0.078
      -0.047
      -0.131
      -0.204
      -0.290
      -0.397
      -0.499
      -0.562
      -0.560
      -0.501
      -0.422
      -0.363
      -0.346
      -0.356
      -0.351
      -0.290
      -0.163
       0.007
       0.175
       0.296
       0.349
       0.343
       0.306
       0.272
       0.257
       0.254
       0.252
       0.252
       0.259
       0.261
       0.221
       0.115
      -0.036
      -0.173
      -0.239
      -0.219
      -0.148
      -0.081
      -0.059
      -0.077
      -0.101
      -0.096
      -0.063
      -0.028
      -0.013
      -0.014
      -0.019
      -0.022
      -0.025
      -0.022
      -0.002
       0.034
       0.065
       0.063
       0.015
      -0.051
      -0.087
      -0.056
       0.034
       0.143
       0.233
       0.297
       0.352
       0.402
       0.416
       0.344
       0.174
      -0.036
      -0.186
      -0.222
      -0.178
      -0.140
      -0.177
      -0.292
      -0.435
      -0.541
      -0.577
      -0.550
      -0.494
      -0.434
      -0.374
      -0.306
      -0.228
      -0.153
      -0.081
      -0.001
       0.101
       0.219
       0.330
       0.411
       0.459
       0.483
       0.494
       0.489
       0.450
       0.359
       0.221
       0.067
      -0.059
      -0.133
      -0.159
      -0.167
      -0.186
      -0.227
      -0.272
      -0.290
      -0.262
      -0.196
      -0.122
      -0.074
      -0.061
      -0.063
      -0.050
      -0.012
       0.024
       0.021
      -0.039
      -0.120
      -0.160
      -0.110
       0.024
       0.192
       0.335
       0.413
       0.410
       0.337
       0.224
       0.115
       0.048
       0.035
       0.059
       0.083
       0.078
       0.035
      -0.027
      -0.075
      -0.086
      -0.072
      -0.073
      -0.114
      -0.177
      -0.222
      -0.217
      -0.169
      -0.116
      -0.096
      -0.111
      -0.122
      -0.079
       0.028
       0.161
       0.267
       0.310
       0.289
       0.221
       0.142
       0.084
       0.061
       0.064
       0.069
       0.060
       0.039
       0.022
       0.026
       0.051
       0.082
       0.100
       0.098
       0.085
       0.076
       0.084
       0.104
       0.115
       0.091
       0.025
      -0.062
      -0.128
      -0.135
      -0.065
       0.062
       0.187
       0.252
       0.232
       0.144
       0.039
      -0.034
      -0.060
      -0.066
      -0.095
      -0.159
      -0.230
      -0.269
      -0.251
      -0.181
      -0.088
      -0.009
       0.033
       0.055
       0.095
       0.174
       0.269
       0.335
       0.348
       0.311
       0.242
       0.157
       0.076
       0.023
       0.004
       0.001
      -0.013
      -0.041
      -0.067
      -0.075
      -0.066
      -0.041
      -0.007
       0.025
       0.028
      -0.013
      -0.086
      -0.154
      -0.182
      -0.166
      -0.131
      -0.104
      -0.099
      -0.109
      -0.121
      -0.121
      -0.095
      -0.032
       0.063
       0.156
       0.204
       0.189
       0.130
       0.072
       0.051
       0.072
       0.103
       0.106
       0.063
      -0.019
      -0.121
      -0.226
      -0.326
      -0.410
      -0.465
      -0.481
      -0.453
      -0.389
      -0.299
      -0.196
      -0.089
       0.016
       0.121
       0.218
       0.285
       0.310
       0.311
       0.334
       0.406
       0.504
       0.564
       0.540
       0.438
       0.296
       0.156
       0.055
       0.015
       0.031
       0.069
       0.085
       0.062
       0.020
      -0.029
      -0.098
      -0.206
      -0.326
      -0.401
      -0.390
      -0.315
      -0.237
      -0.192
      -0.168
      -0.131
      -0.068
       0.015
       0.106
       0.197
       0.273
       0.308
       0.291
       0.244
       0.200
       0.164
       0.118
       0.057
       0.008
      -0.005
       0.006
       0.008
      -0.010
      -0.021
       0.011
       0.084
       0.158
       0.197
       0.195
       0.174
       0.155
       0.145
       0.130
       0.077
      -0.041
      -0.226
      -0.439
      -0.617
      -0.709
      -0.705
      -0.635
      -0.548
      -0.475
      -0.413
      -0.337
      -0.224
      -0.062
       0.136
       0.343
       0.526
       0.665
       0.757
       0.799
       0.782
       0.702
       0.568
       0.418
       0.293
       0.207
       0.118
      -0.038
      -0.277
      -0.527
      -0.674
      -0.647
      -0.481
      -0.285
      -0.161
      -0.138
      -0.169
      -0.182
      -0.126
      -0.005
       0.134
       0.237
       0.286
       0.310
       0.354
       0.426
       0.487
       0.484
       0.404
       0.284
       0.182
       0.132
       0.123
       0.110
       0.045
      -0.087
      -0.248
      -0.379
      -0.444
      -0.450
      -0.434
      -0.427
      -0.429
      -0.420
      -0.380
      -0.309
      -0.221
      -0.139
      -0.075
      -0.039
      -0.035
      -0.060
      -0.088
      -0.081
      -0.017
       0.092
       0.210
       0.295
       0.324
       0.300
       0.263
       0.257
       0.306
       0.393
       0.475
       0.518
       0.508
       0.455
       0.379
       0.295
       0.205
       0.103
      -0.016
      -0.134
      -0.219
      -0.255
      -0.255
      -0.254
      -0.272
      -0.298
      -0.303
      -0.269
      -0.207
      -0.145
      -0.111
      -0.105
      -0.097
      -0.056
       0.019
       0.085
       0.095
       0.034
      -0.056
      -0.114
      -0.102
      -0.035
       0.044
       0.094
       0.106
       0.091
       0.062
       0.019
      -0.047
      -0.125
      -0.184
      -0.190
      -0.140
      -0.067
       0.000
       0.063
       0.154
       0.296
       0.474
       0.639
       0.735
       0.724
       0.606
       0.415
       0.209
       0.039
      -0.076
      -0.148
      -0.193
      -0.224
      -0.248
      -0.267
      -0.275
      -0.256
      -0.202
      -0.130
      -0.079
      -0.071
      -0.090
      -0.088
      -0.032
       0.069
       0.160
       0.189
       0.135
       0.012
      -0.135
      -0.254
      -0.301
      -0.260
      -0.154
      -0.042
       0.011
      -0.035
      -0.155
      -0.264
      -0.278
      -0.176
      -0.022
       0.092
       0.124
       0.108
       0.101
       0.110
       0.092
       0.008
      -0.113
      -0.203
      -0.216
      -0.174
      -0.136
      -0.144
      -0.194
      -0.246
      -0.272
      -0.258
      -0.200
      -0.090
       0.061
       0.213
       0.314
       0.340
       0.321
       0.309
       0.334
       0.378
       0.396
       0.365
       0.301
       0.229
       0.150
       0.044
      -0.104
      -0.277
      -0.449
      -0.597
      -0.708
      -0.775
      -0.794
      -0.772
      -0.716
      -0.628
      -0.503
      -0.339
      -0.149
       0.041
       0.201
       0.321
       0.417
       0.509
       0.611
       0.724
       0.834
       0.915
       0.931
       0.856
       0.698
       0.509
       0.345
       0.225
       0.121
       0.004
      -0.119
      -0.206
      -0.223
      -0.186
      -0.148
      -0.158
      -0.220
      -0.289
      -0.320
      -0.294
      -0.233
      -0.172
      -0.147
      -0.168
      -0.219
      -0.272
      -0.301
      -0.289
      -0.238
      -0.170
      -0.124
      -0.130
      -0.172
      -0.202
      -0.180
      -0.105
      -0.005
       0.112
       0.265
       0.472
       0.696
       0.845
       0.832
       0.658
       0.423
       0.244
       0.165
       0.140
       0.091
      -0.015
      -0.151
      -0.266
      -0.336
      -0.363
      -0.360
      -0.325
      -0.247
      -0.127
       0.007
       0.105
       0.125
       0.060
      -0.058
      -0.175
      -0.239
      -0.225
      -0.138
      -0.008
       0.128
       0.236
       0.294
       0.294
       0.240
       0.150
       0.040
      -0.078
      -0.193
      -0.284
      -0.320
      -0.284
      -0.193
      -0.097
      -0.042
      -0.033
      -0.038
      -0.024
       0.005
       0.014
      -0.013
      -0.051
      -0.060
      -0.027
       0.026
       0.072
       0.100
       0.105
       0.084
       0.033
      -0.040
      -0.111
      -0.151
      -0.135
      -0.054
       0.075
       0.204
       0.280
       0.290
       0.281
       0.314
       0.411
       0.517
       0.546
       0.450
       0.259
       0.059
      -0.081
      -0.150
      -0.193
      -0.250
      -0.326
      -0.393
      -0.425
      -0.431
      -0.441
      -0.477
      -0.534
      -0.581
      -0.583
      -0.531
      -0.448
      -0.369
      -0.303
      -0.226
      -0.097
       0.099
       0.330
       0.536
       0.661
       0.684
       0.622
       0.514
       0.395
       0.288
       0.212
       0.175
       0.175
       0.197
       0.217
       0.206
       0.142
       0.020
      -0.138
      -0.283
      -0.368
      -0.370
      -0.300
      -0.187
      -0.059
       0.065
       0.171
       0.255
       0.316
       0.342
       0.307
       0.203
       0.058
      -0.065
      -0.119
      -0.114
      -0.093
      -0.093
      -0.112
      -0.128
      -0.130
      -0.120
      -0.100
      -0.064
      -0.013
       0.033
       0.046
       0.017
      -0.028
      -0.044
       0.006
       0.115
       0.240
       0.329
       0.357
       0.341
       0.311
       0.281
       0.247
       0.202
       0.153
       0.114
       0.082
       0.033
      -0.067
      -0.223
      -0.392
      -0.516
      -0.556
      -0.516
      -0.419
      -0.283
      -0.127
       0.014
       0.093
       0.095
       0.052
       0.025
       0.046
       0.092
       0.120
       0.105
       0.066
       0.037
       0.027
       0.031
       0.046
       0.089
       0.174
       0.290
       0.407
       0.493
       0.534
       0.534
       0.498
       0.416
       0.274
       0.078
      -0.137
      -0.323
      -0.451
      -0.518
      -0.538
      -0.522
      -0.484
      -0.433
      -0.368
      -0.273
      -0.131
       0.051
       0.232
       0.361
       0.412
       0.402
       0.373
       0.356
       0.345
       0.313
       0.244
       0.158
       0.093
       0.063
       0.050
       0.025
      -0.012
      -0.028
       0.011
       0.101
       0.196
       0.242
       0.215
       0.133
       0.042
      -0.012
      -0.010
       0.028
       0.051
       0.009
      -0.113
      -0.286
      -0.451
      -0.550
      -0.560
      -0.495
      -0.388
      -0.268
      -0.160
      -0.090
      -0.073
      -0.091
      -0.092
      -0.031
       0.095
       0.248
       0.378
       0.445
       0.431
       0.349
       0.237
       0.144
       0.095
       0.084
       0.084
       0.070
       0.039
       0.008
      -0.001
       0.026
       0.077
       0.122
       0.136
       0.113
       0.055
      -0.040
      -0.168
      -0.304
      -0.404
      -0.433
      -0.390
      -0.299
      -0.182
      -0.042
       0.126
       0.312
       0.477
       0.564
       0.543
       0.449
       0.364
       0.355
       0.412
       0.453
       0.395
       0.222
      -0.010
      -0.223
      -0.375
      -0.468
      -0.517
      -0.522
      -0.472
      -0.358
      -0.186
       0.007
       0.169
       0.254
       0.244
       0.158
       0.051
      -0.005
       0.035
       0.155
       0.275
       0.307
       0.222
       0.070
      -0.058
      -0.096
      -0.047
       0.042
       0.115
       0.145
       0.134
       0.092
       0.041
       0.008
       0.018
       0.061
       0.095
       0.070
      -0.031
      -0.184
      -0.351
      -0.503
      -0.616
      -0.657
      -0.589
      -0.397
      -0.118
       0.168
       0.371
       0.441
       0.377
       0.217
       0.018
      -0.163
      -0.275
      -0.294
      -0.227
      -0.123
      -0.044
      -0.031
      -0.077
      -0.143
      -0.194
      -0.210
      -0.168
      -0.041
       0.175
       0.428
       0.640
       0.757
       0.783
       0.748
       0.662
       0.509
       0.287
       0.042
      -0.160
      -0.274
      -0.298
      -0.254
      -0.161
      -0.033
       0.102
       0.198
       0.211
       0.130
      -0.005
      -0.118
      -0.141
