Origin Time       20/10/2013 19:45:05
Lat.              35.8 N	
Long.             77.5 E	
Depth (Km)         80.0
Magnitude         5.5
 Region           India-China-Border-Region                                        
 Above details taken from IMD 
     
Station Code      IGN
Station Lat.       28.492  N
Station Long.      77.203  E
Station Height(m)  263.0
Site Class        A   Vs30 between 700 m/sec to 1400 m/sec * 
Record Time       20.10.2013 19:47:37.134
Sampling Rate     200. Hz
 Record Duration   81.030 Sec.
 Direction         E-W (E positive)
Max. Acceleration     -1.891 cm/sec**2
     
  * For reference see Site Classification link of website 
     
 Base Line Corrected and Low Pass Filtered (Cut Off at 35 Hz) Time History
 Acceleration data in cm/sec**2
    
[...]
      -0.013
       0.029
       0.067
       0.086
       0.089
       0.089
       0.095
       0.103
       0.101
       0.082
       0.055
       0.036
       0.034
       0.049
       0.068
       0.084
       0.092
       0.085
       0.046
      -0.034
      -0.146
      -0.260
      -0.348
      -0.397
      -0.408
      -0.383
      -0.318
      -0.217
      -0.104
      -0.007
       0.058
       0.096
       0.121
       0.143
       0.163
       0.174
       0.170
       0.154
       0.131
       0.109
       0.090
       0.066
       0.026
      -0.031
      -0.093
      -0.138
      -0.157
      -0.155
      -0.142
      -0.118
      -0.081
      -0.036
       0.008
       0.044
       0.075
       0.104
       0.123
       0.119
       0.092
       0.060
       0.051
       0.075
       0.117
       0.147
       0.144
       0.106
       0.045
      -0.023
      -0.093
      -0.163
      -0.229
      -0.271
      -0.262
      -0.184
      -0.048
       0.115
       0.275
       0.411
       0.504
       0.528
       0.472
       0.347
       0.183
       0.017
      -0.126
      -0.239
      -0.324
      -0.395
      -0.462
      -0.526
      -0.575
      -0.587
      -0.549
      -0.461
      -0.347
      -0.229
      -0.116
       0.003
       0.136
       0.271
       0.380
       0.437
       0.441
       0.419
       0.402
       0.406
       0.415
       0.400
       0.345
       0.254
       0.146
       0.034
      -0.073
      -0.165
      -0.228
      -0.260
      -0.274
      -0.286
      -0.297
      -0.291
      -0.247
      -0.161
      -0.053
       0.047
       0.115
       0.146
       0.143
       0.108
       0.043
      -0.046
      -0.141
      -0.218
      -0.263
      -0.277
      -0.269
      -0.247
      -0.208
      -0.141
      -0.044
       0.068
       0.165
       0.225
       0.252
       0.262
       0.269
       0.270
       0.256
       0.228
       0.193
       0.159
       0.123
       0.069
      -0.017
      -0.137
      -0.264
      -0.361
      -0.401
      -0.383
      -0.326
      -0.251
      -0.169
      -0.087
      -0.012
       0.044
       0.071
       0.074
       0.068
       0.066
       0.069
       0.068
       0.056
       0.038
       0.023
       0.010
      -0.009
      -0.036
      -0.063
      -0.079
      -0.081
      -0.068
      -0.040
       0.001
       0.051
       0.103
       0.151
       0.189
       0.214
       0.227
       0.223
       0.195
       0.140
       0.067
      -0.002
      -0.042
      -0.045
      -0.020
       0.014
       0.040
       0.053
       0.051
       0.031
      -0.007
      -0.062
      -0.125
      -0.177
      -0.203
      -0.195
      -0.162
      -0.124
      -0.102
      -0.107
      -0.126
      -0.133
      -0.111
      -0.066
      -0.021
       0.004
       0.009
       0.002
      -0.012
      -0.044
      -0.101
      -0.181
      -0.261
      -0.305
      -0.285
      -0.193
      -0.040
       0.146
       0.334
       0.494
       0.607
       0.666
       0.676
       0.642
       0.568
       0.452
       0.301
       0.130
      -0.045
      -0.205
      -0.337
      -0.433
      -0.490
      -0.509
      -0.496
      -0.458
      -0.397
      -0.310
      -0.195
      -0.051
       0.112
       0.273
       0.401
       0.476
       0.494
       0.472
       0.424
       0.346
       0.223
       0.060
      -0.115
      -0.261
      -0.356
      -0.400
      -0.407
      -0.395
      -0.376
      -0.362
      -0.363
      -0.382
      -0.402
      -0.385
      -0.293
      -0.126
       0.072
       0.235
       0.327
       0.353
       0.346
       0.328
       0.301
       0.260
       0.215
       0.186
       0.188
       0.215
       0.243
       0.251
       0.235
       0.200
       0.149
       0.082
       0.012
      -0.039
      -0.045
       0.008
       0.104
       0.207
       0.275
       0.280
       0.219
       0.112
      -0.016
      -0.142
      -0.258
      -0.364
      -0.464
      -0.555
      -0.629
      -0.674
      -0.688
      -0.679
      -0.651
      -0.599
      -0.510
      -0.378
      -0.216
      -0.051
       0.091
       0.203
       0.294
       0.377
       0.454
       0.514
       0.537
       0.511
       0.442
       0.353
       0.268
       0.198
       0.131
       0.051
      -0.042
      -0.122
      -0.159
      -0.148
      -0.112
      -0.087
      -0.084
      -0.090
      -0.088
      -0.073
      -0.051
      -0.029
      -0.010
       0.009
       0.028
       0.047
       0.075
       0.121
       0.188
       0.259
       0.302
       0.293
       0.226
       0.121
       0.010
      -0.080
      -0.140
      -0.174
      -0.193
      -0.206
      -0.215
      -0.217
      -0.202
      -0.163
      -0.104
      -0.047
      -0.014
      -0.015
      -0.034
      -0.044
      -0.029
       0.005
       0.034
       0.039
       0.008
      -0.056
      -0.129
      -0.181
      -0.186
      -0.132
      -0.031
       0.094
       0.205
       0.277
       0.308
       0.319
       0.341
       0.383
       0.432
       0.464
       0.464
       0.433
       0.386
       0.334
       0.277
       0.204
       0.104
      -0.030
      -0.199
      -0.395
      -0.595
      -0.760
      -0.847
      -0.827
      -0.707
      -0.537
      -0.386
      -0.290
      -0.231
      -0.160
      -0.044
       0.100
       0.229
       0.312
       0.348
       0.353
       0.342
       0.319
       0.285
       0.245
       0.214
       0.209
       0.243
       0.310
       0.376
       0.396
       0.334
       0.197
       0.030
      -0.115
      -0.215
      -0.286
      -0.351
      -0.422
      -0.479
      -0.490
      -0.430
      -0.293
      -0.099
       0.107
       0.265
       0.325
       0.261
       0.083
      -0.160
      -0.403
      -0.582
      -0.657
      -0.614
      -0.472
      -0.270
      -0.063
       0.107
       0.222
       0.283
       0.304
       0.293
       0.256
       0.197
       0.129
       0.070
       0.043
       0.067
       0.139
       0.229
       0.296
       0.310
       0.263
       0.168
       0.049
      -0.072
      -0.167
      -0.218
      -0.215
      -0.173
      -0.123
      -0.098
      -0.110
      -0.141
      -0.159
      -0.133
      -0.058
       0.043
       0.138
       0.203
       0.230
       0.217
       0.163
       0.074
      -0.026
      -0.093
      -0.095
      -0.032
       0.062
       0.146
       0.200
       0.234
       0.265
       0.292
       0.285
       0.216
       0.083
      -0.083
      -0.236
      -0.333
      -0.353
      -0.296
      -0.188
      -0.066
       0.031
       0.076
       0.062
       0.007
      -0.059
      -0.112
      -0.150
      -0.186
      -0.226
      -0.257
      -0.249
      -0.180
      -0.049
       0.130
       0.337
       0.549
       0.734
       0.848
       0.848
       0.709
       0.448
       0.125
      -0.174
      -0.377
      -0.453
      -0.419
      -0.321
      -0.209
      -0.112
      -0.044
      -0.013
      -0.030
      -0.098
      -0.209
      -0.342
      -0.465
      -0.548
      -0.568
      -0.513
      -0.382
      -0.195
       0.020
       0.223
       0.373
       0.446
       0.439
       0.368
       0.257
       0.122
      -0.021
      -0.156
      -0.262
      -0.326
      -0.344
      -0.326
      -0.288
      -0.241
      -0.182
      -0.100
       0.006
       0.116
       0.201
       0.245
       0.260
       0.267
       0.276
       0.268
       0.212
       0.097
      -0.055
      -0.209
      -0.339
      -0.436
      -0.505
      -0.545
      -0.550
      -0.511
      -0.432
      -0.329
      -0.221
      -0.116
      -0.005
       0.122
       0.272
       0.439
       0.605
       0.741
       0.818
       0.812
       0.723
       0.579
       0.422
       0.281
       0.145
      -0.018
      -0.234
      -0.483
      -0.702
      -0.823
      -0.810
      -0.676
      -0.463
      -0.217
       0.026
       0.231
       0.364
       0.407
       0.373
       0.302
       0.231
       0.178
       0.134
       0.085
       0.027
      -0.035
      -0.090
      -0.128
      -0.136
      -0.101
      -0.021
       0.077
       0.141
       0.117
      -0.001
      -0.160
      -0.276
      -0.287
      -0.190
      -0.031
       0.135
       0.273
       0.372
       0.433
       0.442
       0.376
       0.227
       0.017
      -0.202
      -0.382
      -0.498
      -0.559
      -0.582
      -0.582
      -0.561
      -0.517
      -0.442
      -0.332
      -0.190
      -0.029
       0.132
       0.281
       0.413
       0.530
       0.627
       0.690
       0.704
       0.666
       0.592
       0.505
       0.416
       0.325
       0.224
       0.112
      -0.002
      -0.102
      -0.179
      -0.228
      -0.260
      -0.296
      -0.360
      -0.460
      -0.565
      -0.610
      -0.529
      -0.300
       0.019
       0.313
       0.467
       0.429
       0.223
      -0.079
      -0.398
      -0.676
      -0.873
      -0.956
      -0.909
      -0.744
      -0.510
      -0.272
      -0.084
       0.039
       0.129
       0.235
       0.382
       0.555
       0.717
       0.841
       0.916
       0.937
       0.898
       0.798
       0.651
       0.489
       0.342
       0.219
       0.098
      -0.059
      -0.267
      -0.491
      -0.658
      -0.700
      -0.597
      -0.384
      -0.133
       0.088
       0.235
       0.289
       0.251
       0.141
       0.006
      -0.086
      -0.078
       0.041
       0.227
       0.398
       0.473
       0.411
       0.223
      -0.033
      -0.289
      -0.497
      -0.641
      -0.729
      -0.775
      -0.783
      -0.754
      -0.689
      -0.599
      -0.501
      -0.399
      -0.285
      -0.145
       0.025
       0.207
       0.369
       0.470
       0.485
       0.419
       0.316
       0.235
       0.218
       0.261
       0.331
       0.385
       0.399
       0.369
       0.302
       0.212
       0.111
       0.018
      -0.050
      -0.084
      -0.093
      -0.106
      -0.151
      -0.234
      -0.335
      -0.411
      -0.416
      -0.326
      -0.148
       0.080
       0.307
       0.488
       0.599
       0.633
       0.595
       0.493
       0.345
       0.182
       0.046
      -0.025
      -0.016
       0.057
       0.147
       0.196
       0.159
       0.019
      -0.200
      -0.445
      -0.659
      -0.799
      -0.850
      -0.826
      -0.756
      -0.666
      -0.571
      -0.468
      -0.350
      -0.216
      -0.084
       0.022
       0.085
       0.111
       0.129
       0.180
       0.287
       0.443
       0.607
       0.728
       0.762
       0.691
       0.525
       0.291
       0.019
      -0.261
      -0.511
      -0.691
      -0.763
      -0.712
      -0.552
      -0.329
      -0.103
       0.072
       0.168
       0.188
       0.152
       0.087
       0.015
      -0.047
      -0.077
      -0.043
       0.075
       0.261
       0.452
       0.570
       0.561
       0.419
       0.181
      -0.090
      -0.332
      -0.487
      -0.526
      -0.447
      -0.270
      -0.028
       0.240
       0.487
       0.667
       0.752
       0.742
       0.661
       0.538
       0.384
       0.199
      -0.021
      -0.259
      -0.482
      -0.657
      -0.764
      -0.800
      -0.763
      -0.655
      -0.486
      -0.290
      -0.115
       0.000
       0.048
       0.054
       0.060
       0.103
       0.197
       0.329
       0.464
       0.558
       0.577
       0.516
       0.413
       0.332
       0.317
       0.357
       0.385
       0.318
       0.121
      -0.178
      -0.508
      -0.806
      -1.039
      -1.197
      -1.263
      -1.209
      -1.013
      -0.690
      -0.296
       0.086
       0.383
       0.555
       0.601
       0.560
       0.493
       0.455
       0.471
       0.526
       0.594
       0.652
       0.696
       0.734
       0.765
       0.779
       0.746
       0.627
       0.398
       0.076
      -0.284
      -0.611
      -0.849
      -0.979
      -1.019
      -0.995
      -0.919
      -0.782
      -0.569
      -0.299
      -0.028
       0.171
       0.255
       0.224
       0.119
      -0.003
      -0.086
      -0.078
       0.048
       0.284
       0.575
       0.847
       1.038
       1.124
       1.110
       1.004
       0.804
       0.497
       0.084
      -0.413
      -0.936
      -1.406
      -1.742
      -1.891
      -1.831
      -1.569
      -1.135
      -0.589
      -0.016
       0.491
       0.862
       1.058
       1.079
       0.954
       0.737
       0.486
       0.247
       0.048
      -0.085
      -0.126
      -0.057
       0.109
       0.316
       0.485
       0.541
       0.452
       0.233
      -0.061
      -0.362
      -0.616
      -0.787
      -0.859
      -0.821
      -0.675
      -0.443
      -0.172
       0.074
       0.241
       0.303
       0.270
       0.181
       0.084
       0.022
       0.016
       0.060
       0.125
       0.188
       0.246
       0.322
       0.440
       0.591
       0.713
       0.721
       0.557
       0.237
      -0.160
      -0.525
      -0.775
      -0.879
      -0.859
      -0.752
      -0.590
      -0.387
      -0.156
       0.088
       0.319
       0.504
       0.601
       0.568
       0.389
       0.091
      -0.257
      -0.565
      -0.758
      -0.798
      -0.680
      -0.428
      -0.090
       0.261
       0.546
       0.706
       0.728
       0.652
       0.549
       0.476
       0.450
       0.444
       0.410
       0.313
       0.161
      -0.008
      -0.148
      -0.242
      -0.298
      -0.335
      -0.368
      -0.407
      -0.453
      -0.493
      -0.509
      -0.482
      -0.413
      -0.316
      -0.214
      -0.115
      -0.008
       0.123
       0.282
       0.447
       0.586
       0.680
       0.730
       0.745
       0.710
       0.590
       0.364
       0.062
      -0.236
      -0.434
      -0.483
      -0.395
      -0.226
      -0.045
       0.086
       0.117
       0.017
      -0.205
      -0.503
      -0.803
      -1.023
      -1.091
      -0.973
      -0.683
      -0.277
       0.163
       0.557
       0.843
       0.993
       1.013
       0.931
       0.787
       0.615
       0.449
       0.310
       0.218
       0.195
       0.260
       0.391
       0.521
       0.562
       0.458
       0.216
      -0.095
      -0.394
      -0.623
      -0.777
      -0.880
      -0.957
      -0.993
      -0.950
      -0.795
      -0.538
      -0.240
       0.020
       0.185
       0.241
       0.213
       0.135
       0.037
      -0.051
      -0.101
      -0.087
      -0.013
       0.083
       0.142
       0.125
       0.036
      -0.087
      -0.202
      -0.294
      -0.361
      -0.397
      -0.371
      -0.255
      -0.058
       0.162
       0.334
       0.424
       0.454
       0.468
       0.486
       0.478
       0.412
       0.301
       0.206
       0.191
       0.266
       0.382
       0.478
       0.528
       0.545
       0.556
       0.563
       0.530
       0.415
       0.203
      -0.078
      -0.381
      -0.658
      -0.883
      -1.043
      -1.121
      -1.093
      -0.944
      -0.700
      -0.432
      -0.221
      -0.118
      -0.112
      -0.150
      -0.171
      -0.130
      -0.018
       0.145
       0.319
       0.458
       0.534
       0.533
       0.446
       0.267
       0.014
      -0.251
      -0.431
      -0.435
      -0.243
       0.076
       0.398
       0.614
       0.678
       0.609
       0.449
       0.237
       0.004
      -0.215
      -0.390
      -0.508
      -0.576
      -0.600
      -0.554
      -0.392
      -0.092
       0.293
       0.632
       0.787
       0.698
       0.433
       0.145
      -0.030
      -0.048
       0.042
       0.175
       0.318
       0.469
       0.613
       0.704
       0.692
       0.561
       0.339
       0.076
      -0.183
      -0.414
      -0.601
      -0.728
      -0.782
      -0.769
      -0.714
      -0.647
      -0.576
      -0.485
      -0.355
      -0.202
      -0.085
      -0.060
      -0.140
      -0.281
      -0.405
      -0.441
      -0.349
      -0.129
       0.179
       0.507
       0.778
       0.934
       0.954
       0.859
       0.688
       0.480
       0.261
       0.041
      -0.181
      -0.405
      -0.607
      -0.747
      -0.775
      -0.676
      -0.480
      -0.255
      -0.069
       0.043
       0.084
       0.082
       0.066
       0.055
       0.046
       0.017
      -0.049
      -0.135
      -0.183
      -0.118
       0.094
       0.407
       0.712
       0.892
       0.891
       0.736
       0.501
       0.244
      -0.021
      -0.291
      -0.523
      -0.652
      -0.643
      -0.531
      -0.399
      -0.314
      -0.290
      -0.292
      -0.279
      -0.230
      -0.145
      -0.041
       0.055
       0.114
       0.122
       0.089
       0.046
       0.025
       0.032
       0.050
       0.058
       0.060
       0.078
       0.129
       0.200
       0.254
       0.259
       0.211
       0.137
       0.074
       0.053
       0.090
       0.187
       0.322
       0.453
       0.538
       0.555
       0.500
       0.373
       0.173
      -0.094
      -0.400
      -0.688
      -0.877
      -0.895
      -0.715
      -0.385
      -0.009
       0.308
       0.503
       0.570
       0.542
       0.461
       0.370
       0.304
       0.286
       0.315
       0.352
       0.341
       0.249
       0.093
      -0.072
      -0.198
      -0.281
      -0.361
      -0.492
      -0.686
      -0.895
      -1.032
      -1.035
      -0.904
      -0.698
      -0.481
      -0.288
      -0.116
       0.046
       0.187
       0.287
       0.331
       0.338
       0.351
       0.398
       0.458
       0.480
       0.428
       0.319
