Origin Time       20/10/2013 19:45:05
Lat.              35.8 N	
Long.             77.5 E	
Depth (Km)         80.0
Magnitude         5.5
 Region           India-China-Border-Region                                        
 Above details taken from IMD 
   
Station Code      CHM
Station Lat.       32.555
Station Long.      76.126
Station Height(m)  952.0
Site Class        A   Vs30 between 700 m/sec to 1400 m/sec * 
Record Time       20.10.2013 19:45:35.294
Sampling Rate     200. Hz
 Record Duration   68.450 Sec.
 Direction         Vert. (Up positive)
Max. Acceleration      2.018 cm/sec**2
     
  * For reference see Site Classification link of website 
     
 Base Line Corrected and Low Pass Filtered (Cut Off at 35 Hz) Time History
 Acceleration data in cm/sec**2
    
[...]
       0.553
       0.467
       0.255
      -0.007
      -0.252
      -0.431
      -0.522
      -0.518
      -0.412
      -0.212
       0.036
       0.244
       0.309
       0.173
      -0.120
      -0.429
      -0.578
      -0.463
      -0.119
       0.296
       0.600
       0.688
       0.569
       0.330
       0.069
      -0.142
      -0.269
      -0.301
      -0.239
      -0.092
       0.115
       0.328
       0.466
       0.450
       0.254
      -0.055
      -0.330
      -0.421
      -0.270
       0.039
       0.321
       0.404
       0.231
      -0.107
      -0.442
      -0.642
      -0.669
      -0.567
      -0.398
      -0.203
      -0.008
       0.149
       0.219
       0.171
       0.024
      -0.156
      -0.275
      -0.251
      -0.048
       0.298
       0.682
       0.950
       0.966
       0.682
       0.184
      -0.339
      -0.685
      -0.749
      -0.554
      -0.207
       0.167
       0.467
       0.621
       0.587
       0.372
       0.053
      -0.251
      -0.437
      -0.470
      -0.387
      -0.250
      -0.100
       0.038
       0.131
       0.123
      -0.019
      -0.259
      -0.484
      -0.563
      -0.437
      -0.160
       0.147
       0.369
       0.461
       0.444
       0.357
       0.221
       0.057
      -0.093
      -0.166
      -0.128
      -0.007
       0.112
       0.148
       0.080
      -0.051
      -0.173
      -0.231
      -0.208
      -0.124
      -0.014
       0.098
       0.198
       0.274
       0.315
       0.310
       0.258
       0.162
       0.038
      -0.079
      -0.140
      -0.106
       0.000
       0.093
       0.081
      -0.056
      -0.244
      -0.369
      -0.366
      -0.260
      -0.129
      -0.033
       0.018
       0.051
       0.093
       0.150
       0.211
       0.257
       0.261
       0.201
       0.080
      -0.057
      -0.150
      -0.166
      -0.119
      -0.046
       0.025
       0.091
       0.150
       0.197
       0.218
       0.189
       0.088
      -0.083
      -0.276
      -0.400
      -0.391
      -0.278
      -0.172
      -0.170
      -0.259
      -0.325
      -0.262
      -0.076
       0.129
       0.253
       0.284
       0.282
       0.311
       0.383
       0.457
       0.475
       0.394
       0.210
      -0.037
      -0.270
      -0.417
      -0.445
      -0.389
      -0.323
      -0.298
      -0.299
      -0.260
      -0.126
       0.097
       0.340
       0.510
       0.541
       0.432
       0.259
       0.123
       0.080
       0.102
       0.111
       0.065
      -0.008
      -0.054
      -0.060
      -0.063
      -0.104
      -0.177
      -0.236
      -0.250
      -0.228
      -0.192
      -0.151
      -0.097
      -0.041
      -0.024
      -0.095
      -0.252
      -0.420
      -0.489
      -0.380
      -0.110
       0.220
       0.492
       0.644
       0.689
       0.680
       0.647
       0.577
       0.437
       0.210
      -0.073
      -0.344
      -0.520
      -0.538
      -0.382
      -0.104
       0.185
       0.350
       0.310
       0.095
      -0.165
      -0.322
      -0.323
      -0.247
      -0.225
      -0.317
      -0.438
      -0.439
      -0.240
       0.085
       0.364
       0.466
       0.386
       0.223
       0.087
       0.017
      -0.022
      -0.082
      -0.175
      -0.252
      -0.244
      -0.111
       0.110
       0.309
       0.359
       0.207
      -0.068
      -0.288
      -0.302
      -0.103
       0.175
       0.368
       0.403
       0.332
       0.269
       0.283
       0.345
       0.356
       0.234
      -0.005
      -0.253
      -0.379
      -0.327
      -0.147
       0.034
       0.088
      -0.043
      -0.324
      -0.642
      -0.856
      -0.879
      -0.711
      -0.427
      -0.117
       0.153
       0.348
       0.442
       0.418
       0.301
       0.172
       0.136
       0.258
       0.523
       0.842
       1.097
       1.186
       1.049
       0.685
       0.164
      -0.401
      -0.884
      -1.188
      -1.256
      -1.095
      -0.790
      -0.492
      -0.344
      -0.393
      -0.562
      -0.700
      -0.678
      -0.435
       0.013
       0.589
       1.160
       1.559
       1.659
       1.439
       1.001
       0.515
       0.120
      -0.117
      -0.189
      -0.117
       0.051
       0.220
       0.260
       0.088
      -0.259
      -0.637
      -0.895
      -0.980
      -0.947
      -0.880
      -0.810
      -0.717
      -0.566
      -0.356
      -0.114
       0.136
       0.391
       0.661
       0.940
       1.170
       1.251
       1.088
       0.664
       0.078
      -0.484
      -0.850
      -0.943
      -0.791
      -0.480
      -0.108
       0.222
       0.396
       0.329
       0.040
      -0.321
      -0.545
      -0.499
      -0.210
       0.170
       0.479
       0.632
       0.632
       0.526
       0.364
       0.192
       0.055
      -0.002
       0.042
       0.156
       0.256
       0.253
       0.117
      -0.096
      -0.279
      -0.356
      -0.339
      -0.307
      -0.328
      -0.413
      -0.521
      -0.600
      -0.617
      -0.554
      -0.409
      -0.194
       0.051
       0.284
       0.470
       0.590
       0.634
       0.589
       0.450
       0.231
      -0.010
      -0.178
      -0.182
       0.003
       0.298
       0.548
       0.635
       0.552
       0.388
       0.227
       0.080
      -0.095
      -0.325
      -0.584
      -0.828
      -1.015
      -1.111
      -1.073
      -0.872
      -0.523
      -0.098
       0.322
       0.681
       0.948
       1.087
       1.055
       0.838
       0.505
       0.183
      -0.019
      -0.096
      -0.133
      -0.214
      -0.334
      -0.408
      -0.356
      -0.186
       0.011
       0.141
       0.179
       0.179
       0.218
       0.319
       0.421
       0.420
       0.257
      -0.031
      -0.323
      -0.502
      -0.545
      -0.540
      -0.606
      -0.780
      -0.960
      -0.963
      -0.660
      -0.090
       0.534
       0.941
       0.963
       0.639
       0.183
      -0.157
      -0.247
      -0.121
       0.084
       0.251
       0.348
       0.413
       0.475
       0.505
       0.433
       0.220
      -0.085
      -0.347
      -0.435
      -0.311
      -0.070
       0.130
       0.174
       0.065
      -0.095
      -0.171
      -0.073
       0.194
       0.535
       0.799
       0.849
       0.619
       0.144
      -0.448
      -0.982
      -1.284
      -1.246
      -0.874
      -0.305
       0.253
       0.609
       0.674
       0.470
       0.102
      -0.294
      -0.595
      -0.700
      -0.555
      -0.171
       0.348
       0.831
       1.094
       1.025
       0.643
       0.076
      -0.492
      -0.903
      -1.067
      -0.975
      -0.695
      -0.346
      -0.059
       0.087
       0.117
       0.147
       0.292
       0.569
       0.867
       1.019
       0.906
       0.531
       0.013
      -0.475
      -0.784
      -0.846
      -0.684
      -0.371
       0.007
       0.378
       0.663
       0.769
       0.620
       0.225
      -0.293
      -0.731
      -0.913
      -0.770
      -0.367
       0.139
       0.558
       0.731
       0.594
       0.207
      -0.264
      -0.634
      -0.782
      -0.698
      -0.458
      -0.172
       0.068
       0.225
       0.316
       0.381
       0.443
       0.501
       0.548
       0.604
       0.710
       0.877
       1.039
       1.056
       0.815
       0.327
      -0.256
      -0.731
      -0.977
      -1.007
      -0.922
      -0.829
      -0.780
      -0.774
      -0.798
      -0.832
      -0.850
      -0.819
      -0.718
      -0.553
      -0.344
      -0.097
       0.189
       0.493
       0.753
       0.892
       0.871
       0.727
       0.564
       0.495
       0.566
       0.718
       0.830
       0.793
       0.581
       0.268
      -0.037
      -0.252
      -0.366
      -0.407
      -0.390
      -0.293
      -0.094
       0.166
       0.367
       0.363
       0.082
      -0.426
      -0.998
      -1.426
      -1.541
      -1.276
      -0.697
       0.023
       0.670
       1.074
       1.166
       0.982
       0.617
       0.175
      -0.253
      -0.574
      -0.689
      -0.538
      -0.159
       0.299
       0.631
       0.680
       0.430
       0.020
      -0.336
      -0.479
      -0.391
      -0.179
       0.029
       0.187
       0.338
       0.542
       0.778
       0.937
       0.893
       0.606
       0.155
      -0.320
      -0.715
      -0.993
      -1.160
      -1.195
      -1.045
      -0.676
      -0.148
       0.368
       0.652
       0.571
       0.180
      -0.294
      -0.599
      -0.622
      -0.429
      -0.170
       0.043
       0.182
       0.263
       0.296
       0.273
       0.188
       0.060
      -0.072
      -0.153
      -0.136
      -0.002
       0.216
       0.425
       0.513
       0.425
       0.215
       0.027
       0.001
       0.175
       0.461
       0.708
       0.795
       0.696
       0.471
       0.206
      -0.042
      -0.265
      -0.468
      -0.638
      -0.737
      -0.734
      -0.631
      -0.472
      -0.318
      -0.215
      -0.164
      -0.127
      -0.049
       0.097
       0.282
       0.424
       0.438
       0.287
       0.007
      -0.313
      -0.578
      -0.721
      -0.703
      -0.508
      -0.145
       0.333
       0.828
       1.224
       1.412
       1.315
       0.915
       0.274
      -0.459
      -1.104
      -1.518
      -1.641
      -1.486
      -1.099
      -0.555
       0.035
       0.545
       0.877
       1.010
       1.002
       0.940
       0.883
       0.842
       0.796
       0.722
       0.597
       0.399
       0.121
      -0.205
      -0.507
      -0.714
      -0.809
      -0.837
      -0.851
      -0.862
      -0.835
      -0.731
      -0.543
      -0.279
       0.063
       0.489
       0.957
       1.359
       1.565
       1.502
       1.184
       0.681
       0.067
      -0.580
      -1.154
      -1.526
      -1.611
      -1.429
      -1.107
      -0.795
      -0.581
      -0.457
      -0.364
      -0.236
      -0.024
       0.297
       0.713
       1.145
       1.461
       1.521
       1.249
       0.671
      -0.081
      -0.804
      -1.280
      -1.343
      -0.955
      -0.244
       0.541
       1.133
       1.365
       1.220
       0.817
       0.331
      -0.086
      -0.349
      -0.441
      -0.397
      -0.281
      -0.174
      -0.142
      -0.208
      -0.348
      -0.506
      -0.611
      -0.584
      -0.370
       0.018
       0.475
       0.852
       1.044
       1.040
       0.896
       0.665
       0.365
      -0.011
      -0.452
      -0.908
      -1.304
      -1.570
      -1.664
      -1.580
      -1.340
      -0.987
      -0.574
      -0.160
       0.188
       0.417
       0.506
       0.493
       0.460
       0.493
       0.635
       0.862
       1.090
       1.223
       1.213
       1.096
       0.967
       0.890
       0.830
       0.675
       0.331
      -0.165
      -0.642
      -0.907
      -0.895
      -0.699
      -0.469
      -0.255
       0.002
       0.347
       0.692
       0.845
       0.666
       0.187
      -0.412
      -0.919
      -1.192
      -1.191
      -0.971
      -0.660
      -0.420
      -0.377
      -0.532
      -0.742
      -0.819
      -0.659
      -0.316
       0.073
       0.406
       0.664
       0.848
       0.908
       0.754
       0.353
      -0.192
      -0.666
      -0.851
      -0.649
      -0.133
       0.493
       0.996
       1.205
       1.071
       0.680
       0.210
      -0.152
      -0.316
      -0.315
      -0.250
      -0.196
      -0.162
      -0.133
      -0.114
      -0.133
      -0.179
      -0.179
      -0.048
       0.223
       0.531
       0.714
       0.666
       0.391
      -0.024
      -0.467
      -0.828
      -1.012
      -0.958
      -0.687
      -0.305
       0.059
       0.324
       0.482
       0.569
       0.624
       0.675
       0.736
       0.806
       0.872
       0.906
       0.873
       0.735
       0.458
       0.038
      -0.472
      -0.964
      -1.318
      -1.457
      -1.385
      -1.187
      -0.987
      -0.899
      -0.974
      -1.148
      -1.252
      -1.100
      -0.630
       0.043
       0.695
       1.139
       1.322
       1.297
       1.138
       0.891
       0.591
       0.291
       0.045
      -0.136
      -0.280
      -0.413
      -0.514
      -0.525
      -0.416
      -0.206
       0.065
       0.387
       0.785
       1.256
       1.717
       2.018
       2.007
       1.613
       0.894
       0.034
      -0.736
      -1.256
      -1.511
      -1.595
      -1.587
      -1.478
      -1.218
      -0.826
      -0.421
      -0.134
       0.007
       0.083
       0.177
       0.285
       0.338
       0.301
       0.232
       0.215
       0.260
       0.284
       0.198
       0.011
      -0.173
      -0.259
      -0.243
      -0.200
      -0.179
      -0.139
       0.014
       0.320
       0.688
       0.945
       0.953
       0.715
       0.369
       0.081
      -0.078
      -0.159
      -0.265
      -0.440
      -0.627
      -0.719
      -0.649
      -0.454
      -0.246
      -0.120
      -0.084
      -0.062
       0.036
       0.246
       0.527
       0.796
       0.978
       1.050
       1.035
       0.958
       0.796
       0.497
       0.046
      -0.481
      -0.942
      -1.208
      -1.229
      -1.054
      -0.790
      -0.548
      -0.396
      -0.322
      -0.247
      -0.083
       0.188
       0.477
       0.637
       0.573
       0.319
       0.017
      -0.195
      -0.288
      -0.339
      -0.434
      -0.563
      -0.616
      -0.489
      -0.201
       0.089
       0.202
       0.089
      -0.132
      -0.273
      -0.227
      -0.028
       0.217
       0.438
       0.626
       0.780
       0.853
       0.787
       0.589
       0.351
       0.184
       0.148
       0.236
       0.409
       0.613
       0.782
       0.848
       0.774
       0.579
       0.300
      -0.050
      -0.478
      -0.954
      -1.378
      -1.628
      -1.642
      -1.451
      -1.147
      -0.818
      -0.504
      -0.206
       0.075
       0.302
       0.399
       0.321
       0.107
      -0.113
      -0.208
      -0.116
       0.135
       0.482
       0.852
       1.156
       1.284
       1.152
       0.778
       0.296
      -0.125
      -0.390
      -0.511
      -0.554
      -0.546
      -0.469
      -0.315
      -0.149
      -0.071
      -0.120
      -0.220
      -0.246
      -0.148
       0.006
       0.094
       0.048
      -0.096
      -0.233
      -0.272
      -0.197
      -0.054
       0.098
       0.223
       0.301
       0.310
       0.233
       0.098
      -0.019
      -0.045
       0.016
       0.078
       0.039
      -0.124
      -0.332
      -0.467
      -0.470
      -0.386
      -0.314
      -0.313
      -0.345
      -0.325
      -0.196
       0.041
       0.347
       0.677
       0.983
       1.213
       1.327
       1.309
       1.160
       0.894
       0.521
       0.051
      -0.483
      -0.994
      -1.344
      -1.403
      -1.147
      -0.685
      -0.211
       0.107
       0.205
       0.134
       0.009
      -0.065
      -0.056
      -0.004
       0.023
      -0.008
      -0.077
      -0.138
      -0.165
      -0.176
      -0.204
      -0.251
      -0.254
      -0.142
       0.091
       0.350
       0.509
       0.515
       0.424
       0.347
       0.366
       0.484
       0.641
       0.736
       0.663
       0.358
      -0.158
      -0.757
      -1.252
      -1.472
      -1.351
      -0.934
      -0.347
       0.254
       0.709
       0.891
       0.749
       0.341
      -0.178
      -0.628
      -0.862
      -0.815
      -0.511
      -0.049
       0.437
       0.821
       1.016
       0.985
       0.745
       0.360
      -0.071
      -0.437
      -0.647
      -0.650
      -0.452
      -0.122
       0.220
       0.454
       0.511
       0.410
       0.219
       0.008
      -0.184
      -0.330
      -0.384
      -0.277
       0.022
       0.444
       0.824
       0.995
       0.896
       0.595
       0.223
      -0.122
      -0.389
      -0.537
      -0.511
      -0.285
       0.074
       0.406
       0.533
       0.372
      -0.022
      -0.505
      -0.928
      -1.200
      -1.293
      -1.221
      -1.028
      -0.778
      -0.532
      -0.332
      -0.188
      -0.080
       0.036
       0.216
       0.495
       0.854
       1.197
       1.392
       1.353
       1.109
       0.783
       0.489
       0.241
      -0.014
      -0.294
      -0.514
      -0.555
      -0.400
      -0.191
      -0.122
      -0.282
      -0.576
      -0.808
      -0.831
      -0.620
      -0.248
       0.171
       0.526
       0.727
       0.744
       0.613
       0.414
       0.218
       0.067
      -0.010
       0.014
       0.135
       0.281
       0.334
       0.215
      -0.054
      -0.354
      -0.550
      -0.580
      -0.481
      -0.345
      -0.243
      -0.188
      -0.150
      -0.100
      -0.042
      -0.008
      -0.022
      -0.065
      -0.074
      -0.001
       0.122
       0.201
       0.166
       0.050
      -0.050
      -0.073
      -0.049
      -0.052
      -0.107
      -0.159
      -0.118
       0.052
       0.288
       0.463
       0.466
       0.278
      -0.007
      -0.238
      -0.305
      -0.205
      -0.044
       0.052
       0.038
      -0.021
      -0.009
       0.139
       0.377
       0.568
       0.578
       0.363
      -0.007
      -0.395
      -0.678
      -0.804
      -0.768
      -0.580
      -0.254
       0.161
       0.567
       0.849
       0.933
       0.830
       0.619
       0.396
       0.228
       0.121
       0.036
      -0.073
      -0.215
      -0.355
      -0.455
      -0.506
      -0.541
      -0.597
      -0.676
      -0.730
      -0.697
      -0.555
      -0.350
      -0.178
