Origin Time       20/10/2013 19:45:05
Lat.              35.8 N	
Long.             77.5 E	
Depth (Km)         80.0
Magnitude         5.5
 Region           India-China-Border-Region                                        
 Above details taken from IMD 
     
Station Code      CHM
Station Lat.       32.555  N
Station Long.      76.126  E
Station Height(m)  952.0
Site Class        A   Vs30 between 700 m/sec to 1400 m/sec * 
Record Time       20.10.2013 19:45:35.294
Sampling Rate     200. Hz
 Record Duration   68.450 Sec.
 Direction         E-W (E positive)
Max. Acceleration     -2.062 cm/sec**2
     
  * For reference see Site Classification link of website 
     
 Base Line Corrected and Low Pass Filtered (Cut Off at 35 Hz) Time History
 Acceleration data in cm/sec**2
    
[...]
      -0.167
      -0.233
      -0.236
      -0.202
      -0.179
      -0.187
      -0.198
      -0.162
      -0.057
       0.086
       0.197
       0.220
       0.153
       0.053
      -0.012
      -0.008
       0.057
       0.147
       0.229
       0.280
       0.283
       0.232
       0.145
       0.056
      -0.010
      -0.056
      -0.104
      -0.167
      -0.220
      -0.229
      -0.180
      -0.104
      -0.045
      -0.024
      -0.020
       0.001
       0.051
       0.099
       0.099
       0.039
      -0.051
      -0.112
      -0.108
      -0.052
       0.012
       0.042
       0.031
       0.005
       0.001
       0.040
       0.112
       0.189
       0.233
       0.218
       0.138
       0.015
      -0.117
      -0.223
      -0.282
      -0.293
      -0.269
      -0.228
      -0.173
      -0.099
       0.005
       0.136
       0.267
       0.356
       0.366
       0.294
       0.180
       0.077
       0.017
       0.000
      -0.001
      -0.012
      -0.041
      -0.078
      -0.100
      -0.087
      -0.042
       0.008
       0.023
      -0.017
      -0.100
      -0.192
      -0.261
      -0.296
      -0.304
      -0.297
      -0.266
      -0.193
      -0.071
       0.069
       0.162
       0.146
       0.012
      -0.171
      -0.289
      -0.255
      -0.071
       0.178
       0.394
       0.521
       0.561
       0.529
       0.426
       0.247
       0.014
      -0.215
      -0.374
      -0.436
      -0.415
      -0.336
      -0.204
      -0.018
       0.197
       0.367
       0.403
       0.272
       0.031
      -0.200
      -0.319
      -0.304
      -0.211
      -0.112
      -0.043
       0.001
       0.028
       0.022
      -0.039
      -0.147
      -0.252
      -0.290
      -0.236
      -0.116
       0.021
       0.150
       0.279
       0.423
       0.562
       0.639
       0.602
       0.442
       0.199
      -0.062
      -0.280
      -0.411
      -0.438
      -0.371
      -0.247
      -0.122
      -0.050
      -0.049
      -0.099
      -0.155
      -0.180
      -0.172
      -0.153
      -0.136
      -0.104
      -0.029
       0.086
       0.196
       0.247
       0.215
       0.128
       0.034
      -0.037
      -0.086
      -0.120
      -0.137
      -0.117
      -0.043
       0.086
       0.244
       0.382
       0.445
       0.392
       0.217
      -0.039
      -0.298
      -0.475
      -0.525
      -0.459
      -0.329
      -0.190
      -0.071
       0.026
       0.101
       0.147
       0.152
       0.123
       0.090
       0.086
       0.115
       0.152
       0.167
       0.156
       0.133
       0.116
       0.110
       0.102
       0.069
      -0.009
      -0.136
      -0.286
      -0.405
      -0.433
      -0.345
      -0.173
       0.000
       0.093
       0.076
      -0.010
      -0.084
      -0.083
      -0.005
       0.093
       0.149
       0.144
       0.123
       0.151
       0.244
       0.342
       0.355
       0.244
       0.058
      -0.102
      -0.169
      -0.149
      -0.092
      -0.031
       0.037
       0.116
       0.172
       0.141
      -0.015
      -0.265
      -0.513
      -0.659
      -0.658
      -0.540
      -0.368
      -0.191
      -0.030
       0.109
       0.206
       0.240
       0.222
       0.197
       0.212
       0.275
       0.353
       0.406
       0.423
       0.413
       0.371
       0.262
       0.062
      -0.195
      -0.405
      -0.459
      -0.326
      -0.086
       0.118
       0.174
       0.082
      -0.055
      -0.123
      -0.081
       0.000
       0.013
      -0.096
      -0.281
      -0.431
      -0.456
      -0.348
      -0.173
      -0.020
       0.061
       0.075
       0.067
       0.078
       0.129
       0.211
       0.302
       0.382
       0.441
       0.478
       0.487
       0.445
       0.334
       0.153
      -0.071
      -0.298
      -0.488
      -0.601
      -0.604
      -0.486
      -0.282
      -0.064
       0.094
       0.166
       0.180
       0.188
       0.209
       0.219
       0.174
       0.064
      -0.072
      -0.169
      -0.196
      -0.187
      -0.210
      -0.303
      -0.429
      -0.506
      -0.473
      -0.338
      -0.157
       0.019
       0.176
       0.325
       0.466
       0.571
       0.600
       0.536
       0.401
       0.246
       0.123
       0.047
      -0.004
      -0.058
      -0.119
      -0.163
      -0.167
      -0.141
      -0.123
      -0.136
      -0.171
      -0.203
      -0.222
      -0.248
      -0.298
      -0.365
      -0.410
      -0.390
      -0.282
      -0.096
       0.123
       0.309
       0.398
       0.367
       0.261
       0.179
       0.207
       0.351
       0.525
       0.617
       0.564
       0.397
       0.202
       0.047
      -0.064
      -0.179
      -0.347
      -0.562
      -0.762
      -0.872
      -0.852
      -0.708
      -0.482
      -0.221
       0.031
       0.240
       0.388
       0.480
       0.540
       0.581
       0.592
       0.555
       0.471
       0.368
       0.279
       0.213
       0.148
       0.057
      -0.073
      -0.218
      -0.333
      -0.382
      -0.362
      -0.314
      -0.296
      -0.342
      -0.436
      -0.519
      -0.534
      -0.462
      -0.321
      -0.136
       0.067
       0.266
       0.432
       0.548
       0.633
       0.733
       0.870
       1.005
       1.045
       0.919
       0.636
       0.281
      -0.047
      -0.310
      -0.525
      -0.718
      -0.874
      -0.948
      -0.925
      -0.851
      -0.800
      -0.803
      -0.814
      -0.750
      -0.556
      -0.249
       0.093
       0.381
       0.548
       0.575
       0.490
       0.367
       0.297
       0.344
       0.506
       0.708
       0.846
       0.844
       0.686
       0.422
       0.121
      -0.164
      -0.411
      -0.613
      -0.753
      -0.806
      -0.756
      -0.621
      -0.446
      -0.287
      -0.178
      -0.111
      -0.058
       0.003
       0.070
       0.128
       0.174
       0.224
       0.295
       0.371
       0.403
       0.348
       0.206
       0.035
      -0.087
      -0.115
      -0.064
       0.017
       0.081
       0.103
       0.081
       0.022
      -0.059
      -0.136
      -0.184
      -0.197
      -0.204
      -0.249
      -0.347
      -0.461
      -0.513
      -0.441
      -0.237
       0.042
       0.315
       0.517
       0.626
       0.655
       0.621
       0.538
       0.414
       0.263
       0.102
      -0.048
      -0.168
      -0.229
      -0.207
      -0.110
       0.011
       0.082
       0.072
       0.024
       0.015
       0.085
       0.191
       0.244
       0.182
       0.013
      -0.191
      -0.339
      -0.371
      -0.284
      -0.136
      -0.015
       0.023
      -0.011
      -0.045
      -0.011
       0.086
       0.169
       0.152
       0.026
      -0.121
      -0.160
      -0.023
       0.245
       0.516
       0.668
       0.651
       0.495
       0.255
      -0.027
      -0.331
      -0.636
      -0.894
      -1.038
      -1.017
      -0.828
      -0.530
      -0.213
       0.036
       0.172
       0.198
       0.150
       0.068
      -0.029
      -0.126
      -0.201
      -0.212
      -0.129
       0.032
       0.204
       0.310
       0.318
       0.257
       0.184
       0.139
       0.120
       0.109
       0.100
       0.109
       0.150
       0.219
       0.294
       0.350
       0.370
       0.354
       0.312
       0.260
       0.201
       0.118
      -0.014
      -0.188
      -0.353
      -0.434
      -0.388
      -0.240
      -0.078
       0.007
      -0.027
      -0.151
      -0.291
      -0.378
      -0.385
      -0.331
      -0.253
      -0.174
      -0.095
      -0.003
       0.102
       0.203
       0.272
       0.290
       0.256
       0.184
       0.100
       0.031
      -0.001
       0.015
       0.070
       0.141
       0.198
       0.213
       0.182
       0.120
       0.041
      -0.053
      -0.177
      -0.334
      -0.501
      -0.628
      -0.673
      -0.613
      -0.456
      -0.232
       0.008
       0.192
       0.253
       0.174
       0.002
      -0.168
      -0.257
      -0.233
      -0.102
       0.124
       0.433
       0.794
       1.135
       1.361
       1.401
       1.247
       0.946
       0.573
       0.200
      -0.122
      -0.366
      -0.535
      -0.664
      -0.795
      -0.951
      -1.113
      -1.229
      -1.257
      -1.194
      -1.083
      -0.980
      -0.899
      -0.793
      -0.579
      -0.212
       0.271
       0.761
       1.145
       1.356
       1.392
       1.284
       1.069
       0.780
       0.461
       0.162
      -0.072
      -0.217
      -0.272
      -0.246
      -0.149
       0.003
       0.165
       0.270
       0.255
       0.102
      -0.138
      -0.365
      -0.495
      -0.509
      -0.453
      -0.383
      -0.315
      -0.221
      -0.070
       0.120
       0.294
       0.402
       0.452
       0.488
       0.549
       0.634
       0.723
       0.801
       0.865
       0.885
       0.796
       0.524
       0.054
      -0.537
      -1.114
      -1.547
      -1.772
      -1.793
      -1.659
      -1.425
      -1.140
      -0.852
      -0.616
      -0.477
      -0.438
      -0.453
      -0.441
      -0.332
      -0.104
       0.214
       0.559
       0.868
       1.104
       1.257
       1.335
       1.344
       1.276
       1.119
       0.882
       0.598
       0.315
       0.064
      -0.147
      -0.311
      -0.411
      -0.420
      -0.332
      -0.178
      -0.008
       0.137
       0.229
       0.246
       0.163
      -0.027
      -0.292
      -0.549
      -0.702
      -0.698
      -0.562
      -0.375
      -0.221
      -0.124
      -0.041
       0.081
       0.247
       0.385
       0.395
       0.232
      -0.054
      -0.350
      -0.557
      -0.637
      -0.606
      -0.499
      -0.342
      -0.155
       0.038
       0.202
       0.299
       0.310
       0.252
       0.174
       0.134
       0.157
       0.227
       0.303
       0.351
       0.367
       0.366
       0.365
       0.365
       0.345
       0.275
       0.133
      -0.076
      -0.330
      -0.593
      -0.825
      -0.979
      -1.004
      -0.866
      -0.566
      -0.156
       0.280
       0.655
       0.908
       1.009
       0.959
       0.791
       0.566
       0.351
       0.186
       0.066
      -0.038
      -0.145
      -0.238
      -0.285
      -0.269
      -0.216
      -0.174
      -0.182
      -0.243
      -0.333
      -0.423
      -0.494
      -0.536
      -0.541
      -0.502
      -0.411
      -0.261
      -0.053
       0.189
       0.400
       0.511
       0.491
       0.381
       0.270
       0.223
       0.244
       0.287
       0.308
       0.290
       0.245
       0.188
       0.127
       0.072
       0.035
       0.018
       0.006
      -0.027
      -0.094
      -0.175
      -0.240
      -0.278
      -0.318
      -0.392
      -0.491
      -0.559
      -0.548
      -0.467
      -0.371
      -0.297
      -0.219
      -0.077
       0.153
       0.428
       0.652
       0.749
       0.696
       0.531
       0.327
       0.156
       0.062
       0.040
       0.061
       0.098
       0.148
       0.220
       0.298
       0.324
       0.222
      -0.042
      -0.417
      -0.772
      -0.963
      -0.913
      -0.639
      -0.240
       0.168
       0.497
       0.718
       0.841
       0.897
       0.893
       0.802
       0.590
       0.270
      -0.075
      -0.334
      -0.451
      -0.469
      -0.496
      -0.601
      -0.756
      -0.848
      -0.773
      -0.523
      -0.182
       0.142
       0.389
       0.556
       0.650
       0.658
       0.545
       0.294
      -0.064
      -0.457
      -0.798
      -1.021
      -1.098
      -1.033
      -0.850
      -0.574
      -0.224
       0.179
       0.603
       0.989
       1.267
       1.379
       1.305
       1.076
       0.758
       0.420
       0.113
      -0.139
      -0.325
      -0.435
      -0.471
      -0.456
      -0.436
      -0.449
      -0.493
      -0.523
      -0.487
      -0.370
      -0.212
      -0.067
       0.028
       0.080
       0.114
       0.150
       0.183
       0.185
       0.123
      -0.029
      -0.257
      -0.496
      -0.646
      -0.630
      -0.432
      -0.108
       0.260
       0.607
       0.900
       1.125
       1.269
       1.314
       1.240
       1.038
       0.722
       0.322
      -0.129
      -0.604
      -1.081
      -1.524
      -1.874
      -2.062
      -2.038
      -1.802
      -1.400
      -0.911
      -0.406
       0.063
       0.473
       0.815
       1.084
       1.287
       1.435
       1.527
       1.526
       1.363
       0.983
       0.423
      -0.172
      -0.618
      -0.814
      -0.808
      -0.740
      -0.718
      -0.733
      -0.692
      -0.528
      -0.269
      -0.014
       0.159
       0.251
       0.314
       0.378
       0.420
       0.394
       0.276
       0.075
      -0.177
      -0.438
      -0.646
      -0.718
      -0.592
      -0.264
       0.186
       0.639
       0.991
       1.196
       1.262
       1.223
       1.105
       0.911
       0.639
       0.313
      -0.021
      -0.312
      -0.537
      -0.713
      -0.869
      -1.016
      -1.133
      -1.174
      -1.093
      -0.874
      -0.548
      -0.188
       0.121
       0.325
       0.421
       0.444
       0.432
       0.398
       0.337
       0.247
       0.131
      -0.009
      -0.168
      -0.323
      -0.431
      -0.452
      -0.387
      -0.292
      -0.237
      -0.248
      -0.285
      -0.284
      -0.219
      -0.130
      -0.090
      -0.130
      -0.204
      -0.209
      -0.064
       0.214
       0.506
       0.671
       0.641
       0.475
       0.308
       0.246
       0.284
       0.341
       0.334
       0.255
       0.152
       0.082
       0.063
       0.078
       0.104
       0.116
       0.082
      -0.041
      -0.270
      -0.555
      -0.771
      -0.780
      -0.526
      -0.082
       0.393
       0.751
       0.925
       0.934
       0.832
       0.652
       0.400
       0.091
      -0.220
      -0.448
      -0.537
      -0.497
      -0.393
      -0.280
      -0.157
       0.009
       0.214
       0.382
       0.408
       0.235
      -0.085
      -0.424
      -0.663
      -0.760
      -0.743
      -0.661
      -0.525
      -0.318
      -0.046
       0.239
       0.464
       0.580
       0.599
       0.573
       0.563
       0.597
       0.675
       0.777
       0.881
       0.959
       0.956
       0.797
       0.428
      -0.123
      -0.738
      -1.267
      -1.615
      -1.791
      -1.859
      -1.862
      -1.768
      -1.497
      -1.002
      -0.341
       0.329
       0.831
       1.066
       1.063
       0.933
       0.791
       0.685
       0.594
       0.466
       0.279
       0.056
      -0.145
      -0.269
      -0.286
      -0.214
      -0.104
      -0.012
       0.031
       0.036
       0.038
       0.073
       0.158
       0.287
       0.433
       0.549
       0.578
       0.485
       0.276
      -0.009
      -0.328
      -0.640
      -0.886
      -0.977
      -0.842
      -0.502
      -0.085
       0.250
       0.427
       0.494
       0.547
       0.622
       0.666
       0.604
       0.426
       0.205
       0.037
      -0.035
      -0.051
      -0.098
      -0.226
      -0.411
      -0.576
      -0.663
      -0.671
      -0.637
      -0.581
      -0.490
      -0.346
      -0.154
       0.072
       0.333
       0.637
       0.953
       1.184
       1.222
       1.030
       0.674
       0.278
      -0.068
      -0.353
      -0.613
      -0.866
      -1.080
      -1.210
      -1.245
      -1.214
      -1.145
      -1.033
      -0.855
      -0.611
      -0.328
      -0.028
       0.293
       0.646
       1.003
       1.283
       1.389
       1.283
       1.018
       0.712
       0.466
       0.303
       0.169
       0.012
      -0.158
      -0.274
      -0.273
      -0.160
      -0.009
       0.084
       0.072
      -0.011
      -0.090
      -0.112
      -0.104
      -0.156
      -0.348
      -0.672
      -1.013
      -1.208
      -1.149
      -0.849
      -0.424
      -0.006
       0.333
       0.591
       0.787
       0.929
       1.001
       0.989
       0.894
       0.750
       0.608
       0.495
       0.379
       0.190
      -0.116
      -0.494
      -0.837
      -1.045
      -1.099
      -1.055
      -0.979
      -0.897
      -0.780
      -0.588
      -0.307
       0.032
       0.370
       0.638
       0.786
       0.810
       0.749
       0.659
       0.581
       0.528
       0.506
       0.525
       0.598
       0.722
       0.861
       0.945
       0.891
       0.647
       0.234
      -0.249
      -0.670
      -0.935
      -1.023
      -0.988
      -0.910
      -0.853
      -0.836
      -0.841
      -0.840
      -0.822
      -0.791
      -0.755
      -0.706
      -0.617
      -0.459
      -0.224
       0.063
       0.347
       0.583
       0.747
       0.838
       0.854
       0.791
       0.646
       0.439
       0.211
       0.016
      -0.098
      -0.101
       0.003
       0.170
       0.320
       0.370
       0.269
       0.033
      -0.257
      -0.494
      -0.601
      -0.552
      -0.375
      -0.118
       0.164
       0.418
       0.593
       0.657
       0.613
       0.503
       0.371
       0.238
       0.096
      -0.054
      -0.176
      -0.206
      -0.105
       0.099
       0.317
       0.456
       0.462
       0.333
       0.096
      -0.208
      -0.526
      -0.788
      -0.914
      -0.855
      -0.611
      -0.247
       0.142
       0.457
       0.625
       0.622
       0.477
       0.260
       0.047
      -0.109
      -0.193
      -0.222
      -0.224
      -0.218
      -0.200
      -0.144
      -0.035
       0.103
       0.210
       0.228
       0.150
