Origin Time       20/10/2013 19:45:05 UTC
Lat.              35.8 N	
Long.             77.5 E	
Depth (Km)         80.0
Magnitude         5.5
 Region           India-China-Border-Region                                        
 Above details taken from IMD 
    
Station Code      CHM
Station Lat.       32.555  N
Station Long.      76.126  E
Station Height(m)  952.0
Site Class        A   Vs30 between 700 m/sec to 1400 m/sec * 
Record Time       20.10.2013 19:45:35.294 UTC
Sampling Rate     200. Hz
 Record Duration   68.450 Sec.
 Direction         N-S (N positive)
Max. Acceleration      2.977 cm/sec**2
     
  * For reference see Site Classification link of website 
     
 Base Line Corrected and Low Pass Filtered (Cut Off at 35 Hz) Time History
 Acceleration data in cm/sec**2
    
[...]
      -0.110
      -0.103
      -0.074
      -0.038
      -0.017
      -0.036
      -0.108
      -0.213
      -0.299
      -0.307
      -0.217
      -0.067
       0.062
       0.107
       0.068
       0.000
      -0.034
      -0.011
       0.045
       0.096
       0.131
       0.166
       0.217
       0.269
       0.290
       0.258
       0.189
       0.122
       0.089
       0.097
       0.118
       0.109
       0.042
      -0.082
      -0.227
      -0.339
      -0.379
      -0.347
      -0.273
      -0.202
      -0.160
      -0.142
      -0.125
      -0.095
      -0.056
      -0.027
      -0.023
      -0.042
      -0.066
      -0.077
      -0.059
      -0.010
       0.058
       0.120
       0.142
       0.108
       0.035
      -0.020
      -0.004
       0.089
       0.212
       0.290
       0.284
       0.211
       0.119
       0.040
      -0.023
      -0.082
      -0.130
      -0.144
      -0.111
      -0.049
       0.008
       0.036
       0.045
       0.063
       0.114
       0.194
       0.274
       0.324
       0.326
       0.281
       0.204
       0.113
       0.021
      -0.060
      -0.123
      -0.167
      -0.188
      -0.183
      -0.149
      -0.104
      -0.088
      -0.138
      -0.257
      -0.398
      -0.496
      -0.505
      -0.427
      -0.306
      -0.186
      -0.093
      -0.031
       0.006
       0.021
       0.013
      -0.004
      -0.005
       0.040
       0.138
       0.273
       0.405
       0.498
       0.533
       0.516
       0.456
       0.364
       0.252
       0.137
       0.045
      -0.008
      -0.025
      -0.025
      -0.025
      -0.035
      -0.059
      -0.109
      -0.195
      -0.312
      -0.424
      -0.487
      -0.477
      -0.411
      -0.324
      -0.246
      -0.184
      -0.131
      -0.078
      -0.020
       0.051
       0.139
       0.240
       0.326
       0.360
       0.330
       0.258
       0.196
       0.182
       0.215
       0.266
       0.304
       0.310
       0.274
       0.184
       0.033
      -0.164
      -0.356
      -0.482
      -0.506
      -0.436
      -0.318
      -0.205
      -0.131
      -0.106
      -0.123
      -0.168
      -0.218
      -0.240
      -0.202
      -0.090
       0.075
       0.237
       0.339
       0.360
       0.325
       0.283
       0.261
       0.239
       0.180
       0.074
      -0.040
      -0.094
      -0.054
       0.055
       0.165
       0.211
       0.168
       0.053
      -0.093
      -0.218
      -0.275
      -0.243
      -0.143
      -0.029
       0.046
       0.072
       0.076
       0.088
       0.109
       0.106
       0.047
      -0.064
      -0.192
      -0.291
      -0.332
      -0.310
      -0.235
      -0.127
      -0.003
       0.125
       0.249
       0.364
       0.456
       0.508
       0.504
       0.437
       0.314
       0.159
       0.011
      -0.083
      -0.094
      -0.031
       0.052
       0.089
       0.042
      -0.075
      -0.207
      -0.297
      -0.320
      -0.284
      -0.219
      -0.156
      -0.117
      -0.111
      -0.135
      -0.172
      -0.204
      -0.224
      -0.235
      -0.239
      -0.232
      -0.202
      -0.147
      -0.079
      -0.020
       0.026
       0.076
       0.147
       0.236
       0.308
       0.328
       0.291
       0.237
       0.218
       0.246
       0.280
       0.254
       0.138
      -0.033
      -0.177
      -0.227
      -0.175
      -0.079
      -0.007
       0.013
       0.019
       0.070
       0.183
       0.311
       0.388
       0.389
       0.354
       0.350
       0.408
       0.483
       0.485
       0.338
       0.038
      -0.346
      -0.711
      -0.978
      -1.126
      -1.184
      -1.195
      -1.180
      -1.117
      -0.973
      -0.739
      -0.458
      -0.197
       0.001
       0.143
       0.263
       0.383
       0.490
       0.556
       0.575
       0.574
       0.583
       0.599
       0.592
       0.539
       0.452
       0.370
       0.322
       0.305
       0.295
       0.265
       0.196
       0.072
      -0.109
      -0.326
      -0.520
      -0.616
      -0.558
      -0.349
      -0.052
       0.240
       0.451
       0.551
       0.565
       0.550
       0.560
       0.615
       0.683
       0.709
       0.651
       0.500
       0.284
       0.042
      -0.188
      -0.381
      -0.532
      -0.650
      -0.757
      -0.866
      -0.971
      -1.045
      -1.059
      -0.996
      -0.852
      -0.630
      -0.338
      -0.001
       0.329
       0.594
       0.755
       0.815
       0.810
       0.775
       0.714
       0.600
       0.414
       0.167
      -0.093
      -0.317
      -0.484
      -0.602
      -0.684
      -0.727
      -0.713
      -0.616
      -0.427
      -0.159
       0.151
       0.457
       0.715
       0.889
       0.952
       0.890
       0.712
       0.458
       0.197
      -0.003
      -0.103
      -0.102
      -0.026
       0.091
       0.220
       0.345
       0.458
       0.554
       0.625
       0.654
       0.622
       0.526
       0.380
       0.208
       0.028
      -0.153
      -0.339
      -0.540
      -0.753
      -0.952
      -1.101
      -1.177
      -1.192
      -1.182
      -1.170
      -1.143
      -1.062
      -0.905
      -0.706
      -0.532
      -0.441
      -0.434
      -0.460
      -0.456
      -0.388
      -0.264
      -0.106
       0.081
       0.309
       0.589
       0.906
       1.215
       1.465
       1.630
       1.710
       1.716
       1.646
       1.486
       1.234
       0.913
       0.561
       0.211
      -0.126
      -0.453
      -0.772
      -1.063
      -1.287
      -1.381
      -1.285
      -0.972
      -0.485
       0.064
       0.542
       0.853
       0.973
       0.936
       0.788
       0.563
       0.289
       0.001
      -0.261
      -0.461
      -0.582
      -0.623
      -0.592
      -0.510
      -0.410
      -0.330
      -0.288
      -0.275
      -0.270
      -0.268
      -0.281
      -0.319
      -0.359
      -0.361
      -0.301
      -0.201
      -0.112
      -0.075
      -0.087
      -0.108
      -0.087
       0.000
       0.144
       0.315
       0.483
       0.632
       0.755
       0.841
       0.874
       0.850
       0.782
       0.698
       0.624
       0.577
       0.563
       0.576
       0.600
       0.607
       0.560
       0.437
       0.242
       0.004
      -0.238
      -0.461
      -0.659
      -0.842
      -1.011
      -1.146
      -1.210
      -1.174
      -1.044
      -0.864
      -0.685
      -0.536
      -0.414
      -0.303
      -0.200
      -0.115
      -0.058
      -0.017
       0.040
       0.139
       0.275
       0.416
       0.523
       0.572
       0.558
       0.496
       0.411
       0.336
       0.297
       0.308
       0.357
       0.412
       0.430
       0.375
       0.232
       0.009
      -0.263
      -0.544
      -0.797
      -1.000
      -1.142
      -1.209
      -1.190
      -1.084
      -0.907
      -0.681
      -0.417
      -0.113
       0.226
       0.573
       0.881
       1.104
       1.222
       1.244
       1.195
       1.098
       0.969
       0.829
       0.706
       0.622
       0.578
       0.545
       0.480
       0.340
       0.111
      -0.183
      -0.488
      -0.734
      -0.879
      -0.925
      -0.920
      -0.921
      -0.958
      -1.014
      -1.035
      -0.968
      -0.792
      -0.528
      -0.223
       0.081
       0.360
       0.603
       0.802
       0.931
       0.959
       0.869
       0.681
       0.450
       0.238
       0.092
       0.035
       0.060
       0.136
       0.211
       0.232
       0.172
       0.052
      -0.079
      -0.183
      -0.263
      -0.362
      -0.514
      -0.705
      -0.871
      -0.944
      -0.893
      -0.732
      -0.502
      -0.240
       0.026
       0.274
       0.498
       0.705
       0.914
       1.137
       1.354
       1.521
       1.589
       1.527
       1.343
       1.084
       0.808
       0.552
       0.310
       0.043
      -0.279
      -0.644
      -0.997
      -1.276
      -1.444
      -1.505
      -1.487
      -1.411
      -1.283
      -1.098
      -0.860
      -0.584
      -0.300
      -0.040
       0.156
       0.256
       0.246
       0.155
       0.052
       0.008
       0.053
       0.155
       0.248
       0.290
       0.290
       0.294
       0.339
       0.420
       0.490
       0.493
       0.401
       0.226
       0.025
      -0.131
      -0.189
      -0.146
      -0.043
       0.074
       0.182
       0.282
       0.369
       0.419
       0.405
       0.323
       0.208
       0.109
       0.051
       0.020
      -0.024
      -0.121
      -0.291
      -0.518
      -0.751
      -0.917
      -0.947
      -0.807
      -0.528
      -0.195
       0.080
       0.213
       0.191
       0.072
      -0.054
      -0.124
      -0.123
      -0.071
       0.019
       0.144
       0.294
       0.439
       0.540
       0.586
       0.605
       0.654
       0.768
       0.917
       1.009
       0.937
       0.650
       0.197
      -0.307
      -0.749
      -1.075
      -1.282
      -1.381
      -1.356
      -1.191
      -0.910
      -0.601
      -0.378
      -0.308
      -0.360
      -0.418
      -0.365
      -0.153
       0.168
       0.492
       0.725
       0.830
       0.818
       0.725
       0.586
       0.433
       0.300
       0.217
       0.189
       0.190
       0.170
       0.083
      -0.078
      -0.286
      -0.492
      -0.656
      -0.755
      -0.779
      -0.733
      -0.637
      -0.530
      -0.446
      -0.395
      -0.357
      -0.292
      -0.165
       0.035
       0.292
       0.571
       0.833
       1.048
       1.195
       1.260
       1.241
       1.160
       1.066
       1.020
       1.048
       1.112
       1.129
       1.027
       0.787
       0.442
       0.038
      -0.400
      -0.862
      -1.329
      -1.748
      -2.042
      -2.151
      -2.057
      -1.792
      -1.418
      -1.002
      -0.602
      -0.254
       0.029
       0.259
       0.454
       0.620
       0.738
       0.788
       0.769
       0.716
       0.662
       0.620
       0.576
       0.525
       0.490
       0.507
       0.588
       0.700
       0.791
       0.826
       0.807
       0.756
       0.684
       0.572
       0.390
       0.112
      -0.257
      -0.681
      -1.101
      -1.464
      -1.736
      -1.896
      -1.927
      -1.808
      -1.526
      -1.092
      -0.543
       0.070
       0.706
       1.339
       1.928
       2.407
       2.693
       2.727
       2.518
       2.128
       1.632
       1.077
       0.475
      -0.173
      -0.836
      -1.451
      -1.950
      -2.289
      -2.468
      -2.510
      -2.445
      -2.295
      -2.068
      -1.767
      -1.395
      -0.960
      -0.473
       0.049
       0.576
       1.050
       1.397
       1.549
       1.482
       1.232
       0.883
       0.532
       0.256
       0.090
       0.034
       0.067
       0.161
       0.286
       0.407
       0.487
       0.500
       0.439
       0.322
       0.177
       0.022
      -0.134
      -0.293
      -0.453
      -0.596
      -0.702
      -0.761
      -0.783
      -0.785
      -0.761
      -0.679
      -0.495
      -0.197
       0.190
       0.627
       1.082
       1.522
       1.893
       2.120
       2.146
       1.974
       1.665
       1.287
       0.871
       0.407
      -0.116
      -0.673
      -1.212
      -1.673
      -2.008
      -2.180
      -2.165
      -1.972
      -1.650
      -1.276
      -0.924
      -0.646
      -0.471
      -0.414
      -0.478
      -0.630
      -0.790
      -0.855
      -0.754
      -0.484
      -0.105
       0.307
       0.710
       1.103
       1.505
       1.914
       2.297
       2.594
       2.741
       2.692
       2.434
       1.984
       1.384
       0.685
      -0.057
      -0.784
      -1.426
      -1.913
      -2.188
      -2.225
      -2.043
      -1.702
      -1.288
      -0.875
      -0.506
      -0.172
       0.171
       0.560
       0.976
       1.333
       1.509
       1.429
       1.112
       0.661
       0.207
      -0.157
      -0.386
      -0.479
      -0.454
      -0.349
      -0.232
      -0.187
      -0.277
      -0.504
      -0.797
      -1.054
      -1.197
      -1.212
      -1.132
      -1.009
      -0.877
      -0.750
      -0.632
      -0.533
      -0.457
      -0.386
      -0.273
      -0.067
       0.254
       0.673
       1.160
       1.684
       2.205
       2.653
       2.935
       2.977
       2.763
       2.338
       1.769
       1.114
       0.412
      -0.288
      -0.925
      -1.438
      -1.794
      -1.994
      -2.049
      -1.968
      -1.765
      -1.478
      -1.176
      -0.927
      -0.763
      -0.662
      -0.573
      -0.445
      -0.266
      -0.082
       0.035
       0.045
      -0.020
      -0.076
      -0.041
       0.112
       0.345
       0.605
       0.854
       1.078
       1.258
       1.345
       1.275
       1.019
       0.612
       0.143
      -0.297
      -0.651
      -0.907
      -1.075
      -1.168
      -1.190
      -1.150
      -1.060
      -0.937
      -0.788
      -0.603
      -0.353
      -0.017
       0.390
       0.794
       1.101
       1.245
       1.243
       1.175
       1.126
       1.123
       1.134
       1.102
       0.991
       0.797
       0.529
       0.201
      -0.165
      -0.525
      -0.821
      -1.003
      -1.047
      -0.953
      -0.750
      -0.494
      -0.258
      -0.109
      -0.084
      -0.179
      -0.359
      -0.568
      -0.742
      -0.816
      -0.743
      -0.514
      -0.171
       0.197
       0.493
       0.657
       0.710
       0.726
       0.771
       0.833
       0.836
       0.714
       0.471
       0.177
      -0.087
      -0.290
      -0.445
      -0.566
      -0.644
      -0.651
      -0.584
      -0.478
      -0.391
      -0.340
      -0.278
      -0.119
       0.188
       0.600
       0.992
       1.237
       1.276
       1.137
       0.884
       0.576
       0.258
      -0.011
      -0.169
      -0.183
      -0.085
       0.044
       0.134
       0.166
       0.164
       0.161
       0.167
       0.171
       0.158
       0.110
       0.001
      -0.190
      -0.462
      -0.782
      -1.104
      -1.392
      -1.616
      -1.747
      -1.755
      -1.619
      -1.358
      -1.019
      -0.656
      -0.287
       0.111
       0.566
       1.052
       1.473
       1.715
       1.718
       1.510
       1.181
       0.813
       0.437
       0.045
      -0.365
      -0.757
      -1.067
      -1.232
      -1.213
      -1.001
      -0.622
      -0.143
       0.331
       0.682
       0.825
       0.750
       0.518
       0.227
      -0.032
      -0.205
      -0.277
      -0.261
      -0.188
      -0.094
      -0.014
       0.032
       0.047
       0.051
       0.075
       0.150
       0.295
       0.502
       0.742
       0.967
       1.132
       1.199
       1.152
       0.995
       0.750
       0.445
       0.097
      -0.288
      -0.694
      -1.075
      -1.359
      -1.484
      -1.443
      -1.298
      -1.134
      -0.989
      -0.828
      -0.596
      -0.286
       0.032
       0.248
       0.293
       0.184
       0.017
      -0.093
      -0.079
       0.045
       0.202
       0.304
       0.306
       0.231
       0.146
       0.118
       0.165
       0.251
       0.325
       0.359
       0.363
       0.367
       0.380
       0.389
       0.378
       0.348
       0.315
       0.284
       0.242
       0.170
       0.067
      -0.058
      -0.192
      -0.327
      -0.440
      -0.487
      -0.427
      -0.257
      -0.025
       0.195
       0.345
       0.408
       0.403
       0.364
       0.328
       0.323
       0.360
       0.416
       0.438
       0.371
       0.195
      -0.059
      -0.323
      -0.532
      -0.640
      -0.632
      -0.517
      -0.335
      -0.148
      -0.014
       0.041
       0.035
       0.003
      -0.037
      -0.099
      -0.199
      -0.325
      -0.428
      -0.448
      -0.349
      -0.136
       0.138
       0.400
       0.578
       0.638
       0.592
       0.485
       0.365
       0.259
       0.171
       0.098
       0.031
      -0.045
      -0.155
      -0.328
      -0.563
      -0.812
      -0.988
      -1.022
      -0.908
      -0.702
      -0.479
      -0.277
      -0.096
       0.082
       0.263
       0.441
       0.620
       0.809
       1.002
       1.160
       1.221
       1.143
       0.940
       0.682
       0.443
       0.259
       0.118
      -0.013
      -0.155
      -0.297
      -0.412
      -0.473
      -0.467
      -0.401
      -0.296
      -0.183
      -0.095
      -0.040
       0.000
       0.045
       0.085
       0.075
      -0.027
      -0.226
      -0.477
      -0.719
      -0.909
      -1.031
      -1.086
      -1.074
      -0.989
      -0.833
      -0.623
      -0.376
      -0.113
       0.144
       0.369
       0.549
       0.700
       0.858
       1.034
       1.196
       1.281
       1.245
       1.087
       0.840
       0.536
       0.189
      -0.197
      -0.602
      -0.977
      -1.251
      -1.346
      -1.214
      -0.864
      -0.384
       0.084
       0.403
       0.508
       0.440
       0.314
       0.251
       0.310
       0.460
       0.604
       0.644
       0.542
       0.342
       0.140
       0.019
      -0.005
       0.014
       0.002
      -0.075
      -0.177
      -0.228
      -0.170
      -0.008
       0.189
       0.339
       0.394
       0.364
       0.296
       0.235
       0.190
       0.141
       0.069
      -0.012
      -0.063
      -0.052
       0.013
       0.081
       0.096
       0.034
      -0.084
      -0.216
      -0.336
      -0.439
      -0.524
      -0.560
      -0.502
      -0.330
      -0.085
       0.148
       0.282
       0.269
       0.108
      -0.174
      -0.522
